X,Y,FID,FEATURE_ID,ESITE,CODE,NAME,ABB_NAME,ADDRESS,ZIPCODE,CITY,PHONE,SEAT_CAP,RISK,RECORD_ID,FACILITY_N,CHAIN_NAME,CHAIN_ESTA,SITE_ADDRE,NEAR_FID,NEAR_DIST
-122.345632110641645,47.613783659075295,1,350001,0000000,350,A'Jhang Market,A'Jhang Market,2237 2ND AVE,98121,Seattle,(206) 228-5238,Grocery,I, , , , ," 
",-1,-1
-122.271187209493476,47.54056463945021,2,350002,0000000,350,A-Chau Cafe,A-Chau Cafe,6902 RAINIER AVE S,98118,Seattle, ,Seating 13-50,III, , , , ," 
",-1,-1
-122.376319540102784,47.517727108912972,3,350003,0000000,350,A-Pizza Mart,A-Pizza Mart,9452 35TH AVE SW,98126,Seattle,(206) 932-5350,Seating 0-12,III, , , , ," 
",-1,-1
-122.324098729602468,47.597636549103797,4,350005,0000000,350,"A & B Cafe; Inc.","A & B Cafe; Inc.",670 S WELLER ST,98104,Seattle,(206) 725-5383,Seating 13-50,III, , , , ," 
",176,2454.73743513
-122.35734890043345,47.639692678638234,5,350007,0000000,350,A & J Meats & Seafood,A & J Meats & Seafood,2401 QUEEN ANNE AVE N,98109,Seattle,(206) 284-3885,Meat/Sea Food,III, , , , ," 
",-1,-1
-122.311897160157201,47.714150199157693,6,350143,0000000,350,Ahadu,Ahadu,1508 NE 117TH ST,98125,Seattle,(206) 367-3998,Seating 13-50,III, , , , ," 
",-1,-1
-122.314396179608011,47.547467288885663,7,350148,0000000,350,Airport Way Market,Airport Way Market,6249 AIRPORT WAY S,98108,Seattle,(206) 767-7296,Seating 0-12,III, , , , ," 
",-1,-1
-122.28198033051703,47.546321829018737,8,350153,0000000,350,Aki Kurose,Aki Kurose,3928 S GRAHAM ST,98118,Seattle, ,School Kitchen, , , , , ," 
",-1,-1
-122.332334869416755,47.598453329465144,9,350154,0000000,350,Al'S Gourment Sausages @  1029 Occidental,Al'S Gourmet Sausages,170 KING ST,98104,Seattle, ,Mobile Food Service,I, , , , ," 
",223,3867.60371614
-122.333300000442193,47.593889999451221,10,350155,0000000,350,Al'S Gourmet - Dteh034 / 1029 Occidental,Al'S Gourmet Sausage Dteh - 034,170 KING ST,98104,Seattle,(206) 551-2399,Mobile Food Service,III, , , , ," 
",-1,-1
-122.332334869416755,47.598453329465144,11,350156,0000000,350,Al'S Gourmet Sausge @  1029 Occidental,Al'S Gourmet Sausage #5,170 KING ST,98104,Seattle, ,Mobile Food Service,I, , , , ," 
",223,3867.60371614
-122.331140190538221,47.661184339255342,12,350157,0000000,350,Al'S Tavern,Al'S Tavern,2303 N 45TH ST,98103,Seattle,(206) 545-9959,Seating 13-50,II, , , , ," 
",-1,-1
-122.276269349479634,47.545887229403377,13,350159,0000000,350,Al-Noor Grocery & Halal Meat,Al-Noor Grocery & Halal Meat,6301 RAINIER AVE S,98118,Seattle,(206) 721-9850,Seating 0-12,III, , , , ," 
",-1,-1
-122.335735230002783,47.60156901872098,14,350160,0000000,350,Al Boccalino,Al Boccalino,1 YESLER WAY,98104,Seattle,(206) 622-7688,Seating 13-50,III, , , , ," 
",223,3514.71634532
-122.313446080493435,47.66244058916822,15,350163,0000000,350,Aladdin Falafel Corner,Aladdin Falafel Corner,4541 UNIVERSITY WAY NE,98105,Seattle,(206) 548-9539,Seating 0-12,III, , , , ," 
",-1,-1
-122.313468580626008,47.658056979079689,16,350164,0000000,350,Aladdin Gyro-Cery & Deli,Aladdin Gyro-Cery & Deli,4139 UNIVERSITY WAY NE,98105,Seattle,(206) 228-3087,Seating 13-50,III, , , , ," 
",-1,-1
-122.324604769745818,47.708438228831945,17,350168,0000000,350,Alaska Smokehouse,Alaska Smokehouse,401 NE NORTHGATE MALL STE 310,98125,Seattle,(360) 668-9404,Grocery,I, , , , ," 
",-1,-1
-122.345697040101712,47.617365178992955,18,350386,0000000,350,Artisan Cafe,Artisan Cafe,2523 5th AVE,98121,Seattle,(206) 764-4557,Seating 13-50,III, , , , ," 
",-1,-1
-122.387188820507831,47.560710328796638,19,350388,0000000,350,Arts West Playhouse,Arts West Playhouse,4711 CALIFORNIA AVE SW,98116,Seattle,(206) 938-0963,Seating 0-12,I, , , , ," 
",-1,-1
-122.312083139491492,47.564132718997882,20,350390,0000000,350,Asa Mercer Middle School,Asa Mercer Middle School,1600 S COLUMBIAN WAY,98108,Seattle, ,School Kitchen, , , , , ," 
",-1,-1
-122.342295000247148,47.6482789988683,21,350392,0000000,350,Asgard Tavern,Asgard Tavern,1300 N NORTHLAKE WAY #300,98103,Seattle,(206) 953-1315,Seating 13-50,I, , , , ," 
",-1,-1
-122.324690739380713,47.599019109355048,22,350395,0000000,350,Asia Bbq & Fast Food,Asia Bbq & Fast Food,655 S JACKSON ST,98104,Seattle,(206) 624-2275,Seating 0-12,III, , , , ," 
",176,2371.22599044
-122.331934840149273,47.600488819482955,23,350396,0000000,350,Asia Ginger,Asia Ginger,209 2ND AVE S,98104,Seattle,(206) 525-2984,Seating 13-50,III, , , , ," 
",223,3180.24447189
-122.314444170608482,47.583831459171407,24,350398,0000000,350,Asian Express,Asian Express,2122 14TH AVE S,98144,Seattle,(206) 328-3301,Grocery,I, , , , ," 
",-1,-1
-122.297459569519262,47.663556998910757,25,350631,0000000,350,Bartell Drugs #31,Bartell Drugs #31,2700 NE UNIVERSITY VILLAGE ST,98105,Seattle, ,Grocery,I, , , , ," 
",-1,-1
-122.301220419509804,47.581688229196018,26,350641,0000000,350,Bartell Drugs #63,Bartell Drugs #63,2345 RAINIER AVE S,98144,Seattle,(206) 763-2626,Grocery,I, , , , ," 
",-1,-1
-122.295726430538451,47.719423138799712,27,350642,0000000,350,Bartell Drugs #66,Bartell Drugs #66,3018 NE 125TH ST,98125,Seattle,(206) 767-1353,Grocery,I, , , , ," 
",-1,-1
-122.357344839949221,47.636783349176099,28,350643,0000000,350,Bartell Drugs #67,Bartell Drugs #67,1929 QUEEN ANNE AVE N,98109,Seattle,(206) 763-2626,Grocery,I, , , , ," 
",-1,-1
-122.35740164025492,47.691006219382942,29,350646,0000000,350,Bartell Drugs #9,Bartell Drugs #9,100 N 85TH ST,98103,Seattle,(206) 763-2626,Grocery,I, , , , ," 
",-1,-1
-122.320967000589775,47.61330499931335,30,350648,0000000,350,"Bartell Drugs; #23","Bartell Drugs; #23",1407 BROADWAY,98122,Seattle, ,Grocery,I, , , , ," 
",631,1158.95049639
-122.330614640290392,47.604526938625852,31,350653,0000000,350,Basil Box,Basil Box,701 5TH AVE,98104,Seattle, ,Seating 0-12,III, , , , ," 
",223,1853.55338917
-122.341354389836724,47.662637739503168,32,350854,0000000,350,Bill The Butcher,Bill The Butcher,4612 STONE WAY N,98103,Seattle,(206) 453-4418,Meat/Sea Food,III, , , , ," 
",-1,-1
-122.288800119892755,47.661326948645041,33,350855,0000000,350,Bill The Butcher #2,Bill The Butcher,3600 NE 45TH ST,98105,Seattle,(206) 453-4418,Meat/Sea Food,III, , , , ," 
",-1,-1
-122.400326370391141,47.654272369417114,34,350856,0000000,350,Bill The Butcher #5,Bill The Butcher,3800 34TH AVE W,98199,Seattle,(206) 612-7360,Meat/Sea Food,III, , , , ," 
",-1,-1
-122.384346930673814,47.668169499479973,35,350861,0000000,350,Billy Beach Sushi & Bar,Billy Beach Sushi & Bar,5463 LEARY AVE NW,98107,Seattle,(425) 890-6987,Seating 13-50,III, , , , ," 
",-1,-1
-122.387002420659798,47.668390329493675,36,350865,0000000,350,Bing Of Fire @ Route 727-410-4671,Bing Of Fire (Kc230),2315 NW MARKET ST,98107,Seattle,(727) 410-4671,Mobile Food Service,III, , , , ," 
",-1,-1
-122.323642490328552,47.701602379145925,37,350871,0000000,350,Bistro @ Aljoya,Aljoya Thorton Place,450 NE 100TH ST,98125,Seattle,(206) 306-7920,Seating 0-12,III, , , , ," 
",-1,-1
-122.289161220330882,47.612146788744255,38,350873,0000000,350,Bistro Turkuaz,Bistro Turkuaz,1114 34TH AVE,98122,Seattle,(206) 721-3656,Seating 0-12,III, , , , ," 
",118,422.474375448
-122.383352499715585,47.666177079477322,39,350874,0000000,350,Bitterroot Seattle,Bitterroot Seattle,5239 BALLARD AVE NW,98107,Seattle,(206) 920-4196,Seating 51-150,III, , , , ," 
",-1,-1
-122.341711160130842,47.661967249377653,40,350875,0000000,350,Bizzarro Italian Cafe,Bizzarro Italian Cafe,1307 N 46TH ST,98103,Seattle,(206) 290-7585,Seating 13-50,III, , , , ," 
",-1,-1
-122.29267749054965,47.5896689594219,41,350014,0000000,350,A La Bonne Franquette,A La Bonne Franquette,1423 31ST AVE S,98144,Seattle,(206) 697-9699,Seating 13-50,III, , , , ," 
",-1,-1
-122.354671380325428,47.671704858608109,42,350015,0000000,350,A La Mode Pies,A La Mode Pies,5821 PHINNEY AVE N,98103,Seattle,(206) 383-3796,Seating 0-12,II, , , , ," 
",-1,-1
-122.331728590578663,47.62901947935412,43,350021,0000000,350,A Terrible Beauty,A Terrible Beauty Irish Pub,1001 FAIRVIEW AVE N,98109,Seattle,(206) 334-4287,Seating 51-150,III, , , , ," 
",135,2535.98137812
-122.386489529798411,47.559476529033972,44,350023,0000000,350,A Terrible Beauty Irish Pub & Restaurant,A Terrible Beauty Irish Pub & Restaurant,4752 CALIFORNIA AVE SW,98116,Seattle,(402) 391-1452,Seating 51-150,III, , , , ," 
",-1,-1
-122.354958799467212,47.704600928621872,45,350024,0000000,350,A1 Mart,A1 Mart,10406 GREENWOOD AVE N,98133,Seattle,(206) 789-7293,Seating 0-12,III, , , , ," 
",-1,-1
-122.294614909336104,47.574500748868182,46,350030,0000000,350,Abarrotes El Mexicano,Abarrotes 'El Mexicano',3218 RAINIER AVE S,98144,Seattle,(206) 725-9040,Grocery,I, , , , ," 
",-1,-1
-122.313881540540635,47.563034838822418,47,350031,0000000,350,Abarrotes El Oaxaqueno,Abarrotes El Oaxaqueno,4515 15TH AVE S,98108,Seattle,(206) 954-2229,Grocery,I, , , , ," 
",-1,-1
-122.320207489346686,47.641231639051632,48,350033,0000000,350,Abay Ethiopian Restaurant,Abay Ethiopian Restaurant,2359 10TH AVE E,98102,Seattle,(206) 769-0405,Seating 13-50,III, , , , ," 
",-1,-1
-122.38742205009865,47.544638959095955,49,350034,0000000,350,Abbondanza,Abbondanza,6503 CALIFORNIA AVE SW,98136,Seattle,(206) 706-9375,Seating 51-150,III, , , , ," 
",-1,-1
-122.28633363973367,47.546506379410509,50,350038,0000000,350,Abdul Gafoor Halal Meat Market,Abdul Gafoor Halal Meat Market,6053 M L KING JR WAY S,98118,Seattle,(206) 722-7931,Seating 0-12,III, , , , ," 
",-1,-1
-122.347596510588858,47.663092438982048,51,350039,0000000,350,Absolut Hot Dog @ 20409 Aurora Ave N Shoreline,Absolut Hot Dog,4705 AURORA AVE N,98103,Seattle,(425) 773-8790,Mobile Food Service,I, , , , ," 
",-1,-1
-122.344067660561734,47.615079319481026,52,350041,0000000,350,Abyssinia Market,Abyssinia Market,2225 4TH AVE,98121,Seattle,(206) 770-9410,Seating 0-12,II, , , , ," 
",-1,-1
-122.344384059474365,47.614838509418817,53,350046,0000000,350,Acquabar,Acquabar,305 BELL ST,98121,Seattle,(206) 954-0965,Seating 51-150,III, , , , ," 
",-1,-1
-122.387329049791987,47.568208919076767,54,350050,0000000,350,Ad Food Mart,Ad Food Mart,4001 CALIFORNIA AVE SW,98116,Seattle,(206) 932-7506,Seating 0-12,I, , , , ," 
",-1,-1
-122.312862370161412,47.622683448981306,55,350051,0000000,350,Ada'S Technical Books & Cafe,Ada'S Technical Books And Cafe,425 15TH AVE E,98112,Seattle,(206) 941-4010,Seating 13-50,III, , , , ," 
",632,1413.72780582
-122.392119060611293,47.673498729004081,56,350052,0000000,350,Adams Elementary School,Adams Elementary School,6110 28TH AVE NW,98107,Seattle, ,School Kitchen, , , , , ," 
",-1,-1
-122.303840960098228,47.612738629004333,57,350055,0000000,350,Adey Abeba Ethiopian Restaurant,Adey Abeba Ethiopian Restaurant,2123 E UNION ST,98122,Seattle, ,Seating 13-50,III, , , , ," 
",208,1362.93846753
-122.386242919456066,47.580994118687137,58,350056,0000000,350,Admiral Bird,Admiral Bird,2600 CALIFORNIA AVE SW,98116,Seattle,(206) 713-7013,Seating 13-50,III, , , , ," 
",-1,-1
-122.386917379838721,47.581494799220344,59,350057,0000000,350,Admiral Chevron,Admiral Chevron,2347 CALIFORNIA AVE SW,98116,Seattle, ,Seating 0-12,III, , , , ," 
",-1,-1
-122.386226159620193,47.582697058673453,60,350058,0000000,350,Admiral Pub,Admiral Pub,2306 CALIFORNIA AVE SW,98116,Seattle,(206) 463-1255,Seating 51-150,III, , , , ," 
",-1,-1
-122.386732890012098,47.582706938707723,61,350059,0000000,350,Admiral Theatre,Admiral Theatre,2343 CALIFORNIA AVE,98116,Seattle, ,Seating 0-12,I, , , , ," 
",-1,-1
-122.385802629824994,47.5799023986973,62,350066,0000000,350,Afc Sushi,Afc Sushi @ Safeway  #2932,2622 CALIFORNIA AVE SW,98116,Seattle,(310) 604-3200,Seating 0-12,III, , , , ," 
",-1,-1
-122.317615500423415,47.709012248957642,63,350069,0000000,350,Afc Sushi  @  (Qfc #866),Afc Sushi  @  (Qfc #866),11100 ROOSEVELT WAY,98125,Seattle,(425) 454-3621,Seating 0-12,III, , , , ," 
",-1,-1
-122.400590999759416,47.654793999451741,64,350070,0000000,350,Afc Sushi #161 @ Metropolitan Market,Afc Sushi@ Metropolitan Market #161,3830 34TH AVE W,98199,Seattle,(310) 604-3200,Seating 0-12,III, , , , ," 
",-1,-1
-122.384554869921288,47.581905249509695,65,350071,0000000,350,Afc Sushi & Metropolitan #153,Afc Sushi & Metropolitan #153,2320 42ND AVE SW,98116,Seattle, ,Seating 0-12,III, , , , ," 
",-1,-1
-122.358710159456578,47.69170218902417,66,350083,0000000,350,Afc Sushi @ Fred Meyer 122,Afc Sushi@ Fred Meyer #122,100 NW 85TH ST,98117,Seattle,(310) 604-3200,Seating 0-12,III, , , , ," 
",-1,-1
-122.354414789695824,47.624833579047454,67,350086,0000000,350,Afc Sushi @ Metopolitan Market#157,Afc Sushi @ Metopolitan Market#157,100 MERCER ST,98109,Seattle,(310) 604-3200,Seating 0-12,III, , , , ," 
",-1,-1
-122.283949589651399,47.668149689285009,68,350087,0000000,350,Afc Sushi @ Metropolitan 156,Afc Sushi @ Metropolitan 156,5250 40TH AVE NE,98105,Seattle,(310) 604-3200,Seating 0-12,III, , , , ," 
",-1,-1
-122.37783158978668,47.649337088652182,69,350091,0000000,350,Afc Sushi @ Qfc #811,Afc Sushi @ Qfc #811,1600 W DRAVUS ST,98119,Seattle,(310) 604-3200,Seating 0-12,III, , , , ," 
",-1,-1
-122.299800059519271,47.578763169084887,70,350100,0000000,350,Afc Sushi @ Qfc #849,Afc Sushi @ Qfc #849,2707 RAINIER AVE S,98144,Seattle,(310) 604-3200,Seating 0-12,III, , , , ," 
",-1,-1
-122.335967000083798,47.661829998711426,71,350101,0000000,350,Afc Sushi @ Qfc #869,Afc Sushi @ Qfc #869,1801 N 45TH ST,98103,Seattle,(310) 604-3200,Seating 0-12,III, , , , ," 
",-1,-1
-122.363691450185897,47.701924259262675,72,350103,0000000,350,Afc Sushi @ Qfc #872,Afc Sushi @ Qfc #872,9999 HOLMAN RD NW,98117,Seattle, ,Seating 0-12,III, , , , ," 
",-1,-1
-122.349235480627655,47.620493878811409,73,350106,0000000,350,Afc Sushi @ Qfc #881,Afc Sushi @ Qfc #881,500 MERCER ST,98109,Seattle,(310) 604-3200,Seating 0-12,III, , , , ," 
",-1,-1
-122.385212610395484,47.562400248718831,74,350107,0000000,350,Afc Sushi @ Qfc #883,Afc Sushi @ Qfc #883,4550 42ND AVE SW,98116,Seattle, ,Seating 0-12,III, , , , ," 
",-1,-1
-122.321154149374124,47.622283159325498,75,350108,0000000,350,Afc Sushi @ Qfc #887,Afc Sushi @ Qfc #887,425 BROADWAY AVE E,98102,Seattle, ,Seating 0-12,III, , , , ," 
",174,1038.21181502
-122.36589570014695,47.522028838775171,76,350110,0000000,350,Afc Sushi @ Qfc 825,Afc Sushi @ Qfc 825,2500 SW BARTON ST,98126,Seattle, ,Seating 0-12,III, , , , ," 
",-1,-1
-122.290442730370202,47.689368349158208,77,350113,0000000,350,Afc Sushi @ Qfc 873,Afc Sushi @ Qfc 873,8400 35TH AVE NE,98115,Seattle, ,Seating 0-12,III, , , , ," 
",-1,-1
-122.32095299963143,47.613137998839754,78,350114,0000000,350,"Afc Sushi @ Qfc; #847","Afc Sushi @ Qfc; #847",1401 BROADWAY,98122,Seattle,(310) 604-3200,Seating 0-12,III, , , , ," 
",631,1145.70238921
-122.311912999867232,47.717985999444963,79,350116,0000000,350,Afc Sushi @ Safeway # 1586,Afc Sushi@ Safeway #1586,12318 15TH AVE NE,98125,Seattle,(310) 604-3200,Seating 0-12,III, , , , ," 
",-1,-1
-122.317008810217402,47.681993798803127,80,350119,0000000,350,Afc Sushi @ Safeway #1550,Afc Sushi @ Safeway #1550,7300 ROOSEVELT WAY NE,98115,Seattle,(310) 604-3200,Seating 0-12,III, , , , ," 
",-1,-1
-122.313135669885753,47.620494219223261,81,350123,0000000,350,"Afc Sushi @ Safeway ; #1551",Afc Sushi (Safeway #1551),1410 E JOHN ST,98112,Seattle, ,Seating 0-12,III, , , , ," 
",632,1001.48690545
-122.386380980004802,47.670568259125353,82,350130,0000000,350,Afc Sushi@Qfc #891,Afc Sushi@Qfc #891,5700 24TH AVE NW,98107,Seattle,(310) 604-6449,Seating 0-12,III, , , , ," 
",-1,-1
-122.282879900585669,47.555746918953176,83,350135,0000000,350,Afrikando Banadir,Afrikando Banadir,5212 RAINIER AVE S,98118,Seattle, ,Seating 13-50,III, , , , ," 
",-1,-1
-122.355107540582395,47.623431559349171,84,350139,0000000,350,Agave Cocina & Tequilas,Agave Cocina & Tequilas,100 REPUBLICAN ST,98109,Seattle,(425) 269-5144,Seating 51-150,III, , , , ," 
",-1,-1
-122.349508940015596,47.650297388753948,85,350140,0000000,350,Agrodolce,Agrodolce,709 N 35TH ST,98103,Seattle,(206) 547-9707,Seating 51-150,III, , , , ," 
",-1,-1
-122.314414420166869,47.651613108891446,86,350141,0000000,350,Agua Verde Cafe,Agua Verde Cafe,1303 NE BOAT ST,98105,Seattle,(206) 545-8570,Seating 51-150,III, , , , ," 
",-1,-1
-122.286355269941481,47.547032968691695,87,350657,0000000,350,"Baskin-Robbins ; #1362","Baskin-Robbins ; #1362",6025 M L KING JR WAY S,98118,Seattle,(206) 723-3100,Seating 0-12,II, , , , ," 
",-1,-1
-122.292084580470075,47.661456609142597,88,350666,0000000,350,Baskin Robbins #1304,Baskin Robbins #1304,3200 NE 45TH ST,98105,Seattle,(425) 391-1113,Seating 0-12,I,PR0001129,BASKIN ROBBINS #1304,BASKIN-ROBBINS 31 FLAVORS,Y,"3200 NE 45TH ST
",-1,-1
-122.383664140370712,47.666438438931415,89,350672,0000000,350,Bastille Cafe & Bar,Bastille Cafe & Bar,5307 BALLARD AVE NW,98107,Seattle,(206) 235-8999,Seating 151-250,III, , , , ," 
",-1,-1
-122.374134369460279,47.63063946934129,90,350675,0000000,350,Batch 206 Distillery,Batch 206 Distillery,1417 ELLIOTT AVE W,98119,Seattle,(206) 683-8777,Seating 51-150,III, , , , ," 
",-1,-1
-122.382429000082851,47.668392998720812,91,350677,0000000,350,Bauhaus Ballard,Bauhaus Ballard,2001 NW MARKET ST,98107,Seattle,(206) 229-2101,Seating 51-150,I, , , , ," 
",-1,-1
-122.327768579856013,47.615096139213129,92,350678,0000000,350,Bauhaus Books & Coffee,Bauhaus Books & Coffee,414 E PINE ST,98122,Seattle,(206) 625-1600,Seating 51-150,II, , , , ," 
",686,767.944882466
-122.342742849337967,47.610182178625884,93,350679,0000000,350,Bavarian Meat Products,Bavarian Meat Products,1920 PIKE PL,98101,Seattle,(206) 441-0942,Seating 0-12,III, , , , ," 
",-1,-1
-122.3408061202109,47.609393369211048,94,350685,0000000,350,Bayou On 1St,Bayou On 1St,1523 1ST AVE,98101,Seattle, ,Seating 13-50,III, , , , ," 
",-1,-1
-122.313448020036319,47.662080079023625,95,350687,0000000,350,Bbq Chicken Uw,Bbq Chicken Uw,4525 UNIVERSITY WAY NE,98105,Seattle,(253) 880-8049,Seating 13-50,III, , , , ," 
",-1,-1
-122.387094280604714,47.562614179201788,96,350690,0000000,350,Be'S Restaurant,Be'S Restaurant,4509 CALIFORNIA AVE SW,98116,Seattle,(206) 937-1110,Seating 13-50,III, , , , ," 
",-1,-1
-122.31388840036665,47.580756509350977,97,350694,0000000,350,Beacon Ave Sandwiches,Beacon Ave Sandwiches,2505-B BEACON AVE S,98144,Seattle,(206) 992-0638,Seating 0-12,II, , , , ," 
",-1,-1
-122.31377730016095,47.581515488824884,98,350695,0000000,350,Beacon Avenue Shell Food Mart,Beacon Avenue Shell Food Mart,2424 BEACON AVE S,98144,Seattle, ,Seating 0-12,III, , , , ," 
",-1,-1
-122.314502300454677,47.581193968738013,99,350697,0000000,350,Beacon Hill 76,Beacon Hill 76,2415 BEACON AVE S,98144,Seattle,(206) 827-4406,Seating 0-12,III, , , , ," 
",-1,-1
-122.313076029900984,47.580819518772344,100,350700,0000000,350,Beacon Hill Market- Seafood,Beacon Hill Market,2500 BEACON AVE S,98144,Seattle,(206) 323-2050,Meat/Sea Food,III, , , , ," 
",-1,-1
-122.313076029900984,47.580819518772344,101,350701,0000000,350,Beacon Hill Market - Grocery,Beacon Hill Market,2500 BEACON AVE S,98144,Seattle,(206) 323-2050,Grocery,I, , , , ," 
",-1,-1
-122.313076029900984,47.580819518772344,102,350702,0000000,350,Beacon Hill Market - Meat Shop,Beacon Hill Market,2500 BEACON AVE S,98144,Seattle,(206) 323-2050,Meat/Sea Food,III, , , , ," 
",-1,-1
-122.312819799421888,47.655477649311145,103,350703,0000000,350,Bean & Bagel,Bean & Bagel,1410 NE 40TH ST,98105,Seattle,(206) 547-5649,Seating 13-50,III, , , , ," 
",-1,-1
-122.32686805012132,47.6810366894655,104,350704,0000000,350,Bean City Espresso,Bean City Espresso,12547 LAKE CITY WAY NE,98125,Seattle,(206) 588-4885,Limited Food Services,I, , , , ," 
",-1,-1
-122.353354489851839,47.621119639231686,105,350706,0000000,350,Bean Sprouts (Kc249) @ Seattle Sprouts Llc,Bean Sprouts (Kc249),305 HARRISON ST,98109,Seattle,(651) 955-9145,Mobile Food Service,I, , , , ," 
",-1,-1
-122.3271761705047,47.596820009161696,106,350711,0000000,350,Beard Papa'S,Beard Papa'S,600 5TH AVE S 103,98104,Seattle,(425) 802-7122,Bakery,I,PR0077636,BEARD PAPA'S,BEARD PAPAS,Y,"600 5TH AV S 103
",176,3261.04326532
-122.334597930202222,47.598601039342391,107,350714,0000000,350,Beba'S Deli,Beba'S Deli,415 1ST AVE S,98104,Seattle,(206) 767-1818,Seating 13-50,III, , , , ," 
",223,4120.58196393
-122.329880710299818,47.605007369196741,108,350715,0000000,350,Bebas & Amigos,Bebas & Amigos,700 5TH AVE,98104,Seattle,(206) 622-7085,Seating 51-150,III, , , , ," 
",223,1602.51906269
-122.330697929674201,47.619906459223778,109,350716,0000000,350,Bebas And Dos Amigos,Bebas And Dos Amigos,209 YALE AVE N,98109,Seattle,(425) 653-3512,Seating 13-50,III, , , , ," 
",409,1519.12665004
-122.342247909458649,47.614011539268787,110,350717,0000000,350,Bebas Deli,Beba'S Deli,2101 4TH AVE #140,98121,Seattle,(206) 448-7545,Seating 0-12,III, , , , ," 
",-1,-1
-122.321043000608199,47.625734999034883,111,350718,0000000,350,Bed & Breakfast On Broadway,Bed & Breakfast On Broadway,722 BROADWAY AVE E,98102,Seattle, ,Bed and Breakfast,I, , , , ," 
",135,514.401583495
-122.321615539561279,47.626154428906347,112,350719,0000000,350,Bed & Breakfast On Capitol Hill,Bed & Breakfast On Capitol Hill,739 BROADWAY E,98102,Seattle, ,Bed and Breakfast,I, , , , ," 
",135,465.882351544
-122.344926620510478,47.613391599443467,113,350721,0000000,350,Bedlam,Bedlam,2231 2ND AVE,98121,Seattle,(206) 910-2300,Seating 13-50,I, , , , ," 
",-1,-1
-122.341773689369489,47.609627329119881,114,350723,0000000,350,Beecher'S Handmade Cheese,Beecher'S Handmade Cheese,1600 PIKE PL,98101,Seattle, ,Seating 0-12,III, , , , ," 
",-1,-1
-122.293348590044531,47.721929338617166,115,350725,0000000,350,Beer Authority,"Beer Authority; Llc",12720 LAKE CITY WAY NE,98125,Seattle,(206) 417-9629,Seating 13-50,I, , , , ," 
",-1,-1
-122.387051399835585,47.562538549377273,116,350726,0000000,350,Beer Junction,Beer Junction,4511 CALIFORNIA AVE SW,98116,Seattle, ,Seating 13-50,I, , , , ," 
",-1,-1
-122.34912411960849,47.61109616941274,117,350730,0000000,350,Bell Harbor Int Conference Ctr /  Restaurant,Bell Harbor Int Conference Ctr,2211 ALASKAN WAY,98121,Seattle,(206) 441-6666,Seating 151-250,III, , , , ," 
",-1,-1
-122.34912411960849,47.61109616941274,118,350731,0000000,350,Bell Harbor Intn'L - Banquet Kitchen - 2Nd Flr.,Bell Harbor Int Conference Ctr,2211 ALASKAN WAY,98121,Seattle,(206) 441-6666,Catering Operation,III, , , , ," 
",-1,-1
-122.348965570320928,47.611009799163355,119,350732,0000000,350,Bell St Deli & Grocery,Bell St Deli & Grocery,2207 ALASKAN WAY,98121,Seattle,(206) 441-6907,Seating 0-12,III, , , , ," 
",-1,-1
-122.343244019845642,47.614706979157518,120,350733,0000000,350,Bell Thai  Thai  Restaurant,Bell Thai  Thai  Restaurant,2211 4TH AVE,98121,Seattle, ,Seating 13-50,III, , , , ," 
",-1,-1
-122.280282820099004,47.633831709467508,121,350736,0000000,350,Bella Viet Cafe,Bella Viet Cafe,4021 E MADISON ST,98112,Seattle, ,Seating 13-50,III, , , , ," 
",-1,-1
-122.346621929953727,47.613632309314816,122,350760,0000000,350,Bellini,Bellini,2302 1ST AVE,98121,Seattle,(206) 355-8862,Seating 0-12,III, , , , ," 
",-1,-1
-122.345643239770794,47.612499658738052,123,350762,0000000,350,Belltown Billiards,Belltown Billiards,90 BLANCHARD ST,98121,Seattle,(206) 448-6779,Seating 51-150,III, , , , ," 
",-1,-1
-122.352245819450701,47.61754182920739,124,350763,0000000,350,Belltown Cafe Market,Belltown Cafe Market,2911 2ND AVE,98121,Seattle,(425) 246-2830,Seating 0-12,III, , , , ," 
",-1,-1
-122.348259569562956,47.614599929031577,125,350765,0000000,350,Belltown Pizza,Belltown Pizza,2422 1ST AVE,98121,Seattle, ,Seating 13-50,III, , , , ," 
",-1,-1
-122.346855419794679,47.613999399333366,126,350766,0000000,350,Belltown Pub,Belltown Pub,2322 1ST AVE,98121,Seattle,(206) 728-4311,Seating 51-150,III, , , , ," 
",-1,-1
-122.377716999636547,47.561741999405506,127,350767,0000000,350,"Beloved Mexico @ 9434 36Th Ave Sw; Seattle  98126","Beloved Mexico; Llc",4611 36TH AVE SW,98126,Seattle,(206) 484-8650,Mobile Food Service,III, , , , ," 
",-1,-1
-122.337301369905802,47.685903899215802,128,350770,0000000,350,Ben & Jerry'S (Kc172),Ben & Jerry'S (Kc172),7900 E GREENLAKE DR N,98103,Seattle,(360) 970-6849,Mobile Food Service,II, , , , ," 
",-1,-1
-122.337301369905802,47.685903899215802,129,350771,0000000,350,Ben & Jerry'S @ Route 360-970-6849,Ben & Jerry'S (Kc172),7900 E GREENLAKE DR N,98103,Seattle,(360) 970-6849,Mobile Food Service,II, , , , ," 
",-1,-1
-122.295724710402041,47.574726088976739,130,350772,0000000,350,Ben Thanh,Ben Thanh,2815 S HANFORD ST,98144,Seattle,(206) 725-4418,Seating 51-150,III, , , , ," 
",-1,-1
-122.325654610168158,47.546704718666575,131,350773,0000000,350,Benaroya Shell,Benaroya Shell,600 S MICHIGAN ST,98108,Seattle,(253) 839-8275,Seating 0-12,III, , , , ," 
",-1,-1
-122.33407967977432,47.602842749149936,132,350775,0000000,350,Bengodi Cafe,Bengodi Cafe,700 1ST AVE,98104,Seattle, ,Seating 13-50,III, , , , ," 
",223,2904.7827095
-122.333052689436528,47.608420018648026,133,350776,0000000,350,Benihana Of Tokyo,Benihana Of Tokyo,1200 5TH AVE,98101,Seattle,(206) 682-4686,Seating 151-250,III,PR0011294,BENIHANA OF TOKYO,BENIHANA OF TOKYO,Y,"1200 5TH AV
",223,2046.82552292
-122.37647565033221,47.67398294901907,134,350777,0000000,350,Benito'S Chicago Eatery,Benito'S Chicago Eatery,6201 15TH AVE NW,98107,Seattle,(206) 713-9180,Seating 13-50,III, , , , ," 
",-1,-1
-122.327156689478883,47.614326179080344,135,350787,0000000,350,Bensons Grocery,Bensons Grocery,320 E PIKE ST,98122,Seattle, ,Grocery,I, , , , ," 
",686,453.951227411
-122.269611420599574,47.55507528915841,136,350788,0000000,350,Bent Burgers,Bent Burgers,5100 S DAWSON ST #100,98118,Seattle, ,Seating 13-50,III, , , , ," 
",-1,-1
-122.377161139682343,47.690778029348095,137,350791,0000000,350,Bento Sushi,Bento Sushi,8501 15TH AVE NW,98117,Seattle,(206) 280-4266,Seating 13-50,III, , , , ," 
",-1,-1
-122.34204565966769,47.613481109395735,138,350793,0000000,350,Bento World,Bento World,306 LENORA ST,98121,Seattle,(425) 787-8625,Seating 0-12,III, , , , ," 
",-1,-1
-122.334585030224417,47.60020444944103,139,350794,0000000,350,Berliner Doner Kebab,Berliner Doner Kebab,221 1ST AVE S,98104,Seattle, ,Seating 13-50,III, , , , ," 
",223,3660.51413104
-122.334505239947248,47.607206469422906,140,350796,0000000,350,Bernard'S On Seneca,Bernard'S On Seneca,315 SENECA ST,98101,Seattle,(206) 623-5110,Seating 51-150,III, , , , ," 
",223,2399.19594819
-122.279864700447732,47.634723158854435,141,350798,0000000,350,Bert'S Markets Inc,Bert'S Markets Inc,1801 41ST AVE E,98112,Seattle,(206) 322-1330,Meat/Sea Food,III, , , , ," 
",-1,-1
-122.313492909622624,47.659638358759388,142,350802,0000000,350,Best Of Bento,Best Of Bento,4245 UNIVERSITY WAY NE,98105,Seattle,(206) 633-3262,Seating 13-50,III, , , , ," 
",-1,-1
-122.325120969707015,47.618834619328268,143,350805,0000000,350,Best Teriyaki,Best Teriyaki,110 SUMMIT AVE E,98102,Seattle,(206) 329-5809,Seating 0-12,III, , , , ," 
",258,1196.71196114
-122.345877159432305,47.620364629353709,144,350810,0000000,350,Best Western Executive Inn,Best Western Executive Inn,200 TAYLOR AVE N,98109,Seattle,(206) 448-9444,Seating 51-150,III, , , , ," 
",-1,-1
-122.310065969399275,47.662885088895877,145,350813,0000000,350,Beta Theta Pi,Beta Theta Pi,1617 NE 47TH ST,98105,Seattle, ,Seating 51-150,III, , , , ," 
",-1,-1
-122.360999390127418,47.688173579116153,146,350818,0000000,350,Better Meat Inc,Better Meat Inc,305 NW 82ND ST,98117,Seattle,(206) 783-0570,Grocery,II, , , , ," 
",-1,-1
-122.357242220157445,47.632726049196343,147,350819,0000000,350,Betty,Betty,1507 QUEEN ANNE AVE N,98109,Seattle,(206) 368-5460,Seating 51-150,III, , , , ," 
",-1,-1
-122.36794100032057,47.661744999469605,148,350823,0000000,350,Bevmo!,Bevmo,850 NW 45TH ST,98107,Seattle,(925) 609-6153,Seating 0-12,I, , , , ," 
",-1,-1
-122.335802350524773,47.603752098751642,149,350824,0000000,350,Bibimbap,Bibimbap,95 MARION ST,98104,Seattle, ,Seating 0-12,III, , , , ," 
",223,3079.30526121
-122.355874219590987,47.706735948813737,150,350825,0000000,350,Bick'S Broadview Grill,Bick'S Broadview Grill,10555 GREENWOOD AVE N,98133,Seattle,(206) 367-8481,Seating 51-150,III, , , , ," 
",-1,-1
-122.353354489851839,47.621119639231686,151,350835,0000000,350,Big Food / Centerhouse #208,Big Food / Centerhouse #208,305 HARRISON ST,98109,Seattle,(206) 719-5549,Seating 0-12,III, , , , ," 
",-1,-1
-122.377768449677475,47.561712669158311,152,350836,0000000,350,Big Food Bbq,Big Food Bbq,4611 36TH AVE SW,98126,Seattle,(206) 719-5549,Mobile Food Service,III, , , , ," 
",-1,-1
-122.319024660048768,47.613950038875053,153,350840,0000000,350,Big Mario'S New York Style Pizza,Big Mario'S New York Style Pizza,1011 E Pike ST,98122,Seattle, ,Seating 13-50,III, , , , ," 
",631,799.437347967
-122.349015470169718,47.614712179184529,154,350842,0000000,350,Big Picture,Big Picture,2501 1ST AVE,98121,Seattle,(206) 789-8805,Seating 13-50,I, , , , ," 
",-1,-1
-122.31354271054677,47.657843289428946,155,350845,0000000,350,Big Time Brewing Co,Big Time Brewing Co,4133 UNIVERSITY WAY NE,98105,Seattle,(206) 545-4509,Seating 51-150,III, , , , ," 
",-1,-1
-122.318450039973513,47.615078858758366,156,350847,0000000,350,Bigfun,Bigfun,1535 11TH AVE,98122,Seattle,(206) 915-2629,Seating 151-250,II, , , , ," 
",258,944.486305546
-122.269478119921004,47.52937955903483,157,350849,0000000,350,Bilisee Mini Market,Bilisee Mini Market,8300 RAINIER AVE S,98118,Seattle,(206) 762-2316,Grocery,I, , , , ," 
",-1,-1
-122.333964570265408,47.591850568916406,158,350906,0000000,350,Blazing Bagels @ Safeco Field,Blazing Bagels,1250 1ST AVE S,98104,Seattle, ,Seating 0-12,III, , , , ," 
",-1,-1
-122.354945929882163,47.688167289012192,159,350907,0000000,350,Bleacher'S Pub,Bleacher'S Pub,8118 GREENWOOD AVE N,98103,Seattle, ,Seating 13-50,III, , , , ," 
",-1,-1
-122.3862833003856,47.668314578885301,160,350908,0000000,350,Blend,Blend,5443 BALLARD AVE NW,98107,Seattle,(206) 859-0819,Seating 0-12,II, , , , ," 
",-1,-1
-122.325521050053069,47.639479298944082,161,350912,0000000,350,Blind Pig Bistro,Blind Pig Bistro,2238 EASTLAKE AVE E,98102,Seattle,(206) 355-3827,Seating 51-150,III, , , , ," 
",-1,-1
-122.378640920612753,47.668272069168381,162,350917,0000000,350,Bloom Restaurant,Bloom Restaurant,5410 17th AVE NW,98107,Seattle,(425) 533-7019,Seating 13-50,III, , , , ," 
",-1,-1
-122.328779060540214,47.552110438714557,163,350919,0000000,350,Blu Grouse,Blu Grouse,412 S ORCAS ST,98108,Seattle, ,Seating 13-50,III, , , , ," 
",-1,-1
-122.323768790619567,47.70824848866912,164,350924,0000000,350,Blue Fin & Seafood,Blue Fin & Seafood,401 NE NORTHGATE WAY #463,98125,Seattle,(425) 761-0522,Seating 151-250,III, , , , ," 
",-1,-1
-122.36492002036816,47.676107149124228,165,350926,0000000,350,Blue Glass,Blue Glass,704 NW 65TH ST,98117,Seattle,(206) 778-2710,Seating 13-50,III, , , , ," 
",-1,-1
-122.387087709370078,47.655956378945717,166,350927,0000000,350,Blue Heron,Blue Heron,4001 GILMAN AVE W,98199,Seattle, ,Seating 0-12,III, , , , ," 
",-1,-1
-122.333840030646002,47.601184108818678,167,351965,0000000,350,Damn The Weather,Damn The Weather,116 1ST AVE S,98104,Seattle,(425) 772-8247,Seating 51-150,III, , , , ," 
",223,3271.98903941
-122.344474520654032,47.614191679394331,168,351966,0000000,350,Dan'S Belltown Grocery,Dan'S Belltown Grocery,2221 3RD AVE,98121,Seattle,(206) 441-0220,Seating 0-12,III, , , , ," 
",-1,-1
-122.356005490554168,47.705562599174385,169,351967,0000000,350,Dan'S Deli Mart,Dan'S Deli Mart,10513 GREENWOOD AVE N,98133,Seattle,(206) 365-4155,Grocery,I, , , , ," 
",-1,-1
-122.334994299681455,47.62673243929919,170,351970,0000000,350,"Daniel'S Broiler; Lake Union","Daniel'S Broiler; Lake Union",809 FAIRVIEW PL N,98109,Seattle, ,Seating 151-250,III, , , , ," 
",135,2995.28500718
-122.342042989376878,47.685656109459977,171,351971,0000000,350,Daniel Bagley Elementary,Daniel Bagley Elementary,7821 STONE WAY N,98103,Seattle, ,School Kitchen, , , , , ," 
",-1,-1
-122.284304590639309,47.602989528988772,172,351973,0000000,350,Daniels Broiler,"Daniels Broiler; Leschi",200 LAKE WASHINGTON BL,98122,Seattle, ,Seating 151-250,III, , , , ," 
",622,1880.49762549
-122.317064360469715,47.66726417889172,173,351975,0000000,350,Dante'S Inc,Dante'S Inc,5300 ROOSEVELT WAY NE,98105,Seattle,(206) 525-1300,Seating 51-150,III, , , , ," 
",-1,-1
-122.382580839981003,47.666475018651091,174,351976,0000000,350,Dante'S Inferno (2)@ Route 206-579-7559,Dante'S Inferno (2),500 NW MARKET ST,98107,Seattle,(206) 579-7559,Mobile Food Service,I, , , , ," 
",-1,-1
-122.382580839981003,47.666475018651091,175,351977,0000000,350,Dante'S Inferno @ Route 206-579-7559,Dante'S Inferno (1),500 NW MARKET ST,98107,Seattle,(206) 579-7559,Mobile Food Service,I, , , , ," 
",-1,-1
-122.344745299653553,47.684594259085912,176,351982,0000000,350,Davinci Pizza & Pasta,Davinci Pizza & Pasta,7617 AURORA AVE N,98103,Seattle,(206) 297-2700,Seating 13-50,II, , , , ," 
",-1,-1
-122.335297499513672,47.603278238731754,177,350880,0000000,350,Bk Mae Phim,Bk Mae Phim,94 COLUMBIA ST,98104,Seattle,(206) 624-2979,Seating 13-50,III, , , , ," 
",223,3058.96497533
-122.344353869828353,47.614786399130047,178,350882,0000000,350,Black Bamboo,Black Bamboo,2236 3RD AVE,98121,Seattle,(206) 240-0621,Seating 13-50,III, , , , ," 
",-1,-1
-122.349705369753451,47.615459009163658,179,350885,0000000,350,Black Bottle,Black Bottle,2600 1ST AVE,98121,Seattle,(206) 441-7714,Seating 13-50,III, , , , ," 
",-1,-1
-122.325213760092396,47.615065439373403,180,350887,0000000,350,Black Coffee,Black Coffee,501 E PINE ST #A,98122,Seattle,(347) 541-8694,Seating 13-50,II, , , , ," 
",686,636.643137497
-122.290802069975655,47.682780248692794,181,350896,0000000,350,Black Pearl,Black Pearl,7347 35TH AVE NE,98115,Seattle,(206) 526-5115,Seating 51-150,III, , , , ," 
",-1,-1
-122.387033069557503,47.574269499512198,182,350900,0000000,350,Blackboard Bistro,Blackboard Bistro,3247 CALIFORNIA AVE SW,98116,Seattle,(206) 760-0706,Seating 13-50,III, , , , ," 
",-1,-1
-122.336422839822404,47.688754008789516,183,350903,0000000,350,Blanchet High School Kitc,Blanchet High School Kitc,8200 WALLINGFORD AVE N,98103,Seattle,(206) 527-7720,Non-Profit Institution,III, , , , ," 
",-1,-1
-122.339199650138923,47.623376478969057,184,350931,0000000,350,Blue Moon Burgers,Blue Moon Burgers,920 REBPUBLICAN ST,98109,Seattle, ,Seating 13-50,III, , , , ," 
",-1,-1
-122.349703910450415,47.649414699007352,185,350932,0000000,350,Blue Moon Burgers #2,Blue Moon Burgers #2,703 N 34TH ST,98103,Seattle,(425) 605-3026,Seating 13-50,III, , , , ," 
",-1,-1
-122.319901940493523,47.661493498870911,186,350933,0000000,350,"Blue Moon; The","Blue Moon; The",712 NE 45TH ST,98105,Seattle,(206) 675-9116,Seating 51-150,II, , , , ," 
",-1,-1
-122.316507319604142,47.605681678911253,187,350934,0000000,350,Blue Nile Restaurant,Blue Nile Restaurant,456 12TH AVE,98122,Seattle,(206) 320-8501,Seating 13-50,III, , , , ," 
",193,955.157308722
-122.290873959795817,47.682704348694372,188,350936,0000000,350,Blue Plate Express,Blue Plate Express,7347 35TH AVE NE,98115,Seattle,(206) 781-2731,Catering Operation,III, , , , ," 
",-1,-1
-122.329820969760846,47.642181918796879,189,350937,0000000,350,"Blue Ribbon Cooking; Llc","Blue Ribbon Cooking; Llc",2501 FAIRVIEW AVE E,98102,Seattle, ,Catering Operation,III, , , , ," 
",-1,-1
-122.348216369560717,47.643071979440904,190,350941,0000000,350,Blue Water Burrito,Blue Water Burrito,515 QUEEN ANNE AVE,98109,Seattle,(206) 285-7229,Seating 13-50,III, , , , ," 
",-1,-1
-122.329804720564084,47.616910808857796,191,350943,0000000,350,Blue Water Taco Grill,Blue Water Taco Grill,1730 MINOR AVE 101,98101,Seattle, ,Seating 0-12,III, , , , ," 
",569,1363.39201242
-122.387100489645505,47.56044450882964,192,350944,0000000,350,Blue Willow Catering Inc,Blue Willow Catering Inc,4721 CALIFORNIA AVE SW,98116,Seattle,(206) 938-0988,Catering Operation,III, , , , ," 
",-1,-1
-122.335232020202099,47.613987069201237,193,350945,0000000,350,Blueacre Seafood,Blueacre Seafood,1700 7TH AVE,98101,Seattle,(612) 343-9626,Seating > 250,III, , , , ," 
",569,1053.04468874
-122.316434530226601,47.613918909264051,194,350946,0000000,350,Bluebird,Bluebird,1205 E PIKE ST STE 1A,98122,Seattle,(518) 232-0202,Seating 13-50,II, , , , ," 
",631,441.068584477
-122.355092509893069,47.682677808947687,195,350947,0000000,350,Bluebird Ice Cream,Bluebird Ice Cream,7400 GREENWOOD AVE N,98103,Seattle,(206) 588-1079,Seating 0-12,II, , , , ," 
",-1,-1
-122.28493285039319,47.601680319419486,196,350948,0000000,350,Bluwater Leschi,Bluwater Leschi,102 LAKESIDE AVE S,98122,Seattle, ,Seating 151-250,III, , , , ," 
",622,1704.51630205
-122.382682999441556,47.669678998862224,197,350949,0000000,350,Boar'S Nest,Boar'S Nest,2008 NW 56TH ST,98107,Seattle,(206) 816-4348,Seating 0-12,III, , , , ," 
",-1,-1
-122.344058640456424,47.689523979059629,198,350951,0000000,350,Boardroom Cafe,Boardroom Cafe,8314 AURORA AVE N,98103,Seattle,(425) 268-4365,Seating 13-50,III, , , , ," 
",-1,-1
-122.339858959756185,47.635351218889269,199,350952,0000000,350,Boat House Deli,Boat House Deli,1818 WESTLAKE AVE N,98109,Seattle,(206) 283-5042,Seating 13-50,III, , , , ," 
",-1,-1
-122.285530109629534,47.558314648672891,200,350954,0000000,350,Bob'S Quality Meats,Bob'S Quality Meats,4861 RAINIER AVE S,98118,Seattle,(206) 725-1221,Meat/Sea Food,III, , , , ," 
",-1,-1
-122.311059000320313,47.523703998774842,201,350973,0000000,350,Boeing Co.-South Park Diner,Boeing Co -,15-35.2 BLDG,98124,Seattle,(206) 393-8404,Seating 151-250,III, , , , ," 
",-1,-1
-122.31777599980154,47.534882999496524,202,350974,0000000,350,Boeing Co. - Plant Ii / Plaza 99,Boeing Company Plant Ii / Plaza 99,2 122 IASL BLDG,98124,Seattle, ,Seating 51-150,III, , , , ," 
",-1,-1
-122.317482100182431,47.537062099152848,203,350977,0000000,350,Boeing Flight Test & 3-800 Bldg,Boeing Co,7400 E MARGINAL WAY S,98108,Seattle,(206) 393-8404,Seating > 250,III, , , , ," 
",-1,-1
-122.317656180254517,47.675099669331942,204,350982,0000000,350,Boi Pho Bistro,Bol Pho Bistro,918 NE 64TH ST,98115,Seattle,(206) 522-0037,Seating 13-50,III, , , , ," 
",-1,-1
-122.3274574302594,47.596838858621993,205,350983,0000000,350,Boiling Point,Boiling Point,610 5TH AVE S #1,98104,Seattle,(425) 241-1366,Seating 51-150,III, , , , ," 
",176,3318.68830159
-122.320202000399021,47.539198999198504,206,350985,0000000,350,"Boiling Point Corp; Wa","Boiling Point Corp; Wa",1001 S MYRTLE ST,98108,Seattle,(425) 435-4805,Seating 0-12,III, , , , ," 
",-1,-1
-122.336146090316561,47.60495003881438,207,350987,0000000,350,Boka Restaurant - Banquet Kitchen,Boka Restaurant,1000 1ST AVE,98104,Seattle,(206) 441-4526,Seating 0-12,III, , , , ," 
",-1,-1
-122.336146090316561,47.60495003881438,208,350988,0000000,350,Boka Restaurant  - Main Kitchen,Boka Restaurant,1000 1ST AVE,98104,Seattle,(206) 441-4526,Seating 51-150,III, , , , ," 
",-1,-1
-122.317712770293838,47.664231679332964,209,350990,0000000,350,Bombay Grill & Lounge,Bombay Grill & Lounge,4737 ROOSEVELT WAY NE,98105,Seattle,(425) 417-6797,Seating 51-150,III, , , , ," 
",-1,-1
-122.337121100079273,47.611883759342454,210,350992,0000000,350,Bombay Wala,Bombay Wala,400 PINE ST #328,98101,Seattle,(206) 623-9090,Seating 0-12,III, , , , ," 
",-1,-1
-122.337717650120112,47.607361048921831,211,350994,0000000,350,Bon Appetit,Bon Appetit,1301 2ND AVE,98101,Seattle,(206) 505-3668,Seating 51-150,III,PR0080924,BON APPETIT,BON APPETIT,Y,"1301 2ND AVE
",-1,-1
-122.318598000166944,47.606785999054807,212,350995,0000000,350,Bon Appetit - Chardin Kitchen,Bon Appetit,1020 E JEFFERSON ST,98122,Seattle, ,Catering Operation,III,PR0080924,BON APPETIT,BON APPETIT,Y,"1301 2ND AVE
",193,1273.18964609
-122.336578569890236,47.611825839310569,213,350996,0000000,350,Bon Appetit - Fashion Bowl,Bon Appetit Mgmt Co,500 PINE ST,98101,Seattle, ,Seating 51-150,III, , , , ," 
",-1,-1
-122.335212420353983,47.613985449501094,214,350997,0000000,350,Bon Appetit - The Dish,Bon Appetit - The Dish,1700 7TH AVE,98101,Seattle, ,Seating 51-150,III, , , , ," 
",569,1053.76001033
-122.317112060026531,47.610653488962171,215,350998,0000000,350,Bon Appetit / Bottom Line,Bon Appetit / Bottom Line,901 12TH  - PIGGOT BLDG AVE,98122,Seattle, ,Seating 0-12,III, , , , ," 
",646,0.794561002548
-122.349019259488188,47.648911239298272,216,350999,0000000,350,Bon Appetit @ Adobe,Bon Appetit @ Adobe,801 N 34TH ST,98103,Seattle,(206) 675-7374,Seating 51-150,III, , , , ," 
",-1,-1
-122.337066640242497,47.622519369204753,217,351001,0000000,350,Bon Appetit @ Amazon.Com /Coffee Bar,Bon Appetit,440 TERRY AVE N,98109,Seattle,(206) 266-0576,Seating 13-50,I,PR0080924,BON APPETIT,BON APPETIT,Y,"1301 2ND AVE
",-1,-1
-122.337066640242497,47.622519369204753,218,351002,0000000,350,Bon Appetit @ Amazon.Com/ Server,Bon Appetit,440 TERRY AVE N,98109,Seattle,(206) 266-0576,Seating 151-250,III,PR0080924,BON APPETIT,BON APPETIT,Y,"1301 2ND AVE
",-1,-1
-122.352572000620498,47.614256998696924,219,351003,0000000,350,Bon Appetit At Zulily,Bon Appetit At Zulily,2601 ELLIOTT AVE,98121,Seattle, ,Seating 151-250,III, , , , ," 
",-1,-1
-122.33534100977279,47.581814439074115,220,351005,0000000,350,Bon Appetit Cafe@ Starbucks- 3Rd Floor,Bon Appetit Cafe@ Starbucks- 3Rd Floor,2401 UTAH AVE S,98134,Seattle,(206) 467-0420,Seating 151-250,III, , , , ," 
",-1,-1
-122.334661479733697,47.613341599313678,221,351007,0000000,350,Bon Appetit Mgt Co,Bon Appetit Mgt Co,1600 7TH AVE,98101,Seattle,(206) 241-9481,Seating > 250,III, , , , ," 
",569,1298.78357047
-122.338126999566043,47.619991998690068,222,351008,0000000,350,Bon Appetit/Amazon,Bon Appetit/Amazon,202 WESTLAKE AVE N,98109,Seattle,(206) 266-0839,Seating 0-12,III, , , , ," 
",-1,-1
-122.329498929534196,47.575281608816233,223,351009,0000000,350,Bongo'S Cafe @ 6501 Aurora Ave,Bongo'S Cafe (Kc241),3429 AIRPORT WAY S,98134,Seattle,(206) 794-3772,Mobile Food Service,III, , , , ," 
",-1,-1
-122.352727320587107,47.648011429075119,224,351010,0000000,350,Book Bindery,Book Bindery,198 NICKERSON ST,98109,Seattle,(206) 859-9400,Seating 13-50,III, , , , ," 
",-1,-1
-122.317181330022109,47.613918219261514,225,351011,0000000,350,Boom Noodle,Boom Noodle,1121 E PIKE ST,98122,Seattle,(206) 369-6906,Seating 151-250,III, , , , ," 
",631,485.619613002
-122.270936669625669,47.564297008821299,226,351016,0000000,350,Both Ways Cataering Co.,Both Ways Cataering Co.,4922 S GENESEE ST,98118,Seattle,(206) 722-5799,Seating 13-50,III, , , , ," 
",-1,-1
-122.339933830534434,47.608436049207441,227,351024,0000000,350,Bottega Italiana,Bottega Italiana,1425 1ST AVE,98101,Seattle,(206) 783-5689,Seating 0-12,II, , , , ," 
",-1,-1
-122.288997919346158,47.613479888792249,228,351026,0000000,350,Bottlehouse,Bottlehouse,1416 34TH AVE,98122,Seattle,(206) 962-1619,Seating 13-50,III, , , , ," 
",118,646.974534714
-122.301602220238394,47.619983889268269,229,351027,0000000,350,Bottleneck Lounge,Bottleneck Lounge,2328 E MADISON ST,98112,Seattle,(206) 322-2899,Seating 0-12,II, , , , ," 
",119,1075.0701852
-122.312874409763666,47.715600459195329,230,351029,0000000,350,Boud'S Pinehurst Pub,Boud'S Pinehurst Pub,11753 15TH AVE NE,98125,Seattle,(206) 363-0542,Seating 13-50,III, , , , ," 
",-1,-1
-122.306075449889789,47.669089449143577,231,351031,0000000,350,Boulevard Grocery,Boulevard Grocery,2007 NE RAVENNA BL,98105,Seattle,(206) 517-5572,Seating 0-12,II, , , , ," 
",-1,-1
-122.314680900606277,47.613437158678231,232,351036,0000000,350,Boumba Hotdog @ 1325 E. Madison St,Boumba Hotdog,1325 E MADISON ST,98122,Seattle,(425) 205-0475,Mobile Food Service,I, , , , ," 
",631,489.768633176
-122.365661730479744,47.660177389473731,233,351038,0000000,350,Bourbon & Bones,Bourbon & Bones,4350 LEARY WAY NW,98107,Seattle,(786) 239-6657,Seating 13-50,III, , , , ," 
",-1,-1
-122.330614640290392,47.604526938625852,234,351041,0000000,350,Bowls & Noodles,Bowls & Noodles,701 5TH AVE 114,98104,Seattle,(206) 406-2717,Seating 0-12,III, , , , ," 
",223,1853.55338917
-122.355115199480764,47.692148748812137,235,351042,0000000,350,Box And Bottle,Box And Bottle,8576 Greenwood AVE N,98103,Seattle,(206) 947-0524,Seating 13-50,III, , , , ," 
",-1,-1
-122.382271939435412,47.650586759156369,236,351043,0000000,350,Box Car Alehouse,Box Car Alehouse,3407 GILMAN AVE W,98199,Seattle,(206) 281-8379,Seating 51-150,III, , , , ," 
",-1,-1
-122.317418299398966,47.709989819184564,237,351044,0000000,350,Box Nature Sushi @ Route 206-302-8329,Box Nature Sushi & Catering (Kc146),11204 ROOSEVELT WAY NE,98125,Seattle,(206) 317-4553,Mobile Food Service,III, , , , ," 
",-1,-1
-122.333710030099169,47.553904088880344,238,351046,0000000,350,Boxing Fish,Boxing Fish,115 S BRANDON ST,98108,Seattle,(206) 617-7750,Catering Operation,III, , , , ," 
",-1,-1
-122.289091319636427,47.613109158929994,239,351247,0000000,350,Cafe Soleil,Cafe Soleil,1400 34TH AVE,98122,Seattle,(206) 760-0151,Seating 13-50,III, , , , ," 
",118,541.749272495
-122.312900289851854,47.657405919162862,240,351248,0000000,350,Cafe Solstice,Cafe Solstice,4116 UNIVERSITY WAY NE,98105,Seattle,(206) 295-7469,Seating 13-50,III, , , , ," 
",-1,-1
-122.280790200207406,47.634120839472743,241,351249,0000000,350,Cafe Starbucks  #3702,Cafe Starbucks  #3702,4000 E MADISON ST,98112,Seattle, ,Seating 51-150,II,PR0026193,CAFE STARBUCKS  #3702,STARBUCKS,Y,"4000 E MADISON ST
",-1,-1
-122.34354156023285,47.610629599310471,242,351250,0000000,350,Cafe Suisse,Cafe Suisse,2008 WESTLAKE AVE #100,98121,Seattle,(206) 633-3876,Seating 0-12,I, , , , ," 
",-1,-1
-122.281812999418719,47.537678999060802,243,351254,0000000,350,Cafe Truong Nguyen,Cafe Truong Nguyen,7143A M L KING JR WAY S,98118,Seattle,(206) 356-1411,Seating 13-50,I, , , , ," 
",-1,-1
-122.290122969678521,47.688962069419048,244,351255,0000000,350,Cafe Van Gough,Cafe Van Gogh,8210 35TH AVE NE,98115,Seattle,(206) 999-0779,Seating 13-50,III, , , , ," 
",-1,-1
-122.261363199605455,47.520002348684791,245,351257,0000000,350,Cafe Vignole,Cafe Vignole,9252 57TH AVE S,98118,Seattle,(206) 601-2548,Seating 13-50,III, , , , ," 
",-1,-1
-122.33343076022534,47.612697608677585,246,351259,0000000,350,Cafe Yumm!,Cafe Yumm!,717 PINE ST,98101,Seattle,(360) 731-7023,Seating 13-50,III, , , , ," 
",569,1593.68630257
-122.333367690097162,47.604591359135235,247,351260,0000000,350,Cafe Zum Zum,Cafe Zum Zum,823 3RD AVE,98104,Seattle,(206) 602-7391,Seating 13-50,III, , , , ," 
",223,2405.39273169
-122.383743570250815,47.656130949412528,248,351262,0000000,350,Caffe Appassionato,Caffe Appassionato,4001 21ST AVE W,98199,Seattle,(206) 281-8040,Seating 13-50,III,PR0076882,CAFFE APPASSIONATO,CAFFE APPASSIONATO,Y,"1218 N 45th ST
",-1,-1
-122.337373129369809,47.60228185929671,249,351263,0000000,350,Caffe Appassionato-North Kiosk,Caffe Appassionato-North Kiosk,801 ALASKAN WAY,98104,Seattle,(206) 281-8040,Seating 0-12,II, , , , ," 
",-1,-1
-122.337373129369809,47.60228185929671,250,351264,0000000,350,Caffe Appassionato -  Restaurant/Colman Dock,Caffe Appassionato,801 ALASKAN WAY,98104,Seattle,(206) 281-8040,Seating 0-12,II,PR0076882,CAFFE APPASSIONATO,CAFFE APPASSIONATO,Y,"1218 N 45th ST
",-1,-1
-122.34833941958027,47.619903098920027,251,351265,0000000,350,Caffe Bee,Caffe Bee,407 BROAD ST,98109,Seattle,(206) 441-4184,Seating 0-12,III, , , , ," 
",-1,-1
-122.340577609992536,47.610555319358788,252,351266,0000000,350,Caffe D'Arte,Caffe D'Arte,121 STEWART ST 103,98101,Seattle,(206) 762-4381,Seating 0-12,I, , , , ," 
",-1,-1
-122.360816269742216,47.632478039355895,253,351268,0000000,350,Caffe Fiore,Caffe Fiore,224 W GALER ST,98119,Seattle,(206) 235-8999,Seating 0-12,I, , , , ," 
",-1,-1
-122.341675470471017,47.610341518889442,254,351270,0000000,350,Caffe Lieto,Caffe Lieto,1909 1ST AVE,98101,Seattle, ,Seating 0-12,III, , , , ," 
",-1,-1
-122.335640600230349,47.613544609278875,255,351274,0000000,350,Caffe Senso Unico,Caffe Senso Unico,622 OLIVE WAY,98101,Seattle,(206) 624-8858,Seating 13-50,II, , , , ," 
",569,1216.52485584
-122.333524370468609,47.661207159243915,256,351471,0000000,350,Changes,Changes,2103 N 45TH ST,98103,Seattle,(206) 545-8363,Seating 13-50,III, , , , ," 
",-1,-1
-122.321119619492407,47.620120258725848,257,351475,0000000,350,Charlie'S,Charlie'S,217 BROADWAY AVE E,98102,Seattle,(206) 323-2535,Seating > 250,III, , , , ," 
",632,977.010706953
-122.362723999894484,47.551698998847542,258,351476,0000000,350,Charlie'S Food Truck  @ Route 206-850-3432,Charlie'S Food Truck,4611 36 AVE SW,98126,Seattle,(206) 850-3432,Mobile Food Service,III, , , , ," 
",-1,-1
-122.316336200662079,47.611878129155201,259,351483,0000000,350,Chatterbox,Chatterbox,1100 12TH AVE #101,98122,Seattle,(206) 723-4445,Seating 13-50,III, , , , ," 
",631,303.839154995
-122.362707069814022,47.551755278993696,260,351485,0000000,350,Cheap Dog Catering @ 589 Occidental Ave S,Cheap Dog Catering,5604 DELRIDGE WAY SW,98106,Seattle,(206) 251-7235,Mobile Food Service,III, , , , ," 
",-1,-1
-122.309683739883525,47.599446778675677,261,351487,0000000,350,Cheeky Cafe,Cheeky Cafe,1700 S JACKSON ST,98144,Seattle,(206) 860-0780,Seating 13-50,III, , , , ," 
",567,1282.5181478
-122.348543159769321,47.619157728692926,262,351488,0000000,350,"Cheese Cellar; The","Cheese Cellar; The",100 4TH AVE N,98109,Seattle,(206) 619-3084,Seating 0-12,III, , , , ," 
",-1,-1
-122.387002420659798,47.668390329493675,263,351489,0000000,350,Cheese Wizards @ 210 Nickerson St,Cheese Wizards,2315 NW MARKET ST,98107,Seattle,(360) 621-0048,Mobile Food Service,III, , , , ," 
",-1,-1
-122.381644459585573,47.667797938880341,264,351717,0000000,350,Coffee Time Catering/B9815L/Route/206-782-5944,Coffee Time Catering,13329 1ST AVE NE,98125,Seattle,(206) 782-5944,Mobile Food Service,III, , , , ," 
",-1,-1
-122.328069920234356,47.607193288932407,265,351719,0000000,350,Coffee Tree,Coffee Tree,905 8TH AVE,98104,Seattle,(206) 387-7545,Seating 13-50,III, , , , ," 
",223,829.169119772
-122.337373129369809,47.60228185929671,266,351724,0000000,350,Cold Spot Of Seattle - N Kiosk,Cold Spot Of Seattle - N Kiosk,801 ALASKAN WAY,98104,Seattle,(425) 354-7777,Seating 0-12,III, , , , ," 
",-1,-1
-122.353354489851839,47.621119639231686,267,351728,0000000,350,Collections Cafe,Collections Cafe,305 HARRISON ST,98109,Seattle,(206) 905-2102,Seating 151-250,III, , , , ," 
",-1,-1
-122.313106509385079,47.655532319317601,268,351730,0000000,350,College Inn Pub,College Inn Pub,4006 UNIVERSITY WAY NE,98105,Seattle,(206) 634-2307,Seating 51-150,III, , , , ," 
",-1,-1
-122.332281320634962,47.602235008745055,269,351731,0000000,350,Collins Pub,Collins Pub,526 2ND AVE,98104,Seattle,(206) 623-1016,Seating 51-150,III, , , , ," 
",223,2729.49905242
-122.337373129369809,47.60228185929671,270,351732,0000000,350,Colman Dock News / Candy Lane,Colman Dock News/ Candy Lane,801 S ALASKAN WAY S #G,98104,Seattle,(206) 575-6993,Grocery,I, , , , ," 
",-1,-1
-122.284465279655791,47.557396519251299,271,351734,0000000,350,Columbia City Ale House,Columbia City Ale House,4914 RAINIER AVE S,98118,Seattle, ,Seating 51-150,III, , , , ," 
",-1,-1
-122.285508529639884,47.558183368961778,272,351735,0000000,350,Columbia City Bakery,Columbia City Bakery,4865 RAINIER AVE S,98118,Seattle,(206) 722-4328,Seating 13-50,III, , , , ," 
",-1,-1
-122.28448552008669,47.557318879271016,273,351736,0000000,350,Columbia City Theater,Columbia City Theater,4916 RAINIER AVE S,98118,Seattle,(206) 723-0088,Seating 13-50,III, , , , ," 
",-1,-1
-122.287115470475243,47.558178999392148,274,351737,0000000,350,Columbia School,Columbia Orca  School,3528 S FERDINAND ST,98118,Seattle,(206) 252-6900,Seating 0-12,I, , , , ," 
",-1,-1
-122.330614640290392,47.604526938625852,275,351738,0000000,350,Columbia Tower Club,Columbia Tower Club,701 5TH AVE,98104,Seattle,(206) 622-2010,Seating > 250,III, , , , ," 
",223,1853.55338917
-122.347750580250604,47.615029779298844,276,351049,0000000,350,Branzino,Branzino,2429 2ND AVE,98121,Seattle, ,Seating 13-50,III, , , , ," 
",-1,-1
-122.336780680171586,47.621505688910773,277,351050,0000000,350,Bravehorse Tavern,Bravehorse Tavern,310 TERRY AVE N,98109,Seattle,(206) 448-2001,Seating 51-150,III, , , , ," 
",-1,-1
-122.334574589397491,47.599895518649994,278,351051,0000000,350,Bread Of Life Mission,Bread Of Life Mission,97 S MAIN ST,98104,Seattle,(206) 682-3579,Non-Profit Institution,III, , , , ," 
",223,3744.3978446
-122.29579551064316,47.7177463994216,279,351052,0000000,350,Breakfast Club,Breakfast Club,12306 LAKE CITY WAY NE,98125,Seattle, ,Seating 13-50,III, , , , ," 
",-1,-1
-122.329796000405025,47.526042999432519,280,351053,0000000,350,Breaktime Deli,Breaktime Deli,309 S CLOVERDALE ST,98108,Seattle,(206) 764-5068,Seating 13-50,III, , , , ," 
",-1,-1
-122.374255940062781,47.5448332392276,281,351063,0000000,350,Bridge Park,Bridge Park,3204 SW MORGAN ST,98126,Seattle,(206) 615-3491,Seating 151-250,III, , , , ," 
",-1,-1
-122.363009080345151,47.668486008647299,282,351071,0000000,350,Brimmer & Heeltap,Brimmer & Heeltap,425 NW MARKET ST,98107,Seattle,(206) 979-9463,Seating 13-50,III, , , , ," 
",-1,-1
-122.340571750499137,47.608873009149001,283,351074,0000000,350,Britt'S Pickles,Britt'S Pickles,1500 PIKE PL #15,98101,Seattle,(253) 666-6686,Seating 0-12,I, , , , ," 
",-1,-1
-122.340366669462639,47.61035735913633,284,351076,0000000,350,Broadacre Deli,Broadacre Deli,1601 2ND AVE,98101,Seattle,(206) 441-6003,Seating 13-50,III, , , , ," 
",-1,-1
-122.317571490273892,47.676282249449812,285,351077,0000000,350,Broadcast Coffee,Braodcast Coffee,6515 ROOSEVELT WAY NE,98115,Seattle,(206) 467-4717,Seating 13-50,I, , , , ," 
",-1,-1
-122.306744320654289,47.601931389484953,286,351078,0000000,350,"Broadcast Coffee; Llc","Broadcast Coffee; Llc",1918 YESLER WAY STE A,98122,Seattle,(206) 325-6709,Seating 13-50,I, , , , ," 
",280,1585.1971797
-122.291354859665219,47.640325729001809,287,351079,0000000,350,Broadmoor Golf Club-10Th,Broadmoor Golf Club,2340 BROADMOOR DR E,98112,Seattle,(206) 325-5600,Seating 0-12,III, , , , ," 
",-1,-1
-122.291354859665219,47.640325729001809,288,351080,0000000,350,Broadmoor Golf Club Kitchen,Broadmoor Golf Club,2340 BROADMOOR DR E,98112,Seattle,(206) 325-5600,Seating > 250,III, , , , ," 
",-1,-1
-122.352871380550411,47.724592368644672,289,351081,0000000,350,Broadview/Thomson School,Broadview/Thomson School,13052 GREENWOOD AVE N,98133,Seattle, ,School Kitchen, , , , , ," 
",-1,-1
-122.320506750563567,47.606341078657138,290,351082,0000000,350,Broadway Market,Broadway Market,508 BROADWAY AVE,98122,Seattle,(206) 325-8985,Grocery,I, , , , ," 
",223,1181.1481388
-122.320280000572694,47.614364999429569,291,351083,0000000,350,Broadway Shell,Broadway Shell,1500 BROADWAY,98122,Seattle,(206) 324-0919,Grocery,I, , , , ," 
",258,915.469452841
-122.336106730120392,47.607231898792691,292,351090,0000000,350,"Brooklyn Cafe; The","Brooklyn Cafe; The",1212 2ND AVE,98101,Seattle, ,Seating 151-250,III, , , , ," 
",-1,-1
-122.354227079980106,47.65162776863648,293,351093,0000000,350,"Brouwer'S Cafe; Inc","Brouwer'S Cafe; Inc",400 N 35TH ST,98103,Seattle,(206) 632-7811,Seating 51-150,III, , , , ," 
",-1,-1
-122.329498929534196,47.575281608816233,294,351094,0000000,350,Brown Bag Baguette (Kc264) @ Route 310-623-0844,Brown Bag Baguette (Kc264),3201 4TH AVE S,98134,Seattle,(310) 623-0844,Mobile Food Service,III, , , , ," 
",-1,-1
-122.376491170451146,47.679646968678554,295,351100,0000000,350,Brunswick & Hunt,Brunswick & Hunt,1480 NW 70TH ST,98117,Seattle,(206) 713-5245,Seating 13-50,III, , , , ," 
",-1,-1
-122.292004899364699,47.671514568701681,296,351101,0000000,350,Bryant Elementary School,Bryant Elementary School,3311 NE 60TH ST,98105,Seattle, ,School Kitchen, , , , , ," 
",-1,-1
-122.313437100496117,47.662792588799903,297,351106,0000000,350,Bubble Tea And Sandwich,Bubble Tea And Sandwich,4553 UNIVERSITY WAY NE,98105,Seattle,(206) 718-2944,Seating 13-50,II, , , , ," 
",-1,-1
-122.34001176003612,47.625732419457329,298,351107,0000000,350,Buca Di Beppo,Buca  Di Beppo,701 9TH AVE N,98109,Seattle,(612) 288-2382,Seating > 250,III,PR0047457,BUCA  DI BEPPO,BUCA DI BEPPO,Y,"701 9TH AV N
",-1,-1
-122.35782826980865,47.620751488833285,299,351108,0000000,350,Buckley'S On Queen Anne,Buckley'S On Queen Anne,232 1ST AVE W,98119,Seattle,(206) 283-1400,Seating 51-150,III, , , , ," 
",-1,-1
-122.347025579538169,47.614490748969715,300,351109,0000000,350,Buckleys In Belltown,Buckleys In Belltown,2331 2ND AVE,98121,Seattle,(206) 441-9842,Seating 51-150,III, , , , ," 
",-1,-1
-122.345065080675994,47.612233339491759,301,351116,0000000,350,Buffalo Deli,"Buffalo Deli; The",2123-B 1ST AVE,98121,Seattle, ,Seating 0-12,III, , , , ," 
",-1,-1
-122.31287843059016,47.65863840879166,302,351121,0000000,350,Bulldog News Inc,Bulldog News Inc,4208 UNIVERSITY WAY NE,98105,Seattle,(206) 547-2800,Seating 0-12,I, , , , ," 
",-1,-1
-122.323486769743994,47.597858879113389,303,351123,0000000,350,Bun Llc,Bun Llc,516 7TH AVE S #A,98104,Seattle,(206) 623-5297,Seating 51-150,III, , , , ," 
",176,2283.63241246
-122.312992979814723,47.658137419309952,304,351125,0000000,350,Burger And Kabob Hut,Burger And Kabob Hut,4142 UNIVERSITY WAY NE,98105,Seattle,(206) 632-0324,Seating 0-12,III, , , , ," 
",-1,-1
-122.358899760196991,47.521233679486286,305,351126,0000000,350,Burger Boss,Burger Boss,9061 DELRIDGE WAY SW,98106,Seattle,(206) 779-8845,Seating 0-12,III, , , , ," 
",-1,-1
-122.376530530672511,47.681455319347513,306,351128,0000000,350,Burger Hero,Burger Hero,7302 1/2 15TH AVE NW,98117,Seattle,(206) 992-7190,Seating 0-12,III, , , , ," 
",-1,-1
-122.375177540006788,47.668931468790163,307,351133,0000000,350,Burger King #2368,Burger King #2368,1432 NW MARKET ST,98107,Seattle,(206) 233-9727,Seating 51-150,III,PR0001169,BURGER KING #2368,BURGER KING,Y,"1432 NW MARKET ST
",-1,-1
-122.303679309553232,47.584693849506507,308,351135,0000000,350,Burger King #3369,Burger King #3369,2021 RAINIER AVE S,98144,Seattle,(206) 323-2211,Seating 51-150,III,PR0008394,BURGER KING #3369,BURGER KING,Y,"2021 RAINIER AV S
",-1,-1
-122.329583620383531,47.574088188697047,309,351146,0000000,350,Burger King #6972,Burger King #6972,3301 4TH AVE S,98134,Seattle,(425) 271-8029,Seating 51-150,III,PR0025618,BURGER KING #6972,BURGER KING,Y,"3301 4TH AV S
",-1,-1
-122.344261309804367,47.701100029096686,310,351151,0000000,350,Burgermaster,Burgermaster,9820 AURORA AVE N,98103,Seattle,(206) 524-8033,Seating 13-50,III, , , , ," 
",-1,-1
-122.340010780492818,47.608525189152502,311,351160,0000000,350,Burrito Express,Burrito Express,1429 1ST AVE,98101,Seattle, ,Seating 0-12,III, , , , ," 
",-1,-1
-122.372424140141462,47.696867279082397,312,351161,0000000,350,Burrito Loco Taqueria,Burrito Loco Taqueria,9211 HOLMAN RD NW,98117,Seattle,(206) 783-0719,Seating 13-50,III, , , , ," 
",-1,-1
-122.319808360596554,47.676063018805543,313,351163,0000000,350,Bus Stop Espresso,Bus Stop Espresso,800 NE 65TH ST,98115,Seattle,(206) 528-5997,Seating 0-12,II, , , , ," 
",-1,-1
-122.324736859393255,47.596971368934661,314,351164,0000000,350,Bush Garden Restaurant,Bush Garden Restaurant,614 MAYNARD AVE S,98104,Seattle,(206) 682-6830,Seating 51-150,III, , , , ," 
",176,2718.45426209
-122.288667969510385,47.6229100691395,315,351165,0000000,350,Bush School,Bush School,3400 E HARRISON ST E,98112,Seattle, ,Non-Profit Institution,III, , , , ," 
",696,30.8192634401
-122.364681729987254,47.639408479372101,316,351167,0000000,350,Bustle On Queen Anne,Bustle On Queen Anne,535 W MCGRAW ST,98119,Seattle,(206) 819-4962,Seating 13-50,II, , , , ," 
",-1,-1
-122.325257000093202,47.675665998988251,317,351168,0000000,350,Butcher & The Baker,Butcher & The Baker,6412 LATONA AVE NE,98115,Seattle,(206) 414-3100,Catering Operation,III, , , , ," 
",-1,-1
-122.344377000620227,47.611666998743722,318,351170,0000000,350,Butter & Bloom,Butter & Bloom,6855 176TH AVE NE,98052,Redmond,(206) 859-0757,Catering Operation,II, , , , ," 
",-1,-1
-122.356860000287114,47.649188998842874,319,351174,0000000,350,Byen Bakeri,Byen Bakeri,15 NICKERSON ST STE D,98109,Seattle,(425) 244-7078,Seating 13-50,II, , , , ," 
",-1,-1
-122.329767020004383,47.577537668763675,320,351176,0000000,350,Bys Drive In,Bys Drive In,2901 4TH AVE S,98134,Seattle,(206) 622-9901,Seating 13-50,III, , , , ," 
",-1,-1
-122.321185330038148,47.624294199032427,321,351177,0000000,350,Byzantion Restaurant,Byzantion Restaurant,601 BROADWAY AVE E,98102,Seattle,(206) 982-8361,Seating 13-50,III, , , , ," 
",135,586.733807647
-122.309328090524176,47.576787739425363,322,351180,0000000,350,C & C Food Store,C & C Food Store,3002 BEACON AVE S,98144,Seattle,(206) 723-2959,Seating 0-12,I, , , , ," 
",-1,-1
-122.386799079804661,47.551984328865039,323,351182,0000000,350,C & P Coffee Brand Llc,C & P Coffee Company Brand Llc,5612 CALIFORNIA AVE SW,98136,Seattle,(206) 933-3125,Seating 0-12,I, , , , ," 
",-1,-1
-122.32216756017803,47.548039769182211,324,351186,0000000,350,C P Thai Restaurant,C P Thai Restaurant,5963 CORSON AVE S #166,98108,Seattle, ,Seating 13-50,III, , , , ," 
",-1,-1
-122.412786270039618,47.578223679453245,325,351189,0000000,350,Cactus Alki,Cactus Alki,2820 ALKI AVE SW,98116,Seattle,(425) 330-1969,Seating 51-150,III, , , , ," 
",-1,-1
-122.317258980064508,47.616249709495584,326,351192,0000000,350,Cafe  Argento,Cafe  Argento,1125 E OLIVE ST,98122,Seattle,(206) 524-5995,Seating 0-12,III, , , , ," 
",258,1027.23264108
-122.340410000327836,47.605419999379194,327,351193,0000000,350,Cafe 56,Cafe 56,1201 ALASKAN WAY PIER 56,98101,Seattle, ,Seating 13-50,III, , , , ," 
",-1,-1
-122.31250935973587,47.618808048665514,328,351195,0000000,350,Cafe Abodegas,Cafe Abodegas,102 15TH AVE E,98112,Seattle,(509) 590-7757,Seating 0-12,III, , , , ," 
",568,627.524457091
-122.361931360350098,47.675829118987259,329,351199,0000000,350,Cafe Bambino,Cafe Bambino,405 NW 65TH ST,98107,Seattle,(206) 706-4934,Seating 0-12,I, , , , ," 
",-1,-1
-122.345245209339581,47.613446818651958,330,351200,0000000,350,Cafe Belltown,Cafe Belltown,2219 2ND AVE,98121,Seattle,(425) 773-0296,Seating 0-12,III, , , , ," 
",-1,-1
-122.312440230488619,47.621355259081163,331,351202,0000000,350,Cafe By Hillside Quickie,Cafe By Hillside Quickie,324 15TH AVE E,98112,Seattle,(206) 325-9178,Seating 0-12,III, , , , ," 
",632,1248.08259945
-122.330614640290392,47.604526938625852,332,351205,0000000,350,Cafe Columbia,Cafe Columbia,701 5TH AVE,98104,Seattle, ,Seating 0-12,III, , , , ," 
",223,1853.55338917
-122.334466639832797,47.577577289484154,333,351206,0000000,350,Cafe Con Leche,Cafe Con Leche,2901 1ST AVE S,98134,Seattle,(206) 271-3932,Seating 151-250,III, , , , ," 
",-1,-1
-122.304025120190886,47.675672478788492,334,351208,0000000,350,Cafe Da Pino,Cafe Da Pino,2207 NE 65TH ST,98115,Seattle,(206) 356-8502,Seating 0-12,III, , , , ," 
",-1,-1
-122.295210780407402,47.623968309214533,335,351211,0000000,350,Cafe Flora,Cafe Flora,2901 E MADISON ST,98112,Seattle,(206) 325-9100,Seating 51-150,III, , , , ," 
",436,1299.54019234
-122.297062700299577,47.571558269082196,336,351215,0000000,350,Cafe Hope Espresso Cart @ 3639 Mlk Jr. Way S,Cafe Hope Espresso Cart,3639 M L KING JR WAY S,98144,Seattle,(206) 774-2432,Mobile Food Service,I, , , , ," 
",-1,-1
-122.281984389732969,47.538178979182213,337,351216,0000000,350,Cafe Huong Que,Cafe Huong Que,7127 M L KING JR WAY S,98118,Seattle,(206) 722-4318,Seating 13-50,III, , , , ," 
",-1,-1
-122.33201851998696,47.598754069396769,338,351217,0000000,350,Cafe In The Court,Cafe In The Court,401 2ND AVE S,98104,Seattle,(206) 467-5533,Catering Operation,III, , , , ," 
",223,3733.94217146
-122.311786010044131,47.687583569259971,339,351220,0000000,350,Cafe Kopi,Cafe Kopi,8056 LAKE CITY WAY NE,98115,Seattle,(206) 661-1057,Seating 0-12,III, , , , ," 
",-1,-1
-122.302264189939891,47.639734878788722,340,351221,0000000,350,Cafe Lago,Cafe Lago Inc,2305 24TH AVE E,98112,Seattle,(206) 329-8005,Seating 51-150,III, , , , ," 
",-1,-1
-122.291280989573195,47.708701669412093,341,351222,0000000,350,Cafe Lati,Cafe Lati,11003 35TH AVE NE,98125,Seattle,(206) 388-8085,Seating 13-50,II, , , , ," 
",-1,-1
-122.325630069447939,47.675714579216844,342,351224,0000000,350,Cafe Lulu,Cafe Lulu,6417 LATONA AVE NE,98115,Seattle,(206) 527-7062,Seating 13-50,II, , , , ," 
",-1,-1
-122.324935049547904,47.680267438798268,343,351227,0000000,350,Cafe Momo,Cafe Momo,7119 WOODLAWN AVE NE,98115,Seattle,(206) 854-7707,Seating 13-50,II, , , , ," 
",-1,-1
-122.380446620659441,47.664951229281414,344,351228,0000000,350,Cafe Mox,Cafe Mox,5105 LEARY AVE NW,98107,Seattle,(206) 355-2413,Seating 13-50,III, , , , ," 
",-1,-1
-122.376742330340079,47.535899099233653,345,351232,0000000,350,Cafe Osita,Cafe Osita,7349 35TH AVE SW,98126,Seattle,(206) 937-5423,Seating 0-12,III, , , , ," 
",-1,-1
-122.278806849734863,47.63486245878854,346,351236,0000000,350,Cafe Parco,Cafe Parco,1807 42ND AVE E,98112,Seattle,(206) 324-2626,Seating 13-50,III, , , , ," 
",-1,-1
-122.317859069454869,47.613883708678316,347,351237,0000000,350,Cafe Pettirosso,Cafe Pettirosso,1101 E PIKE ST,98122,Seattle,(206) 323-4830,Seating 51-150,III, , , , ," 
",631,566.836549411
-122.333367690097162,47.604591359135235,348,351238,0000000,350,Cafe Pho,Cafe Pho,823 3RD AVE,98104,Seattle, ,Seating 51-150,III, , , , ," 
",223,2405.39273169
-122.317189470539731,47.612024919387707,349,351243,0000000,350,Cafe Presse,Cafe Presse,1117 12TH AVE,98122,Seattle,(206) 256-1499,Seating 51-150,III, , , , ," 
",631,324.644437607
-122.317074109666962,47.671442028747521,350,351244,0000000,350,Cafe Racer Espresso,Cafe Racer Espresso,5828 ROOSEVELT WAY NE,98105,Seattle,(206) 268-0890,Seating 13-50,III, , , , ," 
",-1,-1
-122.297075590410188,47.60779073931436,351,351246,0000000,350,Cafe Selam,Cafe Selam,2715 E CHERRY ST #B,98122,Seattle, ,Seating 13-50,III, , , , ," 
",503,797.094484309
-122.359664599568561,47.654012069364313,352,350169,0000000,350,Alberona,Alberona,3624 LEARY WAY NW,98107,Seattle,(206) 551-7470,Seating 13-50,III, , , , ," 
",-1,-1
-122.397880710667749,47.642460809188727,353,350176,0000000,350,Albertson'S #408 - Deli,Albertsons #408,2550 32ND AVE W,98199,Seattle,(208) 395-6022,Seating 0-12,III, , , , ," 
",-1,-1
-122.343728009496459,47.724793009437647,354,350198,0000000,350,Albertsons #410,Albertsons #410,13050 AURORA AVE N,98133,Seattle,(208) 395-6022,Seating 0-12,III, , , , ," 
",-1,-1
-122.343728009496459,47.724793009437647,355,350199,0000000,350,Albertsons #410-Meat,Albertsons #410,13050 AURORA AVE N,98133,Seattle,(208) 395-6022,Meat/Sea Food,III, , , , ," 
",-1,-1
-122.33081162992012,47.617208619133734,356,350211,0000000,350,Alfi'S Food & Deli,Alfi'S Food & Deli,1830 MINOR AVE,98101,Seattle,(425) 776-9330,Seating 0-12,III, , , , ," 
",569,1121.67346776
-122.340814559530031,47.608327539287664,357,350213,0000000,350,"Alibi Room; The","Alibi Room; The",85 PIKE ST,98101,Seattle,(206) 623-3180,Seating 51-150,III, , , , ," 
",-1,-1
-122.410900409493379,47.578832639170301,358,350217,0000000,350,Alki Cafe,Alki Cafe,2726 ALKI AVE SW,98116,Seattle,(206) 935-0616,Seating 51-150,III, , , , ," 
",-1,-1
-122.406949809743608,47.577586218883901,359,350218,0000000,350,Alki Community Center,Alki Community Center,5817 SW STEVENS ST,98116,Seattle,(206) 684-7430,Non-Profit Institution,III, , , , ," 
",-1,-1
-122.407827120359258,47.577141719293017,360,350219,0000000,350,Alki Elementary,Alki Elementary,3010 59TH AVE SW,98116,Seattle, ,School Kitchen, , , , , ," 
",-1,-1
-122.407429829763061,47.580065219499829,361,350220,0000000,350,Alki Homefront Smoothies & Espresso,Alki Homefront Smoothies & Espresso,2622 ALKI AVE SW #101,98116,Seattle,(206) 937-8797,Seating 13-50,III, , , , ," 
",-1,-1
-122.381452220385881,47.589130278892704,362,350221,0000000,350,Alki Juice & Java,Alki Juice & Java,1619 HARBOR AVE sw,98126,Seattle,(206) 933-0722,Seating 0-12,II, , , , ," 
",-1,-1
-122.392075810078879,47.580872788979711,363,350222,0000000,350,"Alki Mail & Dispatch; Inc.","Alki Mail & Dispatch; Inc.",4701 SW ADMIRAL WAY,98116,Seattle,(206) 932-2556,Seating 0-12,I, , , , ," 
",-1,-1
-122.4088102701472,47.579489718666935,364,350224,0000000,350,Alki Spud Fish & Chips,Alki Spud Fish & Chips,2666 ALKI AVE SW,98116,Seattle,(206) 938-0606,Seating 51-150,III, , , , ," 
",-1,-1
-122.312864269933883,47.658776909260226,365,350231,0000000,350,Allegro Espresso Bar,Allegro Espresso Bar,4214 UNIVERSITY WAY NE,98105,Seattle,(206) 633-3030,Seating 13-50,I, , , , ," 
",-1,-1
-122.288472149526186,47.532655979056656,366,350234,0000000,350,Aloha Grocery Store,Aloha Grocery Store,7762 BEACON AVE S,98118,Seattle,(206) 723-3032,Grocery,I, , , , ," 
",-1,-1
-122.327432170377833,47.597490828699563,367,350236,0000000,350,Aloha Plates,Aloha Plates,600 5TH AVE S SPAC 8,98104,Seattle,(206) 470-0559,Seating 0-12,III, , , , ," 
",176,3207.3011951
-122.296070990577221,47.721358748880142,368,350237,0000000,350,Aloha Ramen,Aloha Ramen,3004 NE 127TH ST,98125,Seattle,(425) 773-6668,Seating 13-50,III, , , , ," 
",-1,-1
-122.310021939416629,47.66254527939153,369,350239,0000000,350,Alpha Chi Omega,Alpha Chi Omega,4545 17TH AVE NE,98105,Seattle,(206) 525-9104,Seating 51-150,III, , , , ," 
",-1,-1
-122.305068000417805,47.663282998786705,370,350240,0000000,350,Alpha Delta Fraternity Inc,Alpha Delta Fraternity Inc,2106 NE 47TH ST,98105,Seattle, ,Seating 51-150,III, , , , ," 
",-1,-1
-122.308127099419536,47.662870188960426,371,350241,0000000,350,Alpha Delta Pi,Alpha Delta Pi,1805 NE 47TH ST,98105,Seattle,(206) 522-8137,Seating 151-250,III, , , , ," 
",-1,-1
-122.307548009368915,47.662431738959732,372,350242,0000000,350,Alpha Epsilon Pi,Alpha Epsilon Pi,4541 19TH AVE NE,98105,Seattle, ,Seating 13-50,III, , , , ," 
",-1,-1
-122.305109229963037,47.661662618972827,373,350243,0000000,350,Alpha Gamma Delta,Alpha Gamma Delta,4510 21ST AVE NE,98105,Seattle,(206) 527-2351,Seating 13-50,III, , , , ," 
",-1,-1
-122.306894760192236,47.661460829186488,374,350244,0000000,350,Alpha Omicron Pi,Alpha Omicron Pi,1906 NE 45TH ST,98105,Seattle,(615) 370-0920,Seating 51-150,III, , , , ," 
",-1,-1
-122.306875289362083,47.663294558839084,375,350245,0000000,350,Alpha Phi,Alpha Phi,4710 19TH AVE NE,98105,Seattle, ,Seating 13-50,III, , , , ," 
",-1,-1
-122.306880519804395,47.662804349204237,376,350246,0000000,350,Alpha Sigma Phi,Alpha Sigma Phi,4554 19TH AVE NE,98105,Seattle, ,Seating 51-150,III, , , , ," 
",-1,-1
-122.310092939736506,47.665068588738464,377,350247,0000000,350,Alpha Xi Delta,Alpha Xi Delta,1616 NE 50TH ST,98105,Seattle,(206) 522-2968,Seating 51-150,III, , , , ," 
",-1,-1
-122.334580629757042,47.60050344918492,378,350248,0000000,350,Alstadt Llc,Alstadt Llc,209 1ST AVE S STE A,98104,Seattle,(206) 683-3056,Seating 51-150,III, , , , ," 
",223,3578.42422367
-122.2701941994751,47.529391699394239,379,350249,0000000,350,Altaye  Restaurant,Altaye  Restaurant,8135 RAINIER AVE S,98118,Seattle,(206) 579-4215,Seating 0-12,III, , , , ," 
",-1,-1
-122.321160150028092,47.62489787878534,380,350250,0000000,350,Altura,Altura,617 BROADWAY AVE E,98102,Seattle,(206) 417-4628,Seating 13-50,III, , , , ," 
",135,485.213890917
-122.35031341965049,47.651696608668217,381,350251,0000000,350,Always Happy Hour,Always Happy Hour,3601 FREMONT AVE N #207,98103,Seattle,(206) 412-7471,Seating 13-50,III, , , , ," 
",-1,-1
-122.317333070220528,47.708294109194398,382,350254,0000000,350,Am-Pm Mini Mart,Am-Pm Mini Mart,10822 ROOSEVELT WAY NE,98125,Seattle, ,Seating 0-12,III, , , , ," 
",-1,-1
-122.345123410246316,47.690864148933663,383,350257,0000000,350,Am Pm,Am Pm,950 N 85TH ST,98103,Seattle,(206) 729-9608,Seating 0-12,III, , , , ," 
",-1,-1
-122.35514519933642,47.733841778728618,384,350259,0000000,350,Am Pm Mini Mart,Am Pm Mini Mart,14424 GREENWOOD AVE N,98133,Seattle,(206) 361-8333,Seating 0-12,III, , , , ," 
",-1,-1
-122.317070100091058,47.666791099320612,385,350269,0000000,350,Amazing Thai Cuisine,Amazing Thai Cuisine,5210 ROOSEVELT WAY NE #B,98105,Seattle,(206) 409-7654,Seating 13-50,III, , , , ," 
",-1,-1
-122.345542510022881,47.613160059395639,386,350272,0000000,350,Amber,Amber,2214 1ST AVE,98121,Seattle, ,Seating 151-250,III, , , , ," 
",-1,-1
-122.325425709991862,47.598203659477591,387,350274,0000000,350,Ambrosia,Ambrosia,619 S KING ST,98104,Seattle,(206) 623-8028,Seating 13-50,I, , , , ," 
",176,2649.15117232
-122.3424882602135,47.70186843917196,388,350277,0000000,350,Amc Theatres Oaktree 6,Amc Theatres Oaktree 6,10006 AURORA AVE N,98133,Seattle,(646) 521-6255,Seating 0-12,I, , , , ," 
",-1,-1
-122.326727680634008,47.598485468744038,389,350281,0000000,350,American Hotel-Hostelling Int'L,American Hotel-Hostelling Int'L,520 S King ST,98104,Seattle,(206) 622-5443,Grocery,I, , , , ," 
",176,2909.87243382
-122.319105119746283,47.551304609229206,390,350283,0000000,350,American Pie Bakery & Cafe,American Pie Bakery & Cafe,5633 AIRPORT WAY S,98108,Seattle,(425) 531-0525,Seating 0-12,III, , , , ," 
",-1,-1
-122.321119979642106,47.620142669474767,391,350284,0000000,350,Americana,Americana,219 BROADWAY AVE E,98102,Seattle,(917) 545-9807,Seating 51-150,III, , , , ," 
",632,977.143379457
-122.281055450308941,47.538178458654762,392,350286,0000000,350,Amin International Market -   Meat/ Deli  Shop,Amin Inernational Grocery,7126 M L KING JR WAY S,98118,Seattle,(206) 417-8456,Seating 13-50,III, , , , ," 
",-1,-1
-122.288892640052026,47.552300508797217,393,350287,0000000,350,Ammana Houseware & Grocery,"Ammana Houseware And Grocery; Llc",5503 M L KING JR WAY S,98118,Seattle,(206) 422-3814,Meat/Sea Food,III, , , , ," 
",-1,-1
-122.406803579502068,47.580373069346336,394,350289,0000000,350,Ampersand Cafe - Alki,Ampersand Cafe - Alki,2536 ALKI AVE SW,98116,Seattle,(206) 617-3097,Seating 0-12,III, , , , ," 
",-1,-1
-122.345776560083763,47.613736469080202,395,350290,0000000,350,Ampersand Lounge,Ampersand Lounge,115 BELL ST #113,98121,Seattle,(425) 359-5112,Seating 51-150,III, , , , ," 
",-1,-1
-122.35296399943428,47.690936348644698,396,350291,0000000,350,Ampersand Pantry,Corner Cafe,424 N 85TH ST,98103,Seattle,(206) 617-3097,Seating 13-50,III, , , , ," 
",-1,-1
-122.293951629539094,47.608122259029166,397,350292,0000000,350,Amys Merkato,Amy'S Merkato,2922 E CHERRY ST,98122,Seattle, ,Seating 13-50,III, , , , ," 
",503,1491.01678838
-122.325549460559102,47.620671339073056,398,350294,0000000,350,Analog Coffee,Analog Coffee,235 SUMMIT AVE E,98102,Seattle,(206) 661-4794,Seating 0-12,I, , , , ," 
",258,1760.34412769
-122.382901729973796,47.668883878787931,399,350295,0000000,350,Anchors Down,Anchors Down,2016 NW MARKET ST,98107,Seattle,(206) 915-2852,Seating 13-50,I, , , , ," 
",-1,-1
-122.312526160158754,47.614806798709843,400,350296,0000000,350,Anchovies And Olives,Anchovies And Olives,1550 15TH AVE,98122,Seattle,(206) 235-8276,Seating 51-150,III, , , , ," 
",568,858.028041391
-122.337822249850973,47.606751959284757,401,350297,0000000,350,Ancient Grounds,Ancient Grounds,1220 1ST AVE,98101,Seattle, ,Seating 13-50,I, , , , ," 
",-1,-1
-122.36272184008962,47.551671328751901,402,350302,0000000,350,Angel'S Best Catering,Angel'S Best Catering,5604 DELRIDGE WAY SW,98106,Seattle,(206) 454-9278,Catering Operation,III, , , , ," 
",-1,-1
-122.386807150637594,47.582555279246073,403,350305,0000000,350,Angelina'S,Angelina'S,2311 CALIFORNIA AVE SW,98116,Seattle,(206) 932-7311,Seating 51-150,III, , , , ," 
",-1,-1
-122.3549535105671,47.690300778775679,404,350309,0000000,350,Angry Beaver,Angry Beaver,8412 GREENWOOD AVE N,98103,Seattle,(206) 437-8524,Seating 51-150,III, , , , ," 
",-1,-1
-122.321085380501785,47.617963149490244,405,350313,0000000,350,Annapurna Cafe,Annapurna Cafe,1833 BROADWAY AVE,98122,Seattle,(206) 322-6473,Seating 13-50,III, , , , ," 
",258,441.052151526
-122.38711697046692,47.668837338625259,406,350314,0000000,350,Anns Teriyaki Restaurant,Anns Teriyaki Restaurant,2246 NW MARKET ST,98107,Seattle,(206) 789-5838,Seating 13-50,III, , , , ," 
",-1,-1
-122.348107719692081,47.610847779003684,407,350315,0000000,350,Anthony'S @  Pier 66,Anthony'S Restaurant,2201 ALASKAN WAY,98121,Seattle,(206) 448-6688,Seating 151-250,III, , , , ," 
",-1,-1
-122.348107719692081,47.610847779003684,408,350316,0000000,350,Anthony'S Bell Street Diner,Anthony'S Restaurant,2201 ALASKAN WAY,98121,Seattle,(206) 448-6688,Seating 51-150,III, , , , ," 
",-1,-1
-122.349010289938633,47.611435318892077,409,350317,0000000,350,Anthony'S Fish Bar,Anthony'S Fish Bar,2201 ALASKAN WAY,98121,Seattle,(206) 448-6688,Seating 13-50,III, , , , ," 
",-1,-1
-122.344619089491459,47.730854689392103,410,350321,0000000,350,Antojitos Poblanos El Sapo,Antojitos Poblanos El Sapo,14016 AURORA AVE N,98133,Seattle,(206) 501-4441,Seating 0-12,III, , , , ," 
",-1,-1
-122.377768449677475,47.561712669158311,411,350327,0000000,350,Appealing Palate @ Usi Holding Company,"Appealing Palate; Llc",4611 36TH AVE SW,98126,Seattle, ,Catering Operation,III, , , , ," 
",-1,-1
-122.342424449435569,47.607880328833211,412,350333,0000000,350,Aquarium Cafe @ Sodexo,Aquarium Cafe @ Sodexo,1483 ALASKAN WAY,98101,Seattle,(206) 239-9609,Seating 51-150,III, , , , ," 
",-1,-1
-122.325784060515517,47.61860285918214,413,350334,0000000,350,Arabica Lounge,Arabica Lounge,1550 E OLIVE WAY,98102,Seattle, ,Seating 13-50,II, , , , ," 
",258,1281.60055421
-122.316550009685884,47.605674869257221,414,350335,0000000,350,Arada Center,Arada Center,452 12TH AVE,98122,Seattle, ,Seating 0-12,III, , , , ," 
",193,964.912552577
-122.339570560623528,47.607795818939799,415,350336,0000000,350,Aragona Restaurant,Aragona Restaurant,96 UNION ST,98101,Seattle,(206) 526-2840,Seating 51-150,III, , , , ," 
",-1,-1
-122.331678019481274,47.611773739129681,416,350337,0000000,350,Aramark  / Espresso Cart Ii @Convention Crt,Aramark  @ Convention Place,800 CONVENTION PL,98101,Seattle,(206) 694-5088,Mobile Food Service,I, , , , ," 
",686,1532.82718564
-122.312677979327489,47.667616668720683,417,350340,0000000,350,Araya'S Place,Araya'S Place,5240 UNIVERSITY WAY NE #A,98105,Seattle,(206) 225-7442,Seating 51-150,III, , , , ," 
",-1,-1
-122.377587759652485,47.509700338897353,418,350343,0000000,350,Arbor Heights Elementary,Arbor Heights Elementary,3701 SW 104TH ST,98146,Seattle, ,School Kitchen, , , , , ," 
",-1,-1
-122.287603640068497,47.551462279455208,419,350358,0000000,350,Arco Am / Pm #3538,Arco Am / Pm #3538,5620 M L KING JR WAY S,98118,Seattle,(206) 723-8604,Seating 0-12,III, , , , ," 
",-1,-1
-122.263289279410969,47.686913089207451,420,350366,0000000,350,Arena Sports,Arena Sports,7751 63RD AVE NE,98115,Seattle,(425) 849-6285,Seating 0-12,I, , , , ," 
",-1,-1
-122.342156029938025,47.636443329151028,421,350370,0000000,350,Arista,Arista,1920 DEXTER AVE,98109,Seattle, ,Catering Operation,III, , , , ," 
",-1,-1
-122.33058267020516,47.599697618717755,422,350372,0000000,350,Armandino'S Salumi,Armandino'S Salumi,309 3RD AVE S,98104,Seattle, ,Seating 0-12,III, , , , ," 
",223,3265.97654216
-122.32258762985208,47.610741348828881,423,350376,0000000,350,Arosa Cafe,Arosa Cafe,1310 MADISON ST,98104,Seattle,(509) 434-9090,Seating 0-12,II, , , , ," 
",223,1219.41739871
-122.291286649790777,47.626482679361459,424,350377,0000000,350,Arosa Cafe Madison,Arosa Cafe Madison,3121 E MADISON ST #101,98112,Seattle, ,Seating 0-12,II, , , , ," 
",436,1227.50726024
-122.352615550492374,47.614260359372786,425,350379,0000000,350,Art Institute / A La Carte 506 Art Institute,Art Institute Of Seattle,2601 ELLIOTT AVE,98121,Seattle,(206) 448-0900,Seating 13-50,III, , , , ," 
",-1,-1
-122.352615550492374,47.614260359372786,426,350380,0000000,350,Art Institute / Skill Kitchen 504 Art Institute,Art Institute Of Seattle,2601 ELLIOTT AVE,98121,Seattle,(206) 448-0900,Seating 0-12,III, , , , ," 
",-1,-1
-122.352615550492374,47.614260359372786,427,350381,0000000,350,Art Institute Bakery & Pastry Lab 507 Art,Art Institute Of Seattle,2601 ELLIOTT AVE,98121,Seattle,(206) 448-0900,Bakery,III, , , , ," 
",-1,-1
-122.344234429730406,47.654048178856257,428,350382,0000000,350,Art Of The Table,Art Of The Table,1054 N 39TH ST,98103,Seattle, ,Seating 13-50,III, , , , ," 
",-1,-1
-122.283917919375938,47.542131309364606,429,350413,0000000,350,Assabr Mini Mart,Assabr Mini Mart,6727-C M L KING JR WAY S,98118,Seattle, ,Meat/Sea Food,III, , , , ," 
",-1,-1
-122.33994738053913,47.613369299208451,430,350414,0000000,350,Assaggio Ristorante,Assaggio Ristorante,2010 4TH AVE,98121,Seattle, ,Seating 151-250,III, , , , ," 
",-1,-1
-122.296654829514381,47.608111709367243,431,350415,0000000,350,Assimba Restaurant,Assimba Restaurant,2722 E CHERRY ST,98122,Seattle,(206) 322-1019,Seating 51-150,III, , , , ," 
",503,844.708657572
-122.333877880536846,47.576055779426191,432,350417,0000000,350,Aston Manor,Aston Manor,2946 1ST AVE S,98134,Seattle,(702) 735-8322,Seating 51-150,III, , , , ," 
",-1,-1
-122.311453140643209,47.596185059417408,433,350418,0000000,350,At Cafe,At Cafe,716 RAINIER AVE S,98144,Seattle, ,Seating 13-50,II, , , , ," 
",613,1368.96305524
-122.321198490300773,47.605623928702734,434,350419,0000000,350,At The Peak,At The Peak,401 BROADWAY AVE,98122,Seattle,(206) 682-2749,Seating 13-50,III, , , , ," 
",223,1183.29707717
-122.3408823894504,47.608694348875936,435,350423,0000000,350,Athenian Inn,Athenian Inn,1517 PIKE PL,98101,Seattle,(206) 624-7166,Seating 151-250,III, , , , ," 
",-1,-1
-122.356420749365768,47.624273559266292,436,350426,0000000,350,Athina,Athina,528 QUEEN ANNE AVE N,98109,Seattle,(206) 673-5900,Seating 13-50,III, , , , ," 
",-1,-1
-122.317092600467987,47.676151659395721,437,350427,0000000,350,"Atlantic Crossing; The","Atlantic Crossing; The",6508 ROOSEVELT WAY NE,98115,Seattle,(206) 465-0711,Seating 51-150,III, , , , ," 
",-1,-1
-122.277628240350765,47.636330489274549,438,350430,0000000,350,Attic Alehouse & Eatery,Attic Alehouse & Eatery,4226 E MADISON ST,98112,Seattle,(206) 323-3131,Seating 51-150,III, , , , ," 
",-1,-1
-122.34408635050012,47.690223269239929,439,350464,0000000,350,Aurora 76,Aurora 76,8408 AURORA AVE N,98103,Seattle,(206) 525-4788,Grocery,I, , , , ," 
",-1,-1
-122.346426049515983,47.725458049398796,440,350465,0000000,350,Aurora Donuts,Aurora Donuts,13201 AURORA AVE N,98133,Seattle,(206) 364-9535,Seating 13-50,II, , , , ," 
",-1,-1
-122.346426049515983,47.725458049398796,441,350466,0000000,350,Aurora Grocery Outlet,Aurora Grocery Outlet,13201 AURORA AVE N,98133,Seattle,(206) 707-3592,Grocery,II, , , , ," 
",-1,-1
-122.344249019658179,47.705399338677978,442,350467,0000000,350,Aurora Mini Mart,Aurora Mini Mart,10504 AURORA AVE N,98133,Seattle,(206) 524-1417,Seating 0-12,III, , , , ," 
",-1,-1
-122.318913210130958,47.612695059299966,443,350470,0000000,350,Auto Battery Bar,Auto Battery Bar,1009 E UNION ST #C,98122,Seattle,(206) 351-6535,Seating 51-150,I, , , , ," 
",631,631.974307994
-122.285008210381235,47.558826589136615,444,350473,0000000,350,Awash Restaurant,Awash Restaurant,3808 S EDMUNDS ST,98118,Seattle,(206) 725-2945,Seating 51-150,III, , , , ," 
",-1,-1
-122.276695460044365,47.545777308791322,445,350477,0000000,350,Ayaan Grocery,Ayaan Grocery,4433 S GRAHAM ST #2,98118,Seattle,(206) 720-9906,Meat/Sea Food,III, , , , ," 
",-1,-1
-122.322290240637912,47.613944759221596,446,350478,0000000,350,Ayutthaya Thai Restaurant,Ayutthaya Thai Restaurant,727 E PIKE ST,98122,Seattle,(206) 324-8833,Seating 13-50,III, , , , ," 
",686,923.144592351
-122.301273649610266,47.665637309008908,447,350479,0000000,350,Azteca,Azteca,5025 25TH AVE NE,98105,Seattle,(206) 524-2987,Seating 51-150,III,PR0002524,AZTECA,AZTECA,Y,"1823 EASTLAKE AV E
",-1,-1
-122.38709631055832,47.562131789045267,448,350483,0000000,350,Azuma Sushi,Azuma Sushi,4529 CALIFORNIA AVE SW,98116,Seattle,(206) 937-1148,Seating 13-50,III, , , , ," 
",-1,-1
-122.333775000305963,47.58642099937137,449,350484,0000000,350,B'S Dogs @ 902 Occidental Ave S/ Qwest Field,B'S Hot Dogs,902 1ST AVE S,98134,Seattle,(253) 720-8758,Mobile Food Service,I, , , , ," 
",-1,-1
-122.35599692957814,47.583757109168126,450,350489,0000000,350,B & Z'S Food For The Soul,B & Z'S Food For The Soul,1801 16TH AVE SW,98134,Seattle,(206) 841-9014,Catering Operation,III, , , , ," 
",-1,-1
-122.316482890339032,47.607000208994648,451,350492,0000000,350,Ba Bar,Ba Bar,550 12TH AVE,98122,Seattle,(206) 434-1221,Seating 13-50,III, , , , ," 
",193,745.639962548
-122.283114980454172,47.539313138894116,452,350494,0000000,350,Ba Mien Seafood Market -  Deli,Ba Mien Seafood Market,6951 M L KING JR WAY S,98118,Seattle,(206) 725-7974,Seating 0-12,III, , , , ," 
",-1,-1
-122.341439119559553,47.60988580928629,453,350497,0000000,350,"Bacco Cafe ; Llc","Bacco Cafe ; Llc",86 PINE ST,98101,Seattle,(206) 443-5443,Seating 13-50,III, , , , ," 
",-1,-1
-122.295578440376417,47.718274079486882,454,350498,0000000,350,Back Door Pub,Back Door Pub,12330 LAKE CITY WAY NE,98125,Seattle,(206) 722-5730,Seating 13-50,I, , , , ," 
",-1,-1
-122.322674350324618,47.690650588667786,455,350499,0000000,350,Back To The Grind,Back To The Grind,8506 5TH AVE NE,98115,Seattle,(206) 380-5453,Seating 0-12,I, , , , ," 
",-1,-1
-122.321658500447882,47.628469179461085,456,350500,0000000,350,"Bacon Mansion; Llc","Bacon Mansion; Llc",959 BROADWAY E,98102,Seattle, ,Catering Operation,III, , , , ," 
",135,1201.45730376
-122.365666250223839,47.660265579008268,457,350501,0000000,350,Bad Jimmy'S Brewing Company,Bad Jimmy'S Brewing Company,4358 B LEARY WAY NW,98107,Seattle,(206) 465-6758,Seating 0-12,I, , , , ," 
",-1,-1
-122.328394699436473,47.614877828998402,458,350504,0000000,350,Baguette Box,Baguette Box,1203 PINE ST,98101,Seattle, ,Seating 13-50,III, , , , ," 
",686,812.406297129
-122.33674232020735,47.685777538963009,459,350506,0000000,350,Bahas Green Lake,Bahas Green Lake,7900 E GREENLAKE DR N STE 106,98103,Seattle,(253) 653-6582,Seating 13-50,III, , , , ," 
",-1,-1
-122.348360339660445,47.625259178858272,460,350507,0000000,350,Bahn Thai Restaurant,Bahn Thai Restaurant,409 ROY ST,98109,Seattle,(206) 283-0444,Seating 51-150,III, , , , ," 
",-1,-1
-122.302004049420134,47.675978948761781,461,350508,0000000,350,Bai Pai Thai Restaurant,Bai Pai Thai Restaurant,2316 NE 65TH ST STE 101,98115,Seattle, ,Seating 51-150,III, , , , ," 
",-1,-1
-122.31560763055144,47.601144248770176,462,350511,0000000,350,Bailey-Gatzert Elementary,Bailey Gatzert Elementary,1301 E YESLER WAY,98122,Seattle, ,School Kitchen, , , , , ," 
",176,0.00220084659515
-122.320690520399893,47.624632629358629,463,350512,0000000,350,Bait Shop,Bait Shop,606-B BROADWAY AVE E,98102,Seattle,(206) 324-2635,Seating 13-50,III, , , , ," 
",174,575.139952585
-122.314127630165601,47.581597798926914,464,350513,0000000,350,Baja Bistro,Baja Bistro,2414 BEACON AVE S,98144,Seattle, ,Seating 13-50,III, , , , ," 
",-1,-1
-122.386229980407137,47.580895399172732,465,350517,0000000,350,Baked,Baked,2604 CALIFORNIA AVE SW,98116,Seattle, ,Bakery,I, , , , ," 
",-1,-1
-122.333569809346301,47.602998098841553,466,350518,0000000,350,Bakemans Restaurant Inc,Bakemans Restaurant Inc,122 CHERRY ST,98104,Seattle,(206) 245-4078,Seating 51-150,III, , , , ," 
",223,2771.03021288
-122.387027180528221,47.559992539021458,467,350522,0000000,350,Bakery Nouveau,Bakery Nouveau,4737 CALIFORNIA AVE SW,98116,Seattle, ,Seating 0-12,II, , , , ," 
",-1,-1
-122.390402630009092,47.520660908819728,468,350523,0000000,350,Bakery The Original,Bakery The Original,9253 45TH AVE SW,98136,Seattle,(206) 938-5088,Seating 13-50,II, , , , ," 
",-1,-1
-122.270330090415499,47.531264859065089,469,350524,0000000,350,Bakkalch Mini Market,Bakkalch Mini Market,7909 A RAINIER AVE S,98118,Seattle,(206) 412-8381,Grocery,I, , , , ," 
",-1,-1
-122.385002999642793,47.667997999180486,470,350527,0000000,350,Ballard Annex Oyster House,Ballard Annex Oyster House,5410 BALLARD AVE NW,98107,Seattle,(206) 669-2965,Seating 151-250,III, , , , ," 
",-1,-1
-122.374021999828429,47.662504999122852,471,350528,0000000,350,Ballard Bridge Cafe,Ballard Bridge Cafe,4609 14TH AVE NW STE 108,98107,Seattle,(425) 243-7692,Seating 51-150,III, , , , ," 
",-1,-1
-122.376513850194883,47.667321548687106,472,350529,0000000,350,Ballard Brothers,Ballard Brothers,5305 15TH AVE NW,98107,Seattle, ,Seating 51-150,III, , , , ," 
",-1,-1
-122.384439750401199,47.668924109231732,473,350530,0000000,350,Ballard Coffee Works,Ballard Coffee Works,2060 NW MARKET ST,98107,Seattle,(206) 330-9460,Seating 13-50,II, , , , ," 
",-1,-1
-122.39223933980638,47.672876429162969,474,350531,0000000,350,Ballard Community Center,Ballard Community Center,6020 28TH AVE NW,98107,Seattle,(206) 684-4093,Non-Profit Institution,I, , , , ," 
",-1,-1
-122.408179429448637,47.675130728701987,475,350532,0000000,350,Ballard Elks #827,Ballard Elks #827,6411 SEAVIEW AVE NW,98107,Seattle,(206) 784-0827,Non-Profit Institution,III, , , , ," 
",-1,-1
-122.375442780490161,47.676707559053035,476,350534,0000000,350,Ballard High School Kitchen,Ballard High School Kitchen,1418 NW 65TH ST,98117,Seattle, ,School Kitchen, , , , , ," 
",-1,-1
-122.383416039625445,47.66725746933033,477,350537,0000000,350,Ballard Landmark Inn,Ballard Landmark Inn,5433 LEARY AVE NW,98107,Seattle,(206) 728-0935,Seating 51-150,III, , , , ," 
",-1,-1
-122.381148400420926,47.668941639290217,478,350539,0000000,350,Ballard Mail & Dispatch- Sip & Ship,Ballard Mail & Dispatch- Sip & Ship,1752 NW MARKET ST,98107,Seattle, ,Seating 13-50,III, , , , ," 
",-1,-1
-122.36592816989193,47.668927548917125,479,350540,0000000,350,Ballard Mandarin Chinese Restaurant,Ballard Mandarin Chinese Restaurant,5500 8TH AVE NW,98107,Seattle,(206) 407-7436,Seating 51-150,III, , , , ," 
",-1,-1
-122.374300710437808,47.669839119457421,480,350541,0000000,350,Ballard Market,Ballard Market,1400 NW 56TH ST,98107,Seattle,(206) 784-7064,Grocery,I, , , , ," 
",-1,-1
-122.374300710437808,47.669839119457421,481,350542,0000000,350,Ballard Market - Deli,Ballard Market,1400 NW 56TH ST,98107,Seattle,(206) 784-7064,Seating 0-12,III, , , , ," 
",-1,-1
-122.374300710437808,47.669839119457421,482,350543,0000000,350,Ballard Market - Meat,Ballard Market,1400 NW 56TH ST,98107,Seattle,(206) 784-7064,Meat/Sea Food,III, , , , ," 
",-1,-1
-122.374300710437808,47.669839119457421,483,350544,0000000,350,Ballard Market - Seafood,Ballard Market,1400 NW 56TH ST,98107,Seattle,(206) 784-7064,Meat/Sea Food,III, , , , ," 
",-1,-1
-122.381231759870616,47.6645811086413,484,350545,0000000,350,Ballard Pizza Company,Ballard Pizza Company,5107 BALLARD AVE NW,98107,Seattle,(734) 320-1846,Seating 13-50,III, , , , ," 
",-1,-1
-122.386284770543938,47.668312879255026,485,350546,0000000,350,Ballard Smoke Shop,Ballard Smoke Shop,5439 BALLARD AVE NW,98107,Seattle,(206) 784-6611,Seating 13-50,III, , , , ," 
",-1,-1
-122.386397380235607,47.668956049431138,486,350547,0000000,350,Ballard Station Public House,Ballard Station Public House,2236 NW MARKET ST,98107,Seattle,(206) 216-5574,Seating 51-150,II, , , , ," 
",-1,-1
-122.386390690402891,47.668385399175698,487,350553,0000000,350,"Balmar; The","Balmar; The",5449 BALLARD AVE NW,98107,Seattle, ,Seating 51-150,III, , , , ," 
",-1,-1
-122.328268209918733,47.614926918902867,488,350554,0000000,350,Baltic Room,Baltic Room,1207 PINE ST,98101,Seattle,(206) 625-4444,Seating 13-50,II, , , , ," 
",686,801.858267964
-122.412197370065016,47.578455458820216,489,350555,0000000,350,Bamboo Bar & Grill,Bamboo Bar & Grill,2806 ALKI AVE SW,98116,Seattle,(206) 937-3023,Seating 51-150,III, , , , ," 
",-1,-1
-122.356483839697205,47.704354648871906,490,350556,0000000,350,Bamboo Bistro,Bamboo Bistro,10414 HOLMAN RD NW,98133,Seattle,(206) 432-9360,Seating 13-50,III, , , , ," 
",-1,-1
-122.349411300096335,47.625597009408132,491,350559,0000000,350,Bamboo Garden Vegetarian Cuisine,Bamboo Garden Vegetarian Cuisine,364 ROY ST,98109,Seattle,(206) 282-6616,Seating 51-150,III, , , , ," 
",-1,-1
-122.313045710043951,47.621855309033243,492,350561,0000000,350,Bamboo Restaurant,Bamboo Restaurant,345 15TH AVE E,98112,Seattle, ,Seating 51-150,III, , , , ," 
",632,1196.06295387
-122.340241800016173,47.664568798748306,493,350562,0000000,350,Bamboo Village,Bamboo Village,4900 STONE WAY N,98103,Seattle,(206) 652-8888,Seating 151-250,III, , , , ," 
",-1,-1
-122.313117690023816,47.655479189271794,494,350564,0000000,350,Banana Leaf Cafe,Banana Leaf Cafe,4002 UNIVERSITY WAY NE,98105,Seattle,(206) 782-9643,Seating 13-50,III, , , , ," 
",-1,-1
-122.293812999707527,47.56198999891366,495,350565,0000000,350,Bananas Grill,Bananas Grill,4526 M L KING JR WAY S,98108,Seattle,(206) 420-9751,Seating 13-50,III, , , , ," 
",-1,-1
-122.353630359746077,47.618366959344939,496,350567,0000000,350,Bandits Bar,Bandits Bar,159 DENNY WAY,98109,Seattle,(206) 443-5447,Seating 13-50,III, , , , ," 
",-1,-1
-122.349102230508322,47.613951939501639,497,350568,0000000,350,"Bang Bang Cafe; Llc","Bang Bang Cafe; Llc",2460 WESTERN AVE,98121,Seattle, ,Seating 13-50,III, , , , ," 
",-1,-1
-122.386601609421717,47.559532249499121,498,350569,0000000,350,Bangbar Thai,Bangbar Thai,4750 CALIFORNIA AVE SW,98116,Seattle, ,Seating 51-150,III, , , , ," 
",-1,-1
-122.31339937996232,47.663863559472773,499,350572,0000000,350,Banh Mi Unwrapped,Banh Mi Unwrapped,4725 UNIVERSITY WAY NE,98105,Seattle,(206) 227-4613,Seating 13-50,III, , , , ," 
",-1,-1
-122.295508150545572,47.623616008982253,500,350575,0000000,350,Bar Cantinetta,Bar Cantinetta,2811 E MADISON ST,98112,Seattle,(206) 568-5153,Seating 13-50,III, , , , ," 
",436,1351.6906774
-122.309548189978798,47.575430659459009,501,350577,0000000,350,Bar Del Corso,Bar Del Corso,3057 BEACON AVE S,98144,Seattle,(206) 250-3277,Seating 13-50,III, , , , ," 
",-1,-1
-122.333076490626183,47.599363208973067,502,350578,0000000,350,Bar Sajor,Bar Sajor,323 OCCIDENTAL AVE S,98104,Seattle,(206) 310-8515,Seating 51-150,III, , , , ," 
",223,3678.09769041
-122.278748900492616,47.552548699041054,503,350579,0000000,350,Baraka Market,Baraka Market,5811 RAINIER AVE S,98118,Seattle,(206) 261-6925,Meat/Sea Food,III, , , , ," 
",-1,-1
-122.355569520461827,47.6917665290419,504,350580,0000000,350,Baranof Restaurant,Baranof Restaurant,8549 GREENWOOD AVE N,98103,Seattle,(206) 782-9260,Seating 51-150,III, , , , ," 
",-1,-1
-122.299467799517046,47.607823859136495,505,350581,0000000,350,Barbeque Pit,Barbeque Pit,2509 E CHERRY ST,98122,Seattle,(206) 242-2907,Seating 13-50,III, , , , ," 
",503,390.599857461
-122.317900030082711,47.614242279289719,506,350582,0000000,350,Barca,Barca,1510 11TH AVE,98122,Seattle, ,Seating 51-150,II, , , , ," 
",631,676.698751813
-122.323541340163104,47.598201338756994,507,350583,0000000,350,Barclay Seafood & Meat Co,Barclay Seafood & Meat Co,703 S KING ST,98104,Seattle, ,Meat/Sea Food,III, , , , ," 
",176,2232.41625132
-122.32998455048731,47.545598538976762,508,350587,0000000,350,"Baristas Coffee Company; Inc.","Baristas Coffee Company; Inc.",6185 4TH AVE S,98108,Seattle,(206) 850-8747,Limited Food Services,I, , , , ," 
",-1,-1
-122.318132690147095,47.711303039000882,509,350588,0000000,350,Bark Espresso,Bark Espresso,11335 ROOSEVELT WAY NE,98125,Seattle,(206) 482-3003,Seating 0-12,III, , , , ," 
",-1,-1
-122.364794729603588,47.679446339159952,510,350589,0000000,350,Barking Dog Alehouse,Barking Dog Alehouse,705 NW 70TH ST,98117,Seattle,(206) 850-3953,Seating 13-50,III, , , , ," 
",-1,-1
-122.380145000570948,47.663594998931103,511,350591,0000000,350,Barnacle,Barnacle,4743 BALLARD AVE NW,98107,Seattle,(734) 320-1846,Seating 13-50,II, , , , ," 
",-1,-1
-122.323768790619567,47.70824848866912,512,350592,0000000,350,Barnes & Noble #2280,Barnes & Noble,401 NE NORTHGATE WAY 1100,98125,Seattle,(972) 892-4215,Seating 13-50,III,PR0076873,BARNES & NOBLE,BARNES & NOBLE,Y,"401 NE NORTHGATE WAY 1100
",-1,-1
-122.335313020592267,47.612892249096298,513,350593,0000000,350,Barnes & Noble #2957,Barnes & Noble Booksellers,600 PINE ST,98101,Seattle,(206) 264-0156,Seating 13-50,III, , , , ," 
",569,1452.11376494
-122.367805000421299,47.521910999151331,514,350597,0000000,350,Barnes & Noble Cafe,"Barnes & Noble Booksellers; Inc.",2600 SW BARTON ST,98126,Seattle,(206) 361-1358,Seating 13-50,III, , , , ," 
",-1,-1
-122.337552790431033,47.614516489383789,515,350600,0000000,350,Barolo Restaurant,Barolo Restaurant,1940 WESTLAKE AVE,98101,Seattle, ,Seating 51-150,III, , , , ," 
",-1,-1
-122.351613090228071,47.650495748973434,516,350602,0000000,350,"Barrel Thief; The","Barrel Thief; The",3417 EVANSTON AVE N #102,98103,Seattle,(206) 372-4747,Seating 51-150,III, , , , ," 
",-1,-1
-122.316576429712242,47.613453559481073,517,350604,0000000,350,Barrio,Barrio,1420 12TH AVE,98122,Seattle,(206) 838-3852,Seating 51-150,III, , , , ," 
",631,276.486790729
-122.39791168040172,47.638387099098132,518,350608,0000000,350,Bartell Drug #38,Bartell Drug Co #38,2222 32ND AVE W,98199,Seattle, ,Grocery,I, , , , ," 
",-1,-1
-122.324323120458004,47.609227058828999,519,350609,0000000,350,Bartell Drug Co #10,Bartell Drug Co #10,1101 MADISON ST,98104,Seattle, ,Grocery,I, , , , ," 
",223,549.931192267
-122.312850749769623,47.661115419490407,520,350610,0000000,350,Bartell Drug Co #11,Bartell Drug Co #11,4344 UNIVERSITY WAY NE,98105,Seattle,(206) 463-2626,Grocery,I, , , , ," 
",-1,-1
-122.336733269599108,47.62438305881868,521,350612,0000000,350,Bartell Drug Co #36,Bartell Drug Co #36,1001 MERCER ST,98109,Seattle,(206) 763-2626,Seating 0-12,I, , , , ," 
",-1,-1
-122.354989669384736,47.624842979401549,522,350613,0000000,350,Bartell Drug Co #42,Bartell Drug Co #42,600 1ST AVE N,98109,Seattle, ,Grocery,I, , , , ," 
",-1,-1
-122.332011940238843,47.605969989354179,523,350617,0000000,350,Bartell Drugs  #61,Bartell Drugs  #61,900 4TH AVE,98104,Seattle,(206) 763-2626,Seating 0-12,I, , , , ," 
",223,1891.54381326
-122.376643000546494,47.668920999188408,524,350618,0000000,350,Bartell Drugs #02,Bartell Drugs #2,1500 NW MARKET ST #101,98107,Seattle,(206) 767-1182,Seating 0-12,II, , , , ," 
",-1,-1
-122.337021219449269,47.61249754909138,525,350620,0000000,350,Bartell Drugs #1,Bartell Drugs #1,1628 5TH AVE,98101,Seattle, ,Grocery,I, , , , ," 
",-1,-1
-122.385218639862757,47.560941629508243,526,350622,0000000,350,Bartell Drugs #16,Bartell Drugs #16,4706 42ND AVE SW,98116,Seattle, ,Grocery,I, , , , ," 
",-1,-1
-122.315901389540343,47.675004559418205,527,350628,0000000,350,Bartell Drugs #24,Bartell Drugs #24,6401 12TH AVE NE,98115,Seattle,(206) 763-2626,Grocery,I, , , , ," 
",-1,-1
-122.330096660667834,47.622775329168583,528,351276,0000000,350,Caffe Torino,Caffe Torino,422 YALE AVE N,98109,Seattle,(206) 369-6425,Seating 0-12,III, , , , ," 
",135,1972.20416529
-122.332421609639468,47.599575659162632,529,351277,0000000,350,Caffe Umbria,Caffe Umbria,320 OCCIDENTAL AVE S,98104,Seattle,(206) 624-5847,Seating 13-50,II, , , , ," 
",223,3525.2401231
-122.329539170431985,47.601102339073989,530,351279,0000000,350,Caffe Vita Coffee Roasting,Caffe Vita Coffee Roasting,125 PREFONTAINE PL S,98104,Seattle,(206) 931-4000,Seating 13-50,III, , , , ," 
",223,2692.61923563
-122.355096169694548,47.682713709418373,531,351280,0000000,350,Caffe Vita Coffee Roasting Company,Caffe Vita,7402 GREENWOOD AVE N,98103,Seattle,(206) 709-4440,Seating 13-50,II, , , , ," 
",-1,-1
-122.35426468064955,47.624402309174208,532,351281,0000000,350,Caffe Zingaro,Caffe Zingaro,127 MERCER ST,98109,Seattle, ,Seating 13-50,III, , , , ," 
",-1,-1
-122.337297810387156,47.611888769215618,533,351282,0000000,350,Cajun & Grill Of Westlake Center,Cajun & Grill Of Westlake Center,400 PINE ST,98101,Seattle, ,Seating 0-12,III, , , , ," 
",-1,-1
-122.283114980454172,47.539313138894116,534,351283,0000000,350,Cajun Crawfish,Cajun Crawfish,6951 M L KING JR WAY S #103,98118,Seattle, ,Seating 13-50,III, , , , ," 
",-1,-1
-122.325360020565341,47.597647839231655,535,351284,0000000,350,Cake House,Cake House Llc,620 S WELLER ST,98104,Seattle,(206) 223-2766,Seating 0-12,II, , , , ," 
",176,2723.20641134
-122.295808000320974,47.57764899940252,536,351285,0000000,350,Cake Noir,Cake Noir,2822 M L KING JR WAY S,98144,Seattle,(206) 321-7297,Catering Operation,II, , , , ," 
",-1,-1
-122.325821580188247,47.545637409428842,537,351287,0000000,350,Cakes Of Paradise,Cakes Of Paradise,6322 6TH AVE S,98108,Seattle,(206) 763-6799,Bakery,II, , , , ," 
",-1,-1
-122.324604769745818,47.708438228831945,538,351292,0000000,350,California Pizza Kitchen,California Pizza Kitchen,401 NE NORTHGATE WAY NE,98125,Seattle, ,Seating 151-250,III,PR0067419,CALIFORNIA PIZZA KITCHEN,CALIFORNIA PIZZA KITCHEN,Y,"401 NE NORTHGATE WAY NE
",-1,-1
-122.322902200533022,47.540343669433256,539,351295,0000000,350,Calozzi'S,Calozzi'S,7016 E MARGINAL WAY S,98108,Seattle,(425) 221-5116,Seating 0-12,III, , , , ," 
",-1,-1
-122.341373630200678,47.609829919072851,540,351311,0000000,350,Campagne,Campagne,86 PINE ST,98101,Seattle,(206) 448-7562,Seating 151-250,III, , , , ," 
",-1,-1
-122.29851299994786,47.592187898947991,541,351313,0000000,350,Campfire,Campfire,2608 S JUDKINS ST,98144,Seattle, ,Catering Operation,III, , , , ," 
",-1,-1
-122.307543359522469,47.662162319242633,542,351314,0000000,350,Campus Christian Ministry,Campus Christian Ministry,4525 19TH AVE NE,98105,Seattle,(206) 524-7900,Non-Profit Institution,III, , , , ," 
",-1,-1
-122.317484729952639,47.657079479152145,543,351315,0000000,350,Campus Corner Cafe,Campus Corner Cafe,4100 ROOSEVELT WAY NE #B,98105,Seattle, ,Seating 0-12,III, , , , ," 
",-1,-1
-122.340364559936717,47.608888258980585,544,351318,0000000,350,Can Can,Can Can,94 PIKE ST,98101,Seattle,(206) 621-8555,Seating 13-50,III, , , , ," 
",-1,-1
-122.316476320043222,47.611269188914996,545,351320,0000000,350,Canon Whisky & Bitters Emporium,Canon Whisky & Bitters Emporium,928 12TH AVE,98122,Seattle,(206) 783-0359,Seating 13-50,III, , , , ," 
",646,273.121244301
-122.312421199568405,47.624195688761588,546,351322,0000000,350,Canterbury Ale House,Canterbury Ale House,534 15TH AVE E,98112,Seattle,(206) 724-2023,Seating 51-150,III, , , , ," 
",151,1124.01571524
-122.341789480160301,47.610205078653053,547,351323,0000000,350,Cantina De San Patricios,Cantina De San Patricios,1914 POST ALY,98101,Seattle, ,Seating 13-50,III, , , , ," 
",-1,-1
-122.336558799698921,47.651255618870593,548,351325,0000000,350,Cantinetta,Cantinetta,3650 WALLINGFORD AVE N,98103,Seattle,(206) 632-1000,Seating 13-50,III, , , , ," 
",-1,-1
-122.316998009359409,47.598058798679304,549,351326,0000000,350,Canton Noodle House,Canton Noodle House,506 12TH AVE S,98144,Seattle,(206) 329-5650,Seating 13-50,III, , , , ," 
",176,1176.58039464
-122.325913889417478,47.597664668621881,550,351327,0000000,350,Canton Wonton House,Canton Wonton House,608 S WELLER ST,98104,Seattle, ,Seating 13-50,III, , , , ," 
",176,2841.91617972
-122.335380520072931,47.608255658908504,551,351329,0000000,350,"Capital Grille; The  #8030","Capital Grille; The  #8030",1301 4TH AVE,98101,Seattle,(770) 901-6657,Seating 151-250,III, , , , ," 
",223,2613.04111613
-122.321260310656243,47.614249028938779,552,351330,0000000,350,Capitol Cider,Capitol Cider,818 E Pike ST,98122,Seattle,(206) 718-3739,Seating 51-150,III, , , , ," 
",258,918.976376879
-122.317222869893129,47.605857528892912,553,351331,0000000,350,Capitol Hill Arco,Capitol Hill Chevron,427 12TH AVE,98122,Seattle,(206) 324-5605,Seating 0-12,III, , , , ," 
",193,1064.09637155
-122.324373889808456,47.61919749866388,554,351333,0000000,350,Captain Blacks,Captain Blacks,129 BELMONT AVE E,98102,Seattle, ,Seating 51-150,III, , , , ," 
",258,1157.8958852
-122.323188190143384,47.572853068980955,555,351336,0000000,350,Caravan Crepes @,Caravan Crepes (Kc174),3429 AIRPORT WAY S,98134,Seattle,(206) 792-6779,Mobile Food Service,III, , , , ," 
",-1,-1
-122.321488770492778,47.544207759270691,556,351342,0000000,350,Carleton Grocery,Carleton Grocery,6601 CARLETON AVE S,98108,Seattle, ,Grocery,I, , , , ," 
",-1,-1
-122.314407950117683,47.599764048621701,557,351348,0000000,350,Carniceria Azteca,Carniceria Azteca,1265 S MAIN ST,98144,Seattle,(206) 363-7080,Meat/Sea Food,III, , , , ," 
",176,584.00815489
-122.319767750497434,47.675685199006409,558,351359,0000000,350,Casa Patron,Casa Patron,805 NE 65TH ST,98115,Seattle,(206) 923-7680,Seating 51-150,III, , , , ," 
",-1,-1
-122.327929649737229,47.586695319279208,559,351374,0000000,350,Cash & Carry #551,Cash & Carry #551,1760 4TH AVE S,98134,Seattle, ,Grocery,II, , , , ," 
",-1,-1
-122.305824870097879,47.586051338909037,560,351377,0000000,350,Cash & Carry #583,Cash & Carry #583,1901 21ST AVE S,98144,Seattle, ,Grocery,II, , , , ," 
",-1,-1
-122.339128279359372,47.625995699132623,561,351381,0000000,350,Cask & Trotter,Cask & Trotter,711 WESTLAKE AVE N,98109,Seattle,(206) 453-4756,Seating 51-150,III, , , , ," 
",-1,-1
-122.412784400421813,47.578225378727559,562,351384,0000000,350,Cassis,Cassis,2820 ALKI AVE SW #2,98116,Seattle,(206) 743-8531,Seating 13-50,III, , , , ," 
",-1,-1
-122.331678019481274,47.611773739129681,563,351389,0000000,350,Caterer,Aramark  @ Convention Place,800 CONVENTION PL,98101,Seattle,(206) 694-5088,Catering Operation,III, , , , ," 
",686,1532.82718564
-122.375978889795505,47.648667498688994,564,351391,0000000,350,Catering By Phyllis,Catering By Phyllis,3204 15TH AVE W,98119,Seattle,(206) 283-0480,Catering Operation,III, , , , ," 
",-1,-1
-122.296467710245949,47.60814422888236,565,351393,0000000,350,Catfish Corner,Catfish Corner,2726 E CHERRY ST,98122,Seattle,(206) 323-4330,Seating 13-50,III, , , , ," 
",503,885.007485938
-122.400395579940437,47.642777669304948,566,351394,0000000,350,Catherine Blaine Elementary,Catherine Blaine Elementary,2550 34TH AVE W,98199,Seattle, ,School Kitchen, , , , , ," 
",-1,-1
-122.34418089046369,47.63650984898409,567,351395,0000000,350,Catholic Comm Serv-Aloha,Catholic Comm Serv-Aloha,1911 AURORA AVE N,98109,Seattle,(206) 443-9935,Non-Profit Institution,III, , , , ," 
",-1,-1
-122.323183010256798,47.619411389363897,568,351399,0000000,350,"Ccattle'S; Llc","Ccattle'S; Llc",1701 E OLIVE WAY,98102,Seattle,(206) 200-0132,Seating 151-250,III, , , , ," 
",258,1064.75916634
-122.313384559915065,47.659687299070228,569,351400,0000000,350,Cedar'S Restaurant,Cedar'S Restaurant,1319 NE 43RD ST,98105,Seattle,(206) 632-7708,Seating 13-50,III, , , , ," 
",-1,-1
-122.314502580447126,47.664760188903635,570,351421,0000000,350,Cedars On Brooklyn,Cedars Brooklyn Deli,4759 BROOKLYN AVE NE,98105,Seattle,(425) 301-3141,Seating 51-150,III, , , , ," 
",-1,-1
-122.339933719478196,47.60478741886142,571,351425,0000000,350,Celebrations,Argosy,1101 ALASKAN WAY 201,98101,Seattle,(206) 623-1445,Seating 51-150,I, , , , ," 
",-1,-1
-122.362815139427155,47.676145009397146,572,351426,0000000,350,Celesto Espresso @ 1010 Valley St Seattle 98109,Celesto Espresso (Kc239),500 NW 65TH ST,98117,Seattle,(206) 661-4458,Mobile Food Service,I, , , , ," 
",-1,-1
-122.410907059349213,47.578876018673135,573,351428,0000000,350,Celtic Swell,Celtic Swell,2722 ALKI AVE SW,98116,Seattle, ,Seating 51-150,III, , , , ," 
",-1,-1
-122.293297289449612,47.597490309493459,574,351432,0000000,350,Central Area Senior Nutrition,Central Area Senior Nutrition,500 30TH AVE S,98144,Seattle, ,Seating 13-50,III, , , , ," 
",622,1721.96936992
-122.302776039525014,47.602294618979762,575,351433,0000000,350,Central Area Youth Association,Central Area Youth Association,119 23RD AVE,98122,Seattle,(206) 322-6640,Non-Profit Institution,III, , , , ," 
",285,1060.20210635
-122.305289459751876,47.613183978803342,576,351435,0000000,350,Central Cinema,Central Cinema,1411 21ST AVE,98122,Seattle, ,Seating 13-50,III, , , , ," 
",208,988.262916782
-122.310978550196168,47.615538068626236,577,351437,0000000,350,Central Co-Op - Deli,Central Co-Op,1600 E MADISON ST,98122,Seattle, ,Seating 0-12,III, , , , ," 
",568,776.838189616
-122.311008040394,47.615493409051439,578,351438,0000000,350,Central Coop,Central Coop- Madison Market,1600 E MADISON ST,98122,Seattle, ,Grocery,I, , , , ," 
",568,784.353126702
-122.294773220630006,47.599052398929679,579,351441,0000000,350,Central Pizza,Central Pizza,2901 S JACKSON ST,98144,Seattle,(206) 280-9705,Seating 51-150,III, , , , ," 
",622,1330.98591536
-122.33457829046462,47.600587379333625,580,351442,0000000,350,"Central Saloon ; The","Central Saloon;  The",207 1ST AVE S,98104,Seattle, ,Seating 51-150,III, , , , ," 
",223,3555.4575269
-122.353354489851839,47.621119639231686,581,351445,0000000,350,"Ceres Roasting Company; Llc (Kc185)","Ceres Roasting Company; Llc (Kc185)",305 HARRISON ST,98109,Seattle,(206) 619-0499,Mobile Food Service,I, , , , ," 
",-1,-1
-122.319254760363066,47.61392202908727,582,351449,0000000,350,Cha Cha Lounge,Cha Cha Lounge,1013 E Pike ST,98122,Seattle,(206) 322-0703,Seating 51-150,III, , , , ," 
",631,841.452555472
-122.315565809878166,47.664742309314846,583,351453,0000000,350,Chaco Canyon Organic Cafe,Chaco Canyon Organic Cafe,4757 12TH AVE NE,98105,Seattle,(206) 818-9778,Seating 13-50,III, , , , ," 
",-1,-1
-122.379816790193189,47.561334829059327,584,351454,0000000,350,Chaco Canyon Organic Cafe West,Chaco Canyon Organic Cafe West,3770 SW ALASKA ST,98126,Seattle,(206) 818-9778,Seating 51-150,III, , , , ," 
",-1,-1
-122.354866299611075,47.719926379377696,585,351455,0000000,350,Chada Thai Restaurant,Chada Thai Restaurant,308 N 125TH ST,98133,Seattle, ,Seating 13-50,III, , , , ," 
",-1,-1
-122.312868699337173,47.715435919133576,586,351456,0000000,350,Chaiyo Thai Restaurant,Chaiyo Thai Restaurant,11749 15TH AVE NE,98125,Seattle,(206) 361-8888,Seating 13-50,III, , , , ," 
",-1,-1
-122.339933719478196,47.60478741886142,587,351459,0000000,350,Champagne Lady,Argosy,1101 ALASKAN WAY 201,98101,Seattle,(206) 623-1445,Seating 51-150,I, , , , ," 
",-1,-1
-122.361533649607452,47.571943738962652,588,351495,0000000,350,Chelan Restaurant,Chelan Restaurant,3527 CHELAN AVE SW,98106,Seattle,(206) 932-7383,Seating 51-150,III, , , , ," 
",-1,-1
-122.348774490236934,47.66479237914168,589,351496,0000000,350,Chelsea Station Inn B & B,Chelsea Station Inn B & B,4915 LINDEN AVE N,98103,Seattle,(206) 650-8451,Bed and Breakfast,I, , , , ," 
",-1,-1
-122.36503731999295,47.624422329471678,590,351498,0000000,350,Chen'S Village,Chen'S Village,544 ELLIOTT AVE W,98119,Seattle,(206) 281-8838,Seating 51-150,III, , , , ," 
",-1,-1
-122.336553000595941,47.612604998884649,591,351501,0000000,350,Cherry St Coffee House,Cherry St Coffee House,509 OLIVE WAY,98101,Seattle,(206) 295-6626,Seating 13-50,III, , , , ," 
",-1,-1
-122.332577099685281,47.604359739323563,592,351502,0000000,350,Cherry Street Cafe,Cherry Street Cafe,808 3RD AVE 190,98104,Seattle,(206) 441-7176,Seating 0-12,III, , , , ," 
",223,2281.02353556
-122.351401770268708,47.615952759197882,593,351503,0000000,350,"Cherry Street Cafe; Llc","Cherry Street Cafe; Llc",2719 1ST AVE,98121,Seattle, ,Seating 13-50,III, , , , ," 
",-1,-1
-122.344774890475989,47.612184379101706,594,351504,0000000,350,Cherry Street Cofee House - Belltown,Cherry Street Coffee House,2121 1ST AVE,98121,Seattle,(206) 728-9697,Seating 13-50,III, , , , ," 
",-1,-1
-122.316107870481503,47.607873188702918,595,351505,0000000,350,Cherry Street Coffee House,Cherry Street Coffee House,1223 E CHERRY ST,98122,Seattle,(206) 295-6626,Seating 51-150,III, , , , ," 
",193,672.989234054
-122.333831999728616,47.597607999329128,596,351506,0000000,350,Cherry Street Coffeehouse,Cherry Street Coffee,528 1ST AVE S,98104,Seattle,(206) 295-6626,Seating 13-50,III, , , , ," 
",223,4318.94770003
-122.333781149339146,47.60252634877515,597,351507,0000000,350,Cherry Street Espresso,Cherry Street Espresso,103 CHERRY ST,98104,Seattle, ,Seating 13-50,III, , , , ," 
",223,2921.22418454
-122.333367690097162,47.604591359135235,598,351508,0000000,350,Cherry Street Kitchen,Cherry Street Kitchen,823 3RD AVE #108,98104,Seattle, ,Seating 0-12,III, , , , ," 
",223,2405.39273169
-122.337609950203969,47.606514318802766,599,351509,0000000,350,"Cherry Street Museum; Llc","Cherry Street Museum; Llc",1212 1ST AVE,98101,Seattle,(206) 622-3363,Seating 13-50,III, , , , ," 
",-1,-1
-122.375061210594424,47.694524678701917,600,351518,0000000,350,Chevron #207721,Chevron #207721,9000 HOLMAN RD NW,98117,Seattle, ,Seating 0-12,I, , , , ," 
",-1,-1
-122.334583510059574,47.549698738855589,601,351538,0000000,350,Chevron Stations #1113,Chevron Station #1113,5940 E MARGINAL WAY S,98134,Seattle, ,Seating 0-12,III, , , , ," 
",-1,-1
-122.329880710299818,47.605007369196741,602,351541,0000000,350,Chew  Chew'S,Chew  Chew'S,700 5TH AVE,98104,Seattle,(206) 223-0820,Seating 13-50,III, , , , ," 
",223,1602.51906269
-122.308678950629925,47.662788209052508,603,351543,0000000,350,Chi Omega,Chi Omega,4549 18TH AVE NE,98105,Seattle,(206) 524-1903,Seating 51-150,III, , , , ," 
",-1,-1
-122.304210379752206,47.662016799494971,604,351544,0000000,350,Chi Psi,Chi Psi,4600 22ND AVE NE,98105,Seattle,(206) 985-1514,Seating 13-50,III, , , , ," 
",-1,-1
-122.314329180042236,47.686374169201464,605,351545,0000000,350,Chiang'S Gourmet Restaurant,Chiang'S Gourmet Restaurant,7845 LAKE CITY WAY NE,98115,Seattle,(206) 427-6310,Seating 51-150,III, , , , ," 
",-1,-1
-122.329498929534196,47.575281608816233,606,351548,0000000,350,Chick'N Fix (Kc258) @ 206-914-0610,Chick'N Fix (Kc258),3201 4TH AVE S,98134,Seattle,(425) 218-6751,Mobile Food Service,III, , , , ," 
",-1,-1
-122.345148449630301,47.707729838990694,607,351549,0000000,350,Chickalatte Beautiful Coffee,Chickalatte Beautiful Coffee,10735 AURORA AVE N,98133,Seattle,(206) 313-0641,Seating 0-12,I, , , , ," 
",-1,-1
-122.34072295061749,47.608598669142609,608,351550,0000000,350,Chicken Valley Farm Store,Chicken Valley Llc,1507 PIKE PL,98101,Seattle,(206) 624-2774,Seating 0-12,III, , , , ," 
",-1,-1
-122.326910999592712,47.625422998808823,609,351551,0000000,350,Chico Madrid,Barjot,711 BELLEVUE AVE E,98102,Seattle,(206) 300-9609,Seating 13-50,II, , , , ," 
",135,957.56884786
-122.36615475037641,47.52863202947897,610,351553,0000000,350,Chief Sealth Hs - Concession Stand C121,Chief Sealth High School,2600 SW THISTLE ST,98126,Seattle,(206) 933-5300,Non-Profit Institution,III, , , , ," 
",-1,-1
-122.366190800148345,47.528891959488107,611,351554,0000000,350,Chief Sealth Hs/ Denny Ms/ Main Kitchen,Chief Sealth High School,2600 SW THISTLE ST,98126,Seattle,(206) 252-0604,School Kitchen, , , , , ," 
",-1,-1
-122.316430509507157,47.610722018863626,612,351555,0000000,350,"Chieftan; The","Chieftan; The",908 12TH AVE,98122,Seattle,(206) 601-0456,Seating 51-150,III, , , , ," 
",646,169.443617659
-122.339466580457582,47.661161119147089,613,351557,0000000,350,Chile-Pepper,Chile-Pepper,1427 N 45TH ST,98103,Seattle,(206) 545-1790,Seating 13-50,III, , , , ," 
",-1,-1
-122.312805370043307,47.665079839305051,614,351558,0000000,350,Chili'S Deli,Chili'S Deli,5002 UNIVERSITY WAY NE,98105,Seattle,(206) 412-0874,Seating 13-50,III, , , , ," 
",-1,-1
-122.347563839672517,47.614926899140784,615,351560,0000000,350,Chili & Sesame Korean Kitchen,Chili & Sesame Korean Kitchen,2421 2ND AVE,98121,Seattle,(206) 484-7866,Seating 13-50,III, , , , ," 
",-1,-1
-122.35677545052431,47.652503419279043,616,351561,0000000,350,Chillies Paste Restaurant,Chillies Paste Restaurant,119 N 36TH ST,98103,Seattle,(206) 633-1433,Seating 13-50,III, , , , ," 
",-1,-1
-122.345146399648513,47.702679768818186,617,351563,0000000,350,China Dragon Restaurant,China Dragon Restaurant,10119 AURORA AVE N,98133,Seattle,(206) 524-5525,Seating 51-150,III, , , , ," 
",-1,-1
-122.313508290151958,47.659442719406286,618,351564,0000000,350,China First,China First,4237 UNIVERSITY WAY NE,98105,Seattle,(206) 634-3553,Seating 51-150,III, , , , ," 
",-1,-1
-122.356022459781997,47.733557329014673,619,351565,0000000,350,China Gourmet,China Gourmet,14411 GREENWOOD AVE N,98133,Seattle,(206) 363-3866,Seating 13-50,III, , , , ," 
",-1,-1
-122.33987919942615,47.637336968906673,620,351566,0000000,350,China Harbor Restaurant,China Harbor Restaurant,2040 WESTLAKE AVE N,98109,Seattle,(206) 286-1688,Seating > 250,III, , , , ," 
",-1,-1
-122.312734370256891,47.579050409452947,621,351573,0000000,350,Chinatown Cafe #2 @ Hilltop Red Apple,Chinatown Cafe #12,2701 BEACON AVE S,98144,Seattle, ,Seating 0-12,III, , , , ," 
",-1,-1
-122.301890560628379,47.598919379122258,622,351574,0000000,350,Chinatown Cafe 15,"Chinatown Cafe; #15",2301 S JACKSON ST,98144,Seattle, ,Seating 0-12,III, , , , ," 
",280,658.978786188
-122.356340279630857,47.6385595492278,623,351576,0000000,350,Chinoise Cafe,Chinoise Cafe,12 BOSTON ST,98109,Seattle,(206) 284-6671,Seating 51-150,III, , , , ," 
",-1,-1
-122.380319030263138,47.655603829395041,624,351577,0000000,350,Chinook'S At Salmon Bay,Chinook'S At Salmon Bay,1734 W THURMAN ST,98119,Seattle,(206) 283-4665,Seating 51-150,III, , , , ," 
",-1,-1
-122.337715910621341,47.607362859444201,625,351581,0000000,350,Chip & Drew'S Express,Chip & Drew'S Express,1301 2ND AVE #1700,98101,Seattle,(206) 909-9973,Seating 51-150,III, , , , ," 
",-1,-1
-122.338157999500439,47.620312999247794,626,351583,0000000,350,Chipotle,Chipotle,212 WESTLAKE AVE N STE 101,98109,Seattle,(303) 222-5940,Seating 51-150,III, , , , ," 
",-1,-1
-122.313512600316756,47.659278239503635,627,351588,0000000,350,Chipotle Mexican Grill #578,Chipotle Mexican Grill,4229 UNIVERSITY WAY NE,98105,Seattle,(303) 595-4000,Seating 51-150,III,PR0055186,CHIPOTLE MEXICAN GRILL,CHIPOTLE MEXICAN GRILL,Y,"4231 UNIVERSITY WAY NE
",-1,-1
-122.336917530114675,47.610157259257846,628,351590,0000000,350,"Chipotle Mexican Grill; #1363","Chipotle Mexican Grill; #1363",1501 4th AVE Ste 114,98101,Seattle, ,Seating 51-150,III, , , , ," 
",-1,-1
-122.380106059653443,47.663569868858424,629,351591,0000000,350,Chippy'S,Chippy'S,4741 BALLARD AVE NW,98107,Seattle,(206) 588-0030,Seating 13-50,III, , , , ," 
",-1,-1
-122.392681200193408,47.550643039217704,630,351593,0000000,350,Chittenden House B & B,Chittenden House B & B,5649 47TH AVE SW,98136,Seattle, ,Bed and Breakfast,I, , , , ," 
",-1,-1
-122.289535570643835,47.660814839266592,631,351594,0000000,350,Chloe Bistrot,Chloe Bistrot,3515 NE 45TH ST,98105,Seattle,(206) 265-3124,Seating 13-50,III, , , , ," 
",-1,-1
-122.32685299977922,47.707300999075272,632,351597,0000000,350,Choco Amore,Choco Amore,401 NE NORTHGATE WAY #452,98125,Seattle,(253) 777-8557,Seating 0-12,II, , , , ," 
",-1,-1
-122.361002740111417,47.67578202910039,633,351598,0000000,350,Chocolat Vitale Inc,Chocolat Vitale Inc,6257 3RD AVE NW,98107,Seattle,(206) 372-4520,Seating 0-12,I, , , , ," 
",-1,-1
-122.342818489807684,47.610218538718691,634,351599,0000000,350,Chocolate & Ice Cream Delight,Chocolate & Ice Cream Delight,1918 PIKE PL,98101,Seattle,(206) 441-8877,Seating 13-50,II, , , , ," 
",-1,-1
-122.340644240560977,47.610145529087497,635,351600,0000000,350,Chocolate Box,Chocolate Box,106 PINE ST,98101,Seattle, ,Seating 13-50,I, , , , ," 
",-1,-1
-122.341930789673128,47.610153239111732,636,351602,0000000,350,Chocolate Market,Chocolate Market,1906 POST ALLEY ALY,98101,Seattle,(206) 484-4273,Seating 0-12,I, , , , ," 
",-1,-1
-122.336882189410787,47.661564329222628,637,351603,0000000,350,Chocolati Cafe,Chocolati Cafe,1716 N 45TH ST,98103,Seattle,(206) 293-2791,Seating 13-50,I, , , , ," 
",-1,-1
-122.332968220066803,47.606485259386311,638,351604,0000000,350,"Chocolati Cafe @ 1000 4Th Ave ; Seattle",Chocolati Cafe,1000 4TH AVE,98104,Seattle,(206) 267-7607,Mobile Food Service,I, , , , ," 
",223,2064.39731776
-122.357247449651865,47.6332126886754,639,351605,0000000,350,Chocolopolis,Chocolopolis,1527 QUEEN ANNE AVE N,98109,Seattle,(206) 356-2626,Seating 0-12,I, , , , ," 
",-1,-1
-122.362596120241889,47.702329158898635,640,351606,0000000,350,Choi'S Mongolian Grill,Choi'S Mongolian Grill,10023 HOLMAN RD NW,98177,Seattle,(425) 770-0190,Seating 13-50,III, , , , ," 
",-1,-1
-122.366430939924115,47.675768448946933,641,351607,0000000,350,Choice Deli & Grocery,Choice Deli & Grocery,6415 8TH AVE NW,98107,Seattle,(206) 789-0211,Seating 0-12,III, , , , ," 
",-1,-1
-122.314680900606277,47.613437158678231,642,351609,0000000,350,Chop Suey,Chop Suey,1325 E MADISON ST,98122,Seattle,(206) 860-0644,Seating 13-50,I, , , , ," 
",631,489.768633176
-122.324275460400074,47.619414558621457,643,351611,0000000,350,Chopsticks - Teriyaki & Sushi,Chopsticks - Teriyaki And Sushi,1631 E OLIVE WAY,98102,Seattle,(206) 726-0141,Seating 13-50,III, , , , ," 
",258,1204.88912815
-122.308101109626179,47.610172298617378,644,351613,0000000,350,Chopstix,Chopstix,1801 E MARION ST,98122,Seattle, ,Mobile Food Service,III, , , , ," 
",208,1203.69251481
-122.305839070461133,47.612701989078651,645,351623,0000000,350,Chuck'S Hop Shop,Chuck'S Hop Shop,2001 E UNION ST,98122,Seattle,(206) 552-9545,Seating 51-150,I, , , , ," 
",208,884.853029258
-122.317777090436763,47.598925019297091,646,351626,0000000,350,Chuminh Tofu & Tn Vegeterian Deli,Chuminh Tofu & Tn Vegeterian Deli,1043 S JACKSON ST #104,98104,Seattle,(206) 228-5449,Seating 13-50,III, , , , ," 
",176,970.446740922
-122.316675359770173,47.618584249301428,647,351628,0000000,350,Chungee'S Drink And Eat,Chungee'S Drink And Eat,1830 12TH AVE,98122,Seattle, ,Seating 13-50,III, , , , ," 
",632,571.634761701
-122.335718760507277,47.661125118809295,648,351632,0000000,350,Chutney'S Bistro,Chutney'S Bistro,1815 N 45TH ST #103,98103,Seattle,(206) 674-6106,Seating 51-150,III, , , , ," 
",-1,-1
-122.355627290343307,47.62388167869824,649,351634,0000000,350,Chutneys Queen Anne,Chutney'S Queen Anne,519 1ST AVE N,98109,Seattle,(425) 883-4378,Seating 13-50,III, , , , ," 
",-1,-1
-122.28986234002457,47.675575158838804,650,351635,0000000,350,Ci Mart,Ci Mart,6256 35TH AVE NE,98115,Seattle,(206) 412-8562,Seating 0-12,I, , , , ," 
",-1,-1
-122.288017250505476,47.661499209131208,651,351636,0000000,350,Ciao Amore,Ciao Amore,3626 NE 45TH ST STE 100,98105,Seattle,(206) 524-6989,Seating 51-150,III, , , , ," 
",-1,-1
-122.32684235044934,47.63808274936018,652,351637,0000000,350,Cicchetti,Cicchetti,121 E BOSTON ST,98102,Seattle,(206) 334-3560,Seating 51-150,III, , , , ," 
",-1,-1
-122.360221820382307,47.522531269157149,653,351638,0000000,350,Cigarette Depot,Cigarette Depot,9001 DELRIDGE WAY SW,98106,Seattle,(206) 767-3282,Grocery,I, , , , ," 
",-1,-1
-122.341494339784845,47.609420778865307,654,351641,0000000,350,Cinnamon Works,Cinnamon Works,1536 PIKE PL,98101,Seattle,(206) 583-0085,Seating 0-12,II, , , , ," 
",-1,-1
-122.386813960370858,47.580897108620171,655,351642,0000000,350,Circa,Circa,2605 CALIFORNIA AVE SW,98116,Seattle, ,Seating 13-50,III, , , , ," 
",-1,-1
-122.346015219557955,47.625492319082625,656,351650,0000000,350,Citizen,Citizen,706 Taylor AVE N,98109,Seattle,(206) 251-2888,Seating 0-12,III, , , , ," 
",-1,-1
-122.312919449803033,47.66410226882531,657,351651,0000000,350,Citra,Citra,4730 UNIVERSITY WAY NE,98105,Seattle,(206) 371-4438,Seating 13-50,I, , , , ," 
",-1,-1
-122.332475999588482,47.615156998878426,658,351652,0000000,350,Citrus Thai,Citrus Thai,917 HOWELL ST,98101,Seattle,(206) 915-4961,Seating 13-50,III, , , , ," 
",569,942.445908924
-122.342780159991491,47.623553649126642,659,351654,0000000,350,City Catering Company,"City Catering Company; Inc.",509 DEXTER AVE N,98109,Seattle,(206) 721-0334,Seating 51-150,III, , , , ," 
",-1,-1
-122.334691819613923,47.61054230912567,660,351655,0000000,350,City Centre Sundries,City Centre Sundries,1420 5TH AVE,98101,Seattle,(206) 624-6851,Seating 0-12,I, , , , ," 
",569,2314.68104802
-122.341147589369839,47.608853899027814,661,351657,0000000,350,"City Fish Company ;  Rsw; Inc.","City Fish Company ;  Rsw; Inc.",1535 PIKE PL,98101,Seattle,(206) 682-9329,Meat/Sea Food,III, , , , ," 
",-1,-1
-122.3300540405573,47.603829339294727,662,351659,0000000,350,City Grind Espresso @ 600 4Th Ave / City Hall,City Grind Espresso,600 4TH AVE,98104,Seattle,(206) 839-0576,Mobile Food Service,I, , , , ," 
",223,1929.56693075
-122.330068019466736,47.604347798809094,663,351666,0000000,350,City Soups @ Columbia Center,City Soups @ Columbia Center,701 5TH AVE 112A,98104,Seattle,(253) 332-9949,Seating 0-12,III, , , , ," 
",223,1796.13875124
-122.350643990593213,47.615578569190461,664,351668,0000000,350,Cj'S Eatery,Cj'S Eatery,2619 1ST AVE,98121,Seattle, ,Seating 51-150,III, , , , ," 
",-1,-1
-122.332835229683354,47.553888969473718,665,351674,0000000,350,Classic Catering Northwest,Classic Catering Northwest,115 S BRANDON ST,98108,Seattle,(425) 455-3948,Seating 0-12,III, , , , ," 
",-1,-1
-122.36272184008962,47.551671328751901,666,351675,0000000,350,Classic Street Dining @ 10500 Greenwood Ave N,Classic Street Dining,5604 DELRIDGE WAY SW,98106,Seattle,(206) 293-5839,Mobile Food Service,I, , , , ," 
",-1,-1
-122.331923200538185,47.612030068808146,667,351678,0000000,350,Clay'S Market Place,Clay'S Market Place,815 PIKE ST,98101,Seattle,(206) 264-0306,Seating 0-12,I, , , , ," 
",686,1556.51695491
-122.313909830211017,47.552300669187183,668,351680,0000000,350,Cleveland High School,Cleveland High School,5511 15TH AVE S,98108,Seattle, ,School Kitchen, , , , , ," 
",-1,-1
-122.344928120297297,47.613830779279432,669,351681,0000000,350,Clever Bottle,Clever Bottle,2222 2nd AVE #100,98121,Seattle,(206) 437-2566,Seating 13-50,I, , , , ," 
",-1,-1
-122.353821609562232,47.614001279044501,670,351683,0000000,350,Clipper Cafe,Clipper Cafe,2711 ALASKAN WAY PIER 69,98121,Seattle, ,Seating 51-150,III, , , , ," 
",-1,-1
-122.317936099755755,47.692313699204107,671,351685,0000000,350,Cloud City Coffee,Cloud City Coffee,8801 ROOSEVELT WAY NE,98115,Seattle,(206) 527-5553,Seating 13-50,III, , , , ," 
",-1,-1
-122.317936099755755,47.692313699204107,672,351686,0000000,350,Cloud City Coffee Sand Point,Cloud City Coffee,8801 ROOSEVELT WAY NE,98115,Seattle,(206) 527-5553,Seating 13-50,III, , , , ," 
",-1,-1
-122.31776080063301,47.686621239136961,673,351693,0000000,350,Coa Mexican Eatery & Taquileria,Coa Mexican Eatery & Taquileria,7919 ROOSEVELT WAY NE,98115,Seattle,(425) 404-1686,Seating 13-50,III, , , , ," 
",-1,-1
-122.312816300186128,47.622774699055363,674,351696,0000000,350,Coastal Kitchen,Coastal Kitchen,429 15TH AVE E,98112,Seattle,(206) 322-3421,Seating 51-150,III, , , , ," 
",632,1444.38640274
-122.39796834988195,47.690444979043079,675,351697,0000000,350,Cocina Esperanza,Cocina Esperanza,3127 NW 85TH ST,98117,Seattle, ,Seating 13-50,III, , , , ," 
",-1,-1
-122.333765219793989,47.602973808965032,676,351703,0000000,350,Cocoa Banana,Cocoa Banana,118 CHERRY ST,98104,Seattle,(206) 229-8029,Seating 0-12,III, , , , ," 
",223,2814.25494419
-122.354240900290492,47.64298851894322,677,351704,0000000,350,Cocoa Chai Chocolates,Cocoa Chai Chocolates,2552 WARREN AVE N,98109,Seattle,(206) 621-7122,Seating 0-12,I, , , , ," 
",-1,-1
-122.365184520636461,47.640209489294939,678,351705,0000000,350,Coe Elementary,Coe Elementary,2433 6TH AVE W,98119,Seattle, ,School Kitchen, , , , , ," 
",-1,-1
-122.322357969761683,47.610712789014819,679,351706,0000000,350,Coffe Madison,Coffe Madison,1320 MADISON ST,98104,Seattle,(206) 328-3993,Seating 51-150,III, , , , ," 
",223,1236.85721672
-122.341021460567532,47.608578588619764,680,351707,0000000,350,Coffee & Specialty Bakery,Coffee & Specialty Bakery,1500 Western AVE,98101,Seattle, ,Bakery,III, , , , ," 
",-1,-1
-122.37301836937101,47.662766759060148,681,351746,0000000,350,Commissary Cash & Carry #562,Cash & Carry #562,1155 NW BALLARD WAY,98107,Seattle,(503) 833-1588,Grocery,II, , , , ," 
",-1,-1
-122.333447129609524,47.607597729369559,682,351752,0000000,350,Community Grocery,Community Grocery,415 SENECA ST,98101,Seattle,(206) 682-7535,Seating 0-12,III, , , , ," 
",223,2130.5602097
-122.342078599645617,47.657480008936055,683,351753,0000000,350,Community Psychiatric Clinic,Community Psychiatric Clinic,4132 STONE WAY N,98103,Seattle,(206) 461-3614,Non-Profit Institution,III, , , , ," 
",-1,-1
-122.337373129369809,47.60228185929671,684,351754,0000000,350,Commuter Comforts Cafe,Commuter Comforts Cafe,801 ALASKAN WAY,98104,Seattle, ,Seating 13-50,III, , , , ," 
",-1,-1
-122.325187999386429,47.608086999330226,685,351756,0000000,350,Compass Cafe @ Mohai,Compass Cafe,860 TERRY AVE,98109,Seattle, ,Seating 51-150,III, , , , ," 
",223,151.95197066
-122.335283149755469,47.600712459420826,686,351757,0000000,350,Compass Housing Alliance,Compass Housing Alliance,77 S WASHINGTON ST,98104,Seattle, ,Non-Profit Institution,III, , , , ," 
",223,3643.17661748
-122.324366860197287,47.523479378975154,687,351762,0000000,350,Concord Elementary,Concord Elementary,723 S CONCORD ST,98108,Seattle,(206) 252-8100,School Kitchen, , , , , ," 
",-1,-1
-122.306955800125948,47.624149159066725,688,351763,0000000,350,Cone & Steiner,Cone & Steiner,526 19TH AVE E,98112,Seattle,(206) 276-6832,Seating 0-12,III, , , , ," 
",151,584.034738981
-122.340804840558008,47.609146188719052,689,351764,0000000,350,Confectional,Confectional,1530 PIKE PL,98101,Seattle,(206) 742-2949,Seating 0-12,III, , , , ," 
",-1,-1
-122.386267000509164,47.582639999420579,690,351768,0000000,350,Contigo Mobile @ 3813 California Ave Sw,"Contigo Mobile; Llc (Kc163)",2308 CALIFORNIA AVE SW,98116,Seattle,(205) 335-7395,Mobile Food Service,III, , , , ," 
",-1,-1
-122.335449340015174,47.603483619063212,691,351769,0000000,350,Contour,Contour,807 1ST AVE,98104,Seattle,(206) 447-7704,Seating 51-150,III, , , , ," 
",223,3051.76468841
-122.331678019481274,47.611773739129681,692,351770,0000000,350,Convention Center - Deli A.,Aramark  @ Convention Place,800 CONVENTION PL,98101,Seattle,(206) 694-5088,Seating 0-12,III, , , , ," 
",686,1532.82718564
-122.331678019481274,47.611773739129681,693,351771,0000000,350,Convention Place  - Wsctc - Deli  E,Aramark  @ Convention Place,800 CONVENTION PL,98101,Seattle,(206) 694-5088,Seating 0-12,III, , , , ," 
",686,1532.82718564
-122.311449879946352,47.688207268707188,694,351773,0000000,350,Coopers Nw Alehouse,Coopers Nw Alehouse,8065 LAKE CITY WAY NE,98115,Seattle,(206) 522-2923,Seating 51-150,III, , , , ," 
",-1,-1
-122.341269480128091,47.609251739252571,695,351774,0000000,350,Copacabana Restaurant,Copacabana Restaurant,1520 PIKE PL,98101,Seattle,(206) 662-6359,Seating 13-50,III, , , , ," 
",-1,-1
-122.386717839543067,47.582155869269819,696,351775,0000000,350,Copper Coin,Copper Coin,2329 CALIFORNIA AVE SW,98116,Seattle,(206) 679-4996,Seating 51-150,III, , , , ," 
",-1,-1
-122.329880710299818,47.605007369196741,697,351778,0000000,350,Core Bistro,Core Bistro,700 5TH AVE #602,98104,Seattle, ,Seating 13-50,III, , , , ," 
",223,1602.51906269
-122.403696769796625,47.684779709371377,698,351779,0000000,350,Corinthian Yacht Club,Corinthian Yacht Club,7755 SEAVIEW AVE NW,98117,Seattle,(206) 789-1919,Seating 51-150,III, , , , ," 
",-1,-1
-122.326148090518572,47.609055158828724,699,351780,0000000,350,"Corner Cafe; The","Corner Cafe; The",1000 MADISON ST,98104,Seattle,(206) 626-6476,Seating 13-50,III, , , , ," 
",223,576.940191758
-122.387134400237528,47.561264709350887,700,351783,0000000,350,Corner Pocket,Corner Pocket,4302 SW ALASKA ST,98116,Seattle,(206) 933-9865,Seating 13-50,III, , , , ," 
",-1,-1
-122.340573490261605,47.608871209374229,701,351784,0000000,350,Corner Produce,Corner Produce,1500 PIKE PL MARKET #1 #12,98101,Seattle,(206) 622-7132,Seating 0-12,II, , , , ," 
",-1,-1
-122.269740709703925,47.522013758661409,702,351785,0000000,350,Corner Sandwich Cafe,Corner Sandwich Cafe,9050 RAINIER AVE S,98118,Seattle,(206) 779-8285,Seating 0-12,III, , , , ," 
",-1,-1
-122.383090440163201,47.645256629087214,703,351786,0000000,350,Corner Store,Corner Store,2809 THORNDYKE AVE W,98199,Seattle,(425) 233-7756,Grocery,I, , , , ," 
",-1,-1
-122.320666540584611,47.622221029399242,704,351788,0000000,350,Corretto Trattoria & Bar,Corretto Trattoria & Bar,418 BROADWAY AVE E,98102,Seattle,(206) 328-7817,Seating 51-150,III, , , , ," 
",174,981.6559915
-122.320412770592085,47.551960528896771,705,351789,0000000,350,Corson Building,Corson Building,5609 CORSON AVE S,98108,Seattle, ,Seating 13-50,III, , , , ," 
",-1,-1
-122.300291879936708,47.612742918739308,706,351790,0000000,350,Cortona Coffee,Cortona Community Coffee,2425 B E Union ST,98122,Seattle, ,Seating 13-50,II, , , , ," 
",503,1421.73558698
-122.313398810300214,47.662949929269409,707,351792,0000000,350,Costas Restaurant,Costas Restaurant,4559 UNIVERSITY WAY NE,98105,Seattle,(206) 633-2751,Seating 51-150,III, , , , ," 
",-1,-1
-122.330274030367292,47.563165388747699,708,351817,0000000,350,Costco Wholesale,Costco Wholesale,4401 4TH AVE S,98134,Seattle,(425) 313-8100,Grocery,I, , , , ," 
",-1,-1
-122.330274030367292,47.563165388747699,709,351818,0000000,350,Costco Wholesale  #01 - Bakery,Costco Wholesale,4401 4TH AVE S,98134,Seattle,(425) 313-8100,Bakery,II, , , , ," 
",-1,-1
-122.330274030367292,47.563165388747699,710,351819,0000000,350,Costco Wholesale  #1 - Meat Shop,Costco Wholesale,4401 4TH AVE S,98134,Seattle,(425) 313-8100,Meat/Sea Food,III, , , , ," 
",-1,-1
-122.330274030367292,47.563165388747699,711,351821,0000000,350,Costco Wholesale #01 - Deli,Costco Wholesale,4401 4TH AVE S,98134,Seattle,(425) 313-8100,Seating 0-12,III, , , , ," 
",-1,-1
-122.330274030367292,47.563165388747699,712,351823,0000000,350,"Costco Wholesale #1; Pizza",Costco Wholesale,4401 4TH AVE S,98134,Seattle,(425) 313-8100,Seating 13-50,III, , , , ," 
",-1,-1
-122.343700930439354,47.612666818681724,713,351830,0000000,350,Coterie Room,Coterie Room,2137 2ND AVE,98121,Seattle,(206) 322-5244,Seating 51-150,III, , , , ," 
",-1,-1
-122.342240959875625,47.649595519121476,714,351831,0000000,350,Cottage,Cottage,3506 STONE WAY N,98103,Seattle,(734) 320-1846,Seating 51-150,III, , , , ," 
",-1,-1
-122.363298900332524,47.552285438694504,715,351832,0000000,350,Cottage Grove Mart,Cottage Grove Mart,5445 DELRIDGE WAY SW,98106,Seattle,(206) 938-6075,Seating 0-12,III, , , , ," 
",-1,-1
-122.347050170413823,47.532742178778889,716,351838,0000000,350,Country Deli Grocery,Country Deli Grocery,7789 HIGHLAND PARK WAY SW,98106,Seattle,(206) 762-0915,Grocery,I, , , , ," 
",-1,-1
-122.340033059889279,47.627366068768595,717,351845,0000000,350,Courtyard By Marriott- Grocery,Courtyard By Marriott,925 WESTLAKE AVE,98109,Seattle,(206) 213-0100,Grocery,I,PR0056179,COURTYARD BY MARRIOTT,COURTYARD BY MARRIOTT,Y,"31910 GATEWAY CENTER BL S
",-1,-1
-122.354946999779742,47.689507999395865,718,351850,0000000,350,Couth Buzzard Books-Espresso Buono Cafe,Couth Buzzard Books-Espresso Buono Cafe,8310 GREENWOOD AVE N,98103,Seattle,(425) 530-3701,Seating 0-12,III, , , , ," 
",-1,-1
-122.333784050350346,47.60153524904154,719,351858,0000000,350,Cow Chip Cookies- Pioneer Square,Cow Chip Cookies,102-A 1ST AVE S,98104,Seattle, ,Seating 0-12,II, , , , ," 
",223,3169.67752055
-122.314461079480992,47.671055289405487,720,351860,0000000,350,Cowen Park Grocery,Cowen Park Grocery,1217 NE RAVENNA BL,98105,Seattle, ,Seating 13-50,III, , , , ," 
",-1,-1
-122.322728259590278,47.596459498953813,721,351868,0000000,350,Crawfish King,Crawfish King,701 8TH AVE S,98104,Seattle,(425) 481-6601,Seating 51-150,III, , , , ," 
",176,2450.81491126
-122.321103589927333,47.619108979424126,722,351869,0000000,350,Crazy Cherry,Crazy Cherry,131 BROADWAY AVE E,98102,Seattle,(425) 445-5141,Seating 0-12,II, , , , ," 
",258,856.258796685
-122.351611959443176,47.61927595916697,723,351876,0000000,350,Creative Concepts,Creative Concepts (Kc180),200 2ND AVE N,98109,Seattle,(425) 743-4071,Mobile Food Service,I, , , , ," 
",-1,-1
-122.345067050321489,47.704077418856762,724,351879,0000000,350,Crema Creperie @ Route 425-417-8564,Crema Creperie,10325 AURORA AVE N,98133,Seattle,(425) 417-8564,Mobile Food Service,III, , , , ," 
",-1,-1
-122.304300720514547,47.675904188609053,725,351880,0000000,350,"Crepe Cafe & Wine Bar; The","Crepe Cafe & Wine Bar; The",2118 NE 65TH ST,98115,Seattle,(206) 794-0694,Seating 13-50,III, , , , ," 
",-1,-1
-122.313406249532633,47.661436779308239,726,351881,0000000,350,Crepe Cravers,Crepe Cravers,4507 UNIVERSITY WAY NE,98105,Seattle,(206) 335-8710,Seating 13-50,III, , , , ," 
",-1,-1
-122.322124850310502,47.610239659326702,727,351882,0000000,350,Crepe Crazy,Crepe Crazy,1303 MADISON ST,98104,Seattle,(415) 865-1100,Seating 0-12,III,PR0066825,CREPE CRAZY,CREPE CRAZY,Y,"1303 MADISON ST
",223,1122.64877911
-122.34021287025115,47.608629588998816,728,351883,0000000,350,Crepe De France,Crepe De France,93 PIKE ST #204,98101,Seattle,(206) 909-8685,Seating 13-50,II, , , , ," 
",-1,-1
-122.387002420659798,47.668390329493675,729,351890,0000000,350,Crisp Creperie @ Route 360-320-6266,Crisp Creperie (Kc168),3204 15TH AVE W,98119,Seattle,(206) 395-5139,Mobile Food Service,II, , , , ," 
",-1,-1
-122.344250569352397,47.613555819104356,730,351892,0000000,350,Crocodile/ Via Tribunali,Crocodile/ Via Tribunali,2200 2ND AVE,98121,Seattle,(206) 448-2114,Seating 151-250,III, , , , ," 
",-1,-1
-122.354915930220145,47.691545908683906,731,351899,0000000,350,Crosswalk,Crosswalk,8556 GREENWOOD AVE N,98103,Seattle, ,Seating 13-50,III, , , , ," 
",-1,-1
-122.347705139760706,47.627022038668024,732,351900,0000000,350,Crow,Crow,823 5TH AVE N,98109,Seattle,(206) 406-0836,Seating 51-150,III, , , , ," 
",-1,-1
-122.37603798986143,47.692817309450412,733,351901,0000000,350,Crown Hill Grocery Outlet,Crown Hill Grocery Outlet,8700 15TH AVE NW,98117,Seattle,(425) 971-7921,Grocery,II, , , , ," 
",-1,-1
-122.377160790274957,47.690947999361512,734,351902,0000000,350,Crown Hill Pub,Crown Hill Pub,8511 15TH AVE NW,98117,Seattle,(206) 781-9877,Seating 13-50,I, , , , ," 
",-1,-1
-122.344859450576763,47.698574618646205,735,351903,0000000,350,Crown Market,Crown Market,9525 AURORA AVE N,98103,Seattle,(206) 525-0221,Seating 0-12,II, , , , ," 
",-1,-1
-122.33211720969048,47.608092469504442,736,351905,0000000,350,Crowne Plaza Hotel,Crowne Plaza Hotel,1113 6TH AVE,98101,Seattle,(206) 464-1980,Seating > 250,III, , , , ," 
",223,1805.86959633
-122.326423680026124,47.617896389361093,737,351906,0000000,350,Crumble & Flake,Crumble And Flake,1500 E OLIVE WAY,98122,Seattle,(206) 395-8032,Bakery,II, , , , ," 
",258,1316.66027184
-122.340441270219557,47.608984829003568,738,351907,0000000,350,"Crumpet Shop; The","Crumpet Shop; The",1503 1ST AVE,98101,Seattle,(206) 682-1598,Seating 0-12,III, , , , ," 
",-1,-1
-122.301861280091913,47.619366698895398,739,351908,0000000,350,Crush,Crush,2319 E MADISON ST,98112,Seattle,(206) 443-9720,Seating 13-50,III, , , , ," 
",119,1166.92470737
-122.315878379991616,47.615094479025089,740,351912,0000000,350,"Cuff; The","Cuff; The",1533 13TH AVE,98122,Seattle,(206) 323-1525,Seating 51-150,II, , , , ," 
",631,877.180872333
-122.340642510066999,47.610147328739984,741,351916,0000000,350,Cupcake Royale,Cupcake Royale,108 PINE ST,98101,Seattle,(206) 992-9794,Seating 13-50,II, , , , ," 
",-1,-1
-122.357086000624378,47.636906999467811,742,351918,0000000,350,Cupcake Royale/Verite Coffee,Cupcake Royale/Verite Coffee,1935 QUEEN ANNE AVE N,98109,Seattle,(206) 883-7656,Seating 13-50,II, , , , ," 
",-1,-1
-122.338256300435575,47.721663978807911,743,351919,0000000,350,Curb Jumper Street Eats,Curb Jumper Street Eats,12579 DENSMORE AVE N,98133,Seattle,(206) 619-5248,Mobile Food Service,III, , , , ," 
",-1,-1
-122.329498929534196,47.575281608816233,744,351920,0000000,350,Curbside @ 3 W Nickerson,Curbside (Kc225),3201 4TH AVE S,98134,Seattle,(206) 427-0712,Mobile Food Service,III, , , , ," 
",-1,-1
-122.320155000300247,47.616039999398446,745,351921,0000000,350,Cure,Cure,1641 NAGLE PL #006,98122,Seattle,(206) 240-8557,Seating 13-50,III, , , , ," 
",258,397.152336539
-122.308101109626179,47.610172298617378,746,351924,0000000,350,"Curry Now @ 9706 4Th Ave Ne; Seattle 98115",Delicatessen Montanti,5604 DELRIDGE WAY SW,98106,Seattle,(206) 914-3704,Mobile Food Service,III, , , , ," 
",208,1203.69251481
-122.333806399466965,47.603244939450683,747,351927,0000000,350,Custom Smoothie & Sports Nutrition,Custom Smoothie & Sports Nutrition,719 2ND AVE,98104,Seattle,(206) 280-6996,Seating 0-12,I, , , , ," 
",223,2762.1909756
-122.351875859440867,47.650015969442784,748,351928,0000000,350,Custom Smoothie And Sports,Custom Smoothie And Sports,462 N 34TH ST,98103,Seattle,(206) 280-6996,Seating 0-12,I, , , , ," 
",-1,-1
-122.337991949888348,47.62288798942199,749,351929,0000000,350,Custom Smoothies,Custom Smoothies,428 WESTLAKE AVE N,98109,Seattle,(206) 819-8391,Seating 13-50,II, , , , ," 
",-1,-1
-122.344390510530246,47.610485599318984,750,351930,0000000,350,Cutter'S Crab  House,Cutter'S Crabhouse,2001 WESTERN AVE AVE,98121,Seattle, ,Seating > 250,III, , , , ," 
",-1,-1
-122.321195899727201,47.553107889306524,751,351932,0000000,350,Cutting Board,Cutting Board,5503 AIRPORT WAY S,98108,Seattle,(206) 329-3414,Seating 13-50,III, , , , ," 
",-1,-1
-122.330865780167954,47.612324878660893,752,351933,0000000,350,Cyber-Dogs,Cyber-Dogs,909 PIKE ST,98101,Seattle,(206) 948-2642,Seating 0-12,III, , , , ," 
",686,1275.15638506
-122.348180290561885,47.614142659462203,753,351936,0000000,350,Cyclops,Cyclops,2421 1ST AVE,98121,Seattle, ,Seating 51-150,III, , , , ," 
",-1,-1
-122.384422540467426,47.667217799315821,754,351938,0000000,350,D'Ambrosio Gelato,D'Ambrosio Gelato,5339 BALLARD AVE NW,98107,Seattle,(206) 954-1979,Seating 0-12,II, , , , ," 
",-1,-1
-122.305939299835998,47.587609339275424,755,351946,0000000,350,Dahlak Eritrean Cuisine,Dahlak Eritrean Cuisine,2007 S STATE ST,98144,Seattle,(206) 722-3215,Seating 51-150,III, , , , ," 
",-1,-1
-122.340586300169534,47.613035338785089,756,351948,0000000,350,Dahlia Lounge,Dahlia Lounge,2001 4TH AVE,98121,Seattle, ,Seating 151-250,III, , , , ," 
",-1,-1
-122.340586300169534,47.613035338785089,757,351949,0000000,350,Dahlia Retail  Bakery,Dahlia Lounge Bread Bakery,2001 4TH AVE,98121,Seattle, ,Bakery,III, , , , ," 
",-1,-1
-122.34021287025115,47.608629588998816,758,351952,0000000,350,Daily Dozen Doughnut Co,Daily Dozen Doughnut Co,93 PIKE ST,98101,Seattle,(206) 467-7769,Seating 0-12,III, , , , ," 
",-1,-1
-122.333673179678911,47.611258768752968,759,351953,0000000,350,Daily Grill,Daily Grill,629 PIKE ST,98101,Seattle, ,Seating 151-250,III, , , , ," 
",686,2059.40440445
-122.32216756017803,47.548039769182211,760,351954,0000000,350,Daimonji Japanese,Daimonji Japanese Restaurant,5963 CORSON AVE S,98108,Seattle,(206) 762-7820,Seating 13-50,III, , , , ," 
",-1,-1
-122.313475399859712,47.666732788616216,761,351985,0000000,350,Dawgpound,Dawgpound,5201 UNIVERSITY WAY NE,98105,Seattle,(206) 517-4331,Seating 0-12,III, , , , ," 
",-1,-1
-122.302546100290797,47.60818614891167,762,351988,0000000,350,Dayosense Catering,Dayosense Catering,2300 E CHERRY ST,98122,Seattle,(206) 571-6560,Catering Operation,III, , , , ," 
",221,417.928986873
-122.32418530958077,47.606138889148653,763,351994,0000000,350,Dean Straleys James St Bp,Dean Straleys James St Bp,914 JAMES ST,98104,Seattle,(206) 728-7060,Seating 0-12,III, , , , ," 
",223,609.98844946
-122.296286930149876,47.552262339036162,764,351995,0000000,350,Dearborn Park Elementary,Dearborn Park Elementary,2820 S ORCAS ST,98108,Seattle, ,School Kitchen, , , , , ," 
",-1,-1
-122.344745299653553,47.684594259085912,765,351999,0000000,350,Deez Dogz,Deez Dogz,7617 AURORA AVE N,98121,Seattle,(206) 351-7484,Mobile Food Service,I, , , , ," 
",-1,-1
-122.344745299653553,47.684594259085912,766,352000,0000000,350,Deez Dogz Cart # 1 @ 7617 Aurora Ave N,Deez Dogz,7617 AURORA AVE N,98121,Seattle,(206) 351-7484,Mobile Food Service,I, , , , ," 
",-1,-1
-122.374794329591708,47.67937785950059,767,352002,0000000,350,Delancey Pizzeria,Delancey Pizzeria,1415 NW 70TH ST,98117,Seattle,(206) 321-2048,Seating 13-50,III, , , , ," 
",-1,-1
-122.327261760229646,47.602141069446368,768,352005,0000000,350,Deli Cut Subs,Deli Cut Subs,300 5TH AVE #150,98104,Seattle,(206) 467-7600,Seating 13-50,III, , , , ," 
",223,2135.45170007
-122.35870615986363,47.618326338924547,769,352006,0000000,350,Deli Espresso,Deli Espresso,3161 ELLIOTT AVE,98121,Seattle, ,Seating 0-12,III, , , , ," 
",-1,-1
-122.332605659715938,47.607864259493503,770,352007,0000000,350,Deli No More,Deli No More,1118 5TH AVE,98101,Seattle,(206) 622-2890,Seating 0-12,III, , , , ," 
",223,1922.59960997
-122.334398000106034,47.601447088651433,771,352012,0000000,350,Delicatus A Seattle Delicatessen,Delicatus A Seattle Delicatessen,103 1ST AVE S,98104,Seattle,(206) 979-5048,Seating 13-50,III, , , , ," 
",223,3299.56684222
-122.329499000575936,47.575281999210823,772,352013,0000000,350,Delicious Authorithai (Kc250) @ 1721 1St Ave S,Delicious Authorithai (Kc250),3201 4TH AVE S #B,98134,Seattle,(415) 225-9345,Mobile Food Service,III, , , , ," 
",-1,-1
-122.313701909752481,47.579219269409322,773,352015,0000000,350,Delite Bakery,Delite Bakery,2701 15TH AVE S,98144,Seattle,(206) 325-0643,Seating 0-12,III, , , , ," 
",-1,-1
-122.361624359721176,47.537177708712214,774,352016,0000000,350,Delridge Arco Am/Pm,Delridge Arco Am/Pm,7301 DELRIDGE WAY SW,98106,Seattle,(206) 768-1080,Seating 0-12,III, , , , ," 
",-1,-1
-122.356712999836191,47.518364998861884,775,352017,0000000,350,Delridge Bakery,Delridge Bakery,9427 17TH AVE SW,98106,Seattle,(206) 779-1362,Seating 0-12,III, , , , ," 
",-1,-1
-122.36383760945148,47.568581439169257,776,352018,0000000,350,Delridge Deli Mart,Delridge Deli Mart,3861 DELRIDGE WAY SW,98106,Seattle,(206) 932-1137,Seating 0-12,III, , , , ," 
",-1,-1
-122.363287659397059,47.553865239293913,777,352019,0000000,350,Delridge Food Mart,Delridge Food Mart,5235 DELRIDGE WAY SW,98106,Seattle, ,Grocery,I, , , , ," 
",-1,-1
-122.305926219659739,47.661531929283008,778,352022,0000000,350,Delta Gamma,Delta Gamma,2012 NE 45TH ST,98105,Seattle,(206) 524-4500,Seating 51-150,III, , , , ," 
",-1,-1
-122.30688937058504,47.661971908944409,779,352024,0000000,350,Delta Tau Delta,Delta Tau Delta,4524 19TH AVE NE,98105,Seattle,(425) 367-7024,Seating 13-50,III, , , , ," 
",-1,-1
-122.308686809670064,47.662267819427541,780,352026,0000000,350,Delta Zeta,Delta Zeta,4535 18TH AVE NE,98105,Seattle,(206) 524-0764,Seating 51-150,III, , , , ," 
",-1,-1
-122.321182700193816,47.624474979325512,781,352027,0000000,350,Deluxe Tavern & Restaurant #1,Deluxe Tavern & Restaurant #1,625 BROADWAY AVE E,98102,Seattle,(206) 324-9697,Seating 51-150,III, , , , ," 
",135,548.070940964
-122.328697940021314,47.57801476913928,782,352030,0000000,350,Denny'S #8665,Denny'S #8665,2762 4TH AVE S,98134,Seattle,(206) 469-7602,Seating 51-150,III, , , , ," 
",-1,-1
-122.344110819717343,47.618810469375013,783,352041,0000000,350,Denny Way Shell,Denny Way Shell,620 DENNY WAY,98109,Seattle, ,Seating 0-12,III, , , , ," 
",-1,-1
-122.325849730122073,47.599351009466758,784,352053,0000000,350,"Diablo Food Truckz; Llc",Diablo Food Truckz,610 S JACKSON ST NW,98104,Seattle,(206) 276-0237,Mobile Food Service,III, , , , ," 
",176,2610.16254577
-122.337705569562644,47.60509511870692,785,352056,0000000,350,"Diane'S Market Kitchen; Llc","Diane'S Market Kitchen; Llc",1101 POST ALY,98101,Seattle, ,Seating 0-12,III, , , , ," 
",-1,-1
-122.373987070018501,47.630406798905888,786,352057,0000000,350,Dianne'S Delights Llc,Dianne'S Delights Llc,1405 ELLIOTT AVE W #D,98119,Seattle,(425) 299-2189,Bakery,II, , , , ," 
",-1,-1
-122.327789229520022,47.661114828666648,787,352058,0000000,350,Dick'S Drive In,Dick'S Drive In,111 NE 45TH ST,98105,Seattle,(206) 634-0300,Seating 0-12,III, , , , ," 
",-1,-1
-122.296794740149522,47.718211749374795,788,352063,0000000,350,Dicks Drive In,Dick'S Drive In,12325 30TH AVE NE,98125,Seattle,(206) 634-0300,Seating 0-12,III, , , , ," 
",-1,-1
-122.314453130192717,47.613361008767484,789,352066,0000000,350,Diesel,Diesel,1413 14TH AVE,98122,Seattle,(206) 323-2158,Seating 13-50,III, , , , ," 
",631,524.763603949
-122.355655209584526,47.689642939411101,790,352067,0000000,350,Diggity Dog 2,Diggity Dog 2,8317 GREENWOOD AVE N,98103,Seattle,(206) 931-6759,Seating 13-50,III, , , , ," 
",-1,-1
-122.333868589347617,47.668493118674711,791,352068,0000000,350,Diggity Dog Hot Dog & Sausage Co,Diggity Dog Hot Dog & Sausage,5421 MERIDIAN AVE N,98103,Seattle,(253) 335-0081,Seating 13-50,III, , , , ," 
",-1,-1
-122.335304369866279,47.615195358784938,792,352071,0000000,350,Dilettante Chocolates,Dilettante Chocolates,818 Stewart ST,98101,Seattle,(253) 872-2092,Seating 0-12,III, , , , ," 
",569,612.050628134
-122.337169910443208,47.611925949156635,793,352073,0000000,350,Dilettante Mocha Cafe @ 1601 5Th Ave Ste 100,Dilettante Mocha Cafe,1601 5TH AVE STE 100,98101,Seattle,(253) 872-2078,Mobile Food Service,I, , , , ," 
",-1,-1
-122.337907459429104,47.606768948865856,794,352074,0000000,350,Diller Room,Diller Room,1224 1ST AVE,98101,Seattle, ,Seating 13-50,III, , , , ," 
",-1,-1
-122.325442809516574,47.598860279188358,795,352076,0000000,350,Dim Sum King,Dim Sum King,617 S JACKSON ST S,98104,Seattle,(206) 760-7868,Seating 13-50,III, , , , ," 
",176,2565.52846168
-122.339784820183837,47.614868288866184,796,352077,0000000,350,Dimitriou'S Jazz Alley,Dimitriou'S Jazz Alley,2033 6TH AVE,98121,Seattle, ,Seating > 250,III, , , , ," 
",-1,-1
-122.332291859447594,47.609666689100003,797,352079,0000000,350,Dimples,Dimples,600 UNIVERSITY ST,98101,Seattle,(206) 622-1866,Grocery,I, , , , ," 
",223,1971.97942234
-122.332405339949347,47.610161668730157,798,352080,0000000,350,Dimples Gift & Sundries,Dimples Gift & Sundries,601 UNION ST #304B,98101,Seattle,(425) 453-0981,Grocery,I, , , , ," 
",686,1982.17200722
-122.330614640290392,47.604526938625852,799,352081,0000000,350,Dimples Gifts & Sundries,Dimples Gifts & Sundries,701 5TH AVE,98104,Seattle,(206) 622-1866,Grocery,I, , , , ," 
",223,1853.55338917
-122.299193999867484,47.661635998936653,800,352083,0000000,350,Din Tai Fung Restaurant,Din Tai Fung Restaurant,2621 NE 46TH ST,98105,Seattle,(206) 938-1501,Seating > 250,III, , , , ," 
",-1,-1
-122.315287750619333,47.526967499218571,801,352089,0000000,350,Discount Village,Discount Village,8507 14TH AVE S,98108,Seattle, ,Seating 0-12,I, , , , ," 
",-1,-1
-122.397758329870683,47.659881419245835,802,352091,0000000,350,Discovery Espresso And Juice,Discovery Espresso And Juice,3103 W JAMESON ST,98199,Seattle, ,Seating 0-12,II, , , , ," 
",-1,-1
-122.325304000594258,47.675804999389712,803,352092,0000000,350,Dish Cafe,Dish Cafe,301 NE 65TH ST,98115,Seattle,(206) 999-3323,Seating 13-50,III, , , , ," 
",-1,-1
-122.365667759886222,47.660263849430862,804,352095,0000000,350,"Dish; The","Dish; The",4358 LEARY WAY NW,98107,Seattle,(206) 706-9498,Seating 13-50,III, , , , ," 
",-1,-1
-122.32469133993979,47.604972189320414,805,352096,0000000,350,"Diva  Ii; Llc","Diva  Ii; Llc",509 9th AVE,98104,Seattle, ,Seating 13-50,I, , , , ," 
",223,1016.00342421
-122.354915649350332,47.686806459264595,806,352097,0000000,350,Diva Espresso,Diva Espresso,7916 GREENWOOD AVE N,98103,Seattle,(206) 781-8106,Seating 13-50,I, , , , ," 
",-1,-1
-122.37828971949564,47.563335228777511,807,352098,0000000,350,Diva Espresso West,Diva Espresso West,4480 FAUNTLEROY WAY SW,98126,Seattle,(206) 937-5225,Seating 0-12,I, , , , ," 
",-1,-1
-122.341988849670088,47.662743838978948,808,352099,0000000,350,Diva Ii - Llc,Diva Ii - Llc,4615 STONE WAY N,98103,Seattle,(206) 632-3192,Seating 13-50,I, , , , ," 
",-1,-1
-122.355997470086464,47.733827679274206,809,352100,0000000,350,Diva Ii Llc,Diva Ii Llc,14415 GREENWOOD AVE N,98133,Seattle,(206) 713-6301,Seating 13-50,I, , , , ," 
",-1,-1
-122.328539710265332,47.602488989144284,810,352101,0000000,350,"Diva Ii; Llc","Diva Ii; Llc",401 5TH AVE #1,98104,Seattle,(206) 781-8106,Seating 13-50,I, , , , ," 
",223,2129.92890636
-122.337063670054306,47.661629069318479,811,352102,0000000,350,Divan Fine Turkish Cuisine,Divan Fine Turkish Cuisine,1712 N 45TH ST,98103,Seattle,(206) 405-1920,Seating 13-50,III, , , , ," 
",-1,-1
-122.325416319711636,47.661542799339905,812,352105,0000000,350,Djan'S Dining,Djan'S Dining,264 NE 45TH ST,98105,Seattle,(206) 633-3526,Seating 13-50,III, , , , ," 
",-1,-1
-122.329498929534196,47.575281608816233,813,352106,0000000,350,Djung On Wheels @ A & J Commissary,Djung On Wheels,3201 4TH AVE S #B,98134,Seattle,(425) 829-2560,Mobile Food Service,III, , , , ," 
",-1,-1
-122.344763770047606,47.620101209360719,814,352107,0000000,350,Dm Cafe & Deli Llc,Dm Cafe & Deli Llc,230 6TH AVE N,98109,Seattle,(206) 235-2283,Seating 0-12,III, , , , ," 
",-1,-1
-122.343625880578045,47.648857248855627,815,352108,0000000,350,"Dock; The","Dock; The",1102 N 34TH ST,98103,Seattle,(425) 269-6846,Seating 51-150,III, , , , ," 
",-1,-1
-122.336853790023568,47.611013489082239,816,352110,0000000,350,Dog In The Park,Dog In The Park,1520 4TH AVE,98101,Seattle,(206) 287-9121,Seating 0-12,III, , , , ," 
",-1,-1
-122.313064000431851,47.657728999336776,817,352112,0000000,350,Dog On The Ave @ 4130 University Way Ne,Dog On The Ave (Kc142),4130 UNIVERSITY WAY NE,98105,Seattle,(253) 302-2559,Mobile Food Service,III, , , , ," 
",-1,-1
-122.35970778038299,47.623447358764942,818,352117,0000000,350,Dolcetta Artisan Sweets,Dolcetta Artisan Sweets,501 2ND AVE W #100,98119,Seattle,(206) 280-7701,Catering Operation,II, , , , ," 
",-1,-1
-122.344246630180407,47.6860162393547,819,352126,0000000,350,Dollar Tree #4876,Dollar Tree #4876,7816 AURORA AVE N,98103,Seattle,(757) 321-5000,Grocery,I, , , , ," 
",-1,-1
-122.357405019387244,47.632800109204716,820,352133,0000000,350,Domani Pizzeria & Restaurant,Domani Pizzeria & Restaurant,1515 QUEEN ANNE AVE N,98109,Seattle,(206) 227-8290,Seating 51-150,III, , , , ," 
",-1,-1
-122.345789029907252,47.625898719267326,821,352136,0000000,350,Domino'S Pizza #7063,Domino'S Pizza #7063,714 TAYLOR AVE N,98109,Seattle,(734) 930-7056,Seating 0-12,III,PR0022938,DOMINO'S PIZZA #7063,DOMINOS PIZZA,Y,"714 TAYLOR AV N
",-1,-1
-122.386761469832848,47.543745448637857,822,352145,0000000,350,Domino'S Pizza #7142,Domino'S Pizza #7142,6540 CALIFORNIA AVE SW,98136,Seattle, ,Seating 0-12,III,PR0067667,DOMINO'S PIZZA #7142,DOMINOS PIZZA,Y,"6540 CALIFORNIA AV SW
",-1,-1
-122.287536110485476,47.562975208829101,823,352147,0000000,350,Domino'S Pizza #7145,Domino'S Pizza #7145,4436 RAINIER AVE S #A,98118,Seattle,(360) 830-0354,Seating 0-12,III,PR0004184,DOMINO'S PIZZA #7145,DOMINOS PIZZA,Y,"2601 S MCCLELLAN ST
",-1,-1
-122.377174000581974,47.690130999087408,824,352150,0000000,350,"Domino'S Pizza;  #7148","Domino'S Pizza;  #7148",8345 15TH AVE NW,98117,Seattle,(360) 830-0359,Seating 13-50,III, , , , ," 
",-1,-1
-122.355018869362198,47.719927669307133,825,352153,0000000,350,Dominos Pizza #7147,Domino'S Pizza #7147,302 N 125TH ST,98133,Seattle,(206) 363-3911,Seating 0-12,III,PR0008298,DOMINO'S PIZZA #7147,DOMINOS PIZZA,Y,"302 N 125TH ST
",-1,-1
-122.340814559530031,47.608327539287664,826,352154,0000000,350,Don & Joe'S Meats,Don & Joe'S Meats,85 PIKE ST,98101,Seattle,(206) 682-7670,Meat/Sea Food,III, , , , ," 
",-1,-1
-122.387002420659798,47.668390329493675,827,352157,0000000,350,Don Lucho'S @ 2407 Nw 80Th Street,Don Lucho'S (Kc248),2315 NW MARKET ST,98107,Seattle,(206) 992-0232,Mobile Food Service,III, , , , ," 
",-1,-1
-122.329562729489197,47.58048128922443,828,352158,0000000,350,Dona Queen Donut & Deli,Dona Queen Donut & Deli,2445 4TH AVE S,98134,Seattle,(206) 622-5127,Seating 13-50,III, , , , ," 
",-1,-1
-122.325362019968651,47.598959288835083,829,352160,0000000,350,Dong Sing Market,Dong Sing Market,625 S JACKSON ST,98104,Seattle,(206) 587-6010,Meat/Sea Food,III, , , , ," 
",176,2535.09778461
-122.331869819995475,47.601118438826155,830,352165,0000000,350,Double Header,Double Header,407 2ND AVE EXT S,98104,Seattle, ,Seating 13-50,II, , , , ," 
",223,2982.0993093
-122.332300000458801,47.615220998902984,831,352175,0000000,350,Downtown Romio'S Pizza & Pasta,Downtown Romio'S Pizza & Pasta,927 HOWELL ST,98101,Seattle,(206) 467-7277,Seating 13-50,III, , , , ," 
",569,960.503715081
-122.341387750567023,47.617679609385441,832,352176,0000000,350,Downtown Spirits,Downtown Spirits,2300 7TH AVE,98121,Seattle,(206) 812-6591,Seating 0-12,I, , , , ," 
",-1,-1
-122.333502160105098,47.593399648677739,833,352178,0000000,350,Dragon'S Kettle Korn  @ 901 Occidental S,Dragon'S Kettle Korn,1021 OCCIDENTAL AVE S,98134,Seattle,(206) 518-8642,Mobile Food Service,II, , , , ," 
",-1,-1
-122.333649770395809,47.589262868915696,834,352184,0000000,350,Dream Girls,Dream Girls,1530 1ST AVE S,98134,Seattle,(206) 200-7801,Seating 0-12,I, , , , ," 
",-1,-1
-122.299547189599082,47.71129731937301,835,352185,0000000,350,Dreamgirls At Rick'S,Dreamgirls At Rick'S,11332 LAKE CITY WAY NE,98125,Seattle,(206) 328-7249,Seating 51-150,I, , , , ," 
",-1,-1
-122.33150524951553,47.602553228840904,836,352186,0000000,350,Drexel Deli & Grocery,Drexel Deli & Grocery,523 3RD AVE,98104,Seattle,(206) 622-3951,Seating 0-12,III, , , , ," 
",223,2515.41483527
-122.36272184008962,47.551671328751901,837,352188,0000000,350,Drifting Donut (Kc247) @ 206-999-3608,Drifting Donut (Kc247),5604 DELRIDGE WAY SW,98106,Seattle,(206) 999-3608,Mobile Food Service,II, , , , ," 
",-1,-1
-122.353620149631041,47.617224248776971,838,352189,0000000,350,Drip City Coffee Company Llc,Drip City Coffee Company Llc,2929 1ST AVE STE B,98121,Seattle,(206) 349-4325,Seating 13-50,II, , , , ," 
",-1,-1
-122.296089729494014,47.668402829469784,839,352195,0000000,350,"Duchess Tavern; The","Duchess Tavern; The",2827 NE 55TH ST,98105,Seattle,(206) 527-8606,Seating 51-150,III, , , , ," 
",-1,-1
-122.344720550085128,47.682264829205813,840,352196,0000000,350,Duck Island Ale House,Duck Island Ale House,7317 AURORA AVE N,98103,Seattle,(206) 940-2446,Seating 13-50,III, , , , ," 
",-1,-1
-122.324278169549586,47.597635389467698,841,352197,0000000,350,Duk Li Dim Sum,Duk Li Dim Sum,664 S WELLER ST,98104,Seattle,(206) 340-6122,Seating 13-50,III, , , , ," 
",176,2492.84310778
-122.405955819555558,47.58071085896988,842,352199,0000000,350,Duke'S Alki Chowder House,Duke'S Alki Chowder House,2516 ALKI AVE SW,98116,Seattle,(206) 933-8000,Seating 151-250,III, , , , ," 
",-1,-1
-122.338317339337564,47.686099478835331,843,352200,0000000,350,Duke'S Greenlake Chowder House,Duke'S Greenlake Chowder House,7850 GREENLAKE DR N,98103,Seattle,(206) 522-4908,Seating 51-150,III, , , , ," 
",-1,-1
-122.333544040007681,47.627798689402873,844,352201,0000000,350,Duke'S Lake Union Chowder House,Duke'S Lake Union Chowder House,901 FAIRVIEW AVE N,98109,Seattle,(206) 283-8422,Seating 151-250,III, , , , ," 
",135,2746.76996664
-122.30783905967283,47.616873508654827,845,352204,0000000,350,Dulces Bistro & Wine,Dulces Bistro & Wine,1818 E MADISON ST,98122,Seattle,(206) 353-1434,Seating 51-150,III, , , , ," 
",568,1293.68809168
-122.371031589747375,47.569756379372407,846,352207,0000000,350,"Duos Co.; Llc","Duos Co.; Llc",2940 SW AVALON WAY,98126,Seattle,(206) 244-2808,Seating 51-150,III, , , , ," 
",-1,-1
-122.303173650453971,47.608177238867086,847,352208,0000000,350,Durdur Cafe,"Durdur Cafe; Inc.",2212 E CHERRY ST,98122,Seattle,(206) 329-8879,Seating 13-50,III, , , , ," 
",221,571.933220964
-122.335937309676908,47.655818579475621,848,352209,0000000,350,Durn Good Grocery,Durn Good Grocery,4002 WALLINGFORD AVE n,98103,Seattle, ,Grocery,I, , , , ," 
",-1,-1
-122.312823300437429,47.661625189146925,849,352215,0000000,350,E J Burger,E J Burger,4510 UNIVERSITY WAY NE,98105,Seattle,(206) 218-4524,Seating 13-50,III, , , , ," 
",-1,-1
-122.333797229461979,47.600513588979254,850,352216,0000000,350,E Smith Mercantile,E Smith Mercantile,208 1ST AVE S,98104,Seattle,(206) 919-3279,Seating 0-12,III, , , , ," 
",223,3448.41478983
-122.313472329572932,47.660813269107599,851,352221,0000000,350,Earl'S On The Ave,Earl'S On The Ave,4333 UNIVERSITY WAY NE,98105,Seattle,(206) 355-3755,Seating 51-150,III, , , , ," 
",-1,-1
-122.281887820208951,47.537987699195476,852,352223,0000000,350,East African Grocery & Deli Llc,East African Grocery & Deli Llc,7135 M L KING JR WAY S,98118,Seattle,(206) 723-2243,Seating 0-12,III, , , , ," 
",-1,-1
-122.302198240391633,47.59911702909509,853,352224,0000000,350,East African Imports,East African Imports,2301 S JACKSON ST #204,98144,Seattle,(425) 306-4583,Seating 13-50,III, , , , ," 
",280,641.30725033
-122.325376270394273,47.633416198921367,854,352228,0000000,350,East Lake Specialty Deli,East Lake Specialty Deli,1540 EASTLAKE AVE E,98102,Seattle,(425) 455-8225,Seating 0-12,III, , , , ," 
",-1,-1
-122.303160860415687,47.613296879401766,855,352232,0000000,350,"East Union Food; Llc","East Union Food; Llc",2220 E UNION ST,98122,Seattle,(206) 323-6827,Seating 0-12,III, , , , ," 
",208,1511.12569757
-122.31706077005127,47.676076839278103,856,352234,0000000,350,East West Bookshop,East West Bookshop Of Seattle,6500 ROOSEVELT WAY NE,98115,Seattle,(206) 523-3726,Seating 0-12,I, , , , ," 
",-1,-1
-122.30759191985193,47.601840458841821,857,352235,0000000,350,East Yesler Grocery,East Yesler Grocery,1902 YESLER WAY,98122,Seattle, ,Grocery,I, , , , ," 
",280,1652.02953078
-122.321768319798167,47.606303678785913,858,352236,0000000,350,Eastern'S Pharmacy,Eastern'S Pharmacy,515 MINOR AVE STE 120,98104,Seattle,(206) 622-6094,Seating 0-12,I, , , , ," 
",223,919.240825914
-122.323916990007419,47.648626369329307,859,352240,0000000,350,Eastlake Bar & Grill,Eastlake Bar & Grill,2947 EASTLAKE AVE E,98102,Seattle,(206) 320-0785,Seating 51-150,III, , , , ," 
",-1,-1
-122.325530879566927,47.639582408839232,860,352243,0000000,350,Eastlake Market,Eastlake Market,2244 EASTLAKE AVE E,98102,Seattle,(602) 470-7618,Seating 0-12,III, , , , ," 
",-1,-1
-122.325510789975212,47.639379459359738,861,352244,0000000,350,Eastlake Teriyaki,Eastlake Teriyaki,2236 EASTLAKE AVE E,98102,Seattle,(206) 323-7531,Seating 13-50,III, , , , ," 
",-1,-1
-122.334270290590467,47.602855778984498,862,352256,0000000,350,Easy Joe'S,Easy Joe'S,704 1ST AVE,98104,Seattle,(206) 343-9567,Seating 51-150,III, , , , ," 
",223,2939.03624598
-122.312907669538077,47.655484428765298,863,352257,0000000,350,Easy Shoppe,Easy Shoppe,1406 NE 40TH ST,98105,Seattle,(206) 634-2399,Seating 0-12,II, , , , ," 
",-1,-1
-122.387086010483415,47.561464599026138,864,352259,0000000,350,Easy Street Cafe/ Records,Easy Street Cafe/ Records,4559 CALIFORNIA AVE SW,98116,Seattle, ,Seating 13-50,III, , , , ," 
",-1,-1
-122.356077279511581,47.733823448975294,865,352262,0000000,350,Eathai Cafe,Eathai Cafe,14419 GREENWOOD AVE N #C,98133,Seattle,(206) 915-9404,Seating 13-50,III, , , , ," 
",-1,-1
-122.366711999774893,47.522681999487382,866,352263,0000000,350,Eats Market Cafe,Eats Market Cafe,2600 SW BARTON ST Unit B8,98126,Seattle,(206) 763-2676,Seating 13-50,III, , , , ," 
",-1,-1
-122.345092150062612,47.701050649217535,867,352267,0000000,350,Ecs Aurora,Ecs Aurora,9881 AURORA AVE N,98103,Seattle,(206) 526-9622,Seating 0-12,I, , , , ," 
",-1,-1
-122.333511980574585,47.593866539104809,868,352269,0000000,350,Edgar Batiste Seattle Sausage,Edgar Batiste Seattle Sausage,1021 OCCIDENTAL AVE,98134,Seattle,(206) 335-8525,Mobile Food Service,I, , , , ," 
",-1,-1
-122.340008039556224,47.612071189116236,869,352272,0000000,350,Edible Arrangements,Edible Arrangements,1912 3RD AVE,98101,Seattle,(425) 646-2200,Seating 0-12,II, , , , ," 
",-1,-1
-122.378575730428338,47.669602258767107,870,352276,0000000,350,Eet Bar,Eet Bar,1556 NW 56TH ST,98107,Seattle,(206) 783-0131,Seating 51-150,III, , , , ," 
",-1,-1
-122.34186699950358,47.66193199893781,871,352279,0000000,350,Egg Ceteras Blue Star Cafe & Pub,Egg Ceteras Blue Star Cafe & Pub,4512 STONE WAY N,98103,Seattle,(206) 548-0133,Seating 151-250,III, , , , ," 
",-1,-1
-122.342940170567545,47.615618958904548,872,352280,0000000,350,Eggs And Plants Llc,Eggs And Plants Llc,2229 5TH AVE,98121,Seattle, ,Seating 13-50,III, , , , ," 
",-1,-1
-122.320460000337349,47.620736999151099,873,352281,0000000,350,"Einstein Bro'S Bagels;  #3588","Einstein Bro'S Bagels;  #3588",224 BROADWAY AVE E #C123,98102,Seattle,(303) 568-8000,Seating 13-50,III, , , , ," 
",632,845.147544486
-122.357179729685441,47.637579649364632,874,352282,0000000,350,Einstein Bros Bagels,Einstein Bros Bagels #2157,2133 QUEEN ANNE AVE N,98109,Seattle,(510) 749-1806,Seating 13-50,III, , , , ," 
",-1,-1
-122.338833439683782,47.618021548637557,875,352283,0000000,350,Einstein Bros Bagels #2161,Einstein Bros Bagels #2161,2201 Westlake AVE #101,98121,Seattle, ,Seating 13-50,III, , , , ," 
",-1,-1
-122.330500089865524,47.603951119400229,876,352287,0000000,350,Einstein Bros Bagels #3477,Einstein Bros Bagels #3477,600 4TH AVE,98104,Seattle,(303) 568-8000,Seating 13-50,III, , , , ," 
",223,1973.46270957
-122.294024810211653,47.573449378668137,877,352289,0000000,350,El Asador,El Asador (Kc187),3320 RAINIER AVE S,98144,Seattle,(425) 207-6113,Mobile Food Service,III, , , , ," 
",-1,-1
-122.340741010365804,47.609314118855828,878,352290,0000000,350,El Borracho,El Borracho,1521 1ST AVE,98101,Seattle, ,Seating 13-50,III, , , , ," 
",-1,-1
-122.337900000248609,47.605814999493163,879,352292,0000000,350,El Cabrito (Kc270) @ 21104 Pacific Hwy S Seatac,El Cabrito (Kc270),1122 POST AVE,98108,Seattle,(206) 240-9095,Mobile Food Service,III, , , , ," 
",-1,-1
-122.333809009849759,47.5770886094123,880,352295,0000000,350,El Camion (3) @ 5314 15Th Ave Nw,El Camion,11728 AURORA AVE N,98133,Seattle, ,Mobile Food Service,III, , , , ," 
",-1,-1
-122.333809009849759,47.5770886094123,881,352296,0000000,350,El Camion 1 @ 11728 Aurora Ave N,El Camion,11728 AURORA AVE N,98133,Seattle, ,Mobile Food Service,III, , , , ," 
",-1,-1
-122.333809009849759,47.5770886094123,882,352297,0000000,350,El Camion 2 @ 2918 1St Ave S,El Camion,11728 AURORA AVE N,98133,Seattle, ,Mobile Food Service,III, , , , ," 
",-1,-1
-122.311322269462806,47.58033620882545,883,352303,0000000,350,El Centro De La Raza,El Centro De La Raza,2524 16TH AVE S,98144,Seattle,(206) 329-9442,Non-Profit Institution,III, , , , ," 
",-1,-1
-122.35568066006681,47.678142379354419,884,352306,0000000,350,El Chupacabra,El Chupacabra,6711 GREENWOOD AVE N,98103,Seattle,(206) 384-8009,Seating 13-50,III, , , , ," 
",-1,-1
-122.339933719478196,47.60478741886142,885,352310,0000000,350,Goodtime 2,Argosy,1101 ALASKAN WAY 201,98101,Seattle,(206) 623-1445,Seating 51-150,I, , , , ," 
",-1,-1
-122.339933719478196,47.60478741886142,886,352311,0000000,350,Goodtime 3,Argosy,1101 ALASKAN WAY 201,98101,Seattle,(206) 623-1445,Seating 51-150,I, , , , ," 
",-1,-1
-122.347611960140881,47.617906548922193,887,352313,0000000,350,Himalayan Bambino,Babidom Llc Himalayan Bambino,401 CEDAR ST,98121,Seattle,(206) 728-7835,Seating 13-50,III, , , , ," 
",-1,-1
-122.339933719478196,47.60478741886142,888,352315,0000000,350,Lady Mary,Argosy,1101 ALASKAN WAY 201,98101,Seattle,(206) 623-1445,Seating 51-150,I, , , , ," 
",-1,-1
-122.330281140090833,47.546275319235484,889,352320,0000000,350,Mc Donald'S  (Abboud'S),"Abboud'S Mcdonald'S; Llc",6145 4TH AVE S,98108,Seattle,(206) 763-9646,Seating 51-150,III, , , , ," 
",-1,-1
-122.335313020592267,47.612892249096298,890,352325,0000000,350,Pacific Place Ii / Lower Level,Amc Theatres Pacific Place Ii,600 PINE ST,98101,Seattle, ,Seating 0-12,II, , , , ," 
",569,1452.11376494
-122.335313020592267,47.612892249096298,891,352326,0000000,350,Pacific Place Ii / Upper,Amc Theatres Pacific Place Ii,600 PINE ST,98101,Seattle, ,Seating 0-12,II, , , , ," 
",569,1452.11376494
-122.339933719478196,47.60478741886142,892,352330,0000000,350,Royal Argosy,Argosy,1101 ALASKAN WAY 201,98101,Seattle,(206) 623-1445,Seating > 250,III, , , , ," 
",-1,-1
-122.339933719478196,47.60478741886142,893,352331,0000000,350,Royal Argosy - Prep Kitchen,Argosy,1101 ALASKAN WAY 201,98101,Seattle,(206) 623-1445,Seating 0-12,III, , , , ," 
",-1,-1
-122.352615550492374,47.614260359372786,894,352333,0000000,350,Seattle Art  / Multi-Use Kitchen 508 B501,Art Institute Of Seattle,2601 ELLIOTT AVE,98121,Seattle,(206) 448-0900,Seating 0-12,III, , , , ," 
",-1,-1
-122.339933719478196,47.60478741886142,895,352334,0000000,350,Sightseer,Argosy,1101 ALASKAN WAY 201,98101,Seattle,(206) 623-1445,Seating 51-150,I, , , , ," 
",-1,-1
-122.339933719478196,47.60478741886142,896,352336,0000000,350,Spirit Of Seattle,Argosy,1101 ALASKAN WAY 201,98101,Seattle,(206) 623-1445,Seating > 250,I, , , , ," 
",-1,-1
-122.368790079676444,47.660182248915206,897,352340,0000000,350,Sushi@ Fm608,Afc Sushi #Fm608,915 NW 45TH ST,98107,Seattle,(312) 604-3200,Seating 0-12,III, , , , ," 
",-1,-1
-122.319593630327205,47.61422855925742,898,352343,0000000,350,The Comet,"Comet; The",922 E PIKE ST,98122,Seattle, ,Seating 51-150,I, , , , ," 
",631,972.640108436
-122.320723230405207,47.624817129163418,899,352344,0000000,350,The Confectional @ 305 Harrison St Armory,Confectional,"305 HARRISON ARMORY"" ST E",98109,Seattle,(206) 282-4422,Mobile Food Service,I, , , , ," 
",174,595.690444756
-122.335313020592267,47.612892249096298,900,352347,0000000,350,Tower Bar & Cafe @Amc Theatres Pacific Place,Amc Theatres Pacific Place Ii,600 PINE ST,98101,Seattle, ,Seating 0-12,I, , , , ," 
",569,1452.11376494
-122.336159560298654,47.62167917902034,901,352348,0000000,350,Warehouse 345 Cafe @ Amazon Bon Appetit,Bon Appetit,345 BOREN AVE,98109,Seattle,(206) 342-2000,Seating > 250,III,PR0080924,BON APPETIT,BON APPETIT,Y,"1301 2ND AVE
",409,1285.47959957
-122.386512270017334,47.544412219157181,902,352349,0000000,350,West Seattle Thriftway - Chinatown Cafe,Chinatown Cafe,4201 SW MORGAN ST,98136,Seattle,(206) 328-1680,Seating 0-12,III, , , , ," 
",-1,-1
-122.331678019481274,47.611773739129681,903,352350,0000000,350,Wsctc -Deli   F,Aramark  @ Convention Place,800 CONVENTION PL,98101,Seattle,(206) 694-5088,Seating 0-12,III, , , , ," 
",686,1532.82718564
-122.312852050107807,47.659242899028364,904,350008,0000000,350,A Burger Place,A Burger Place,4234 UNIVERSITY WAY NE,98105,Seattle,(425) 889-2046,Seating 13-50,III, , , , ," 
",-1,-1
-122.312677979327489,47.667616668720683,905,350017,0000000,350,A Pizza Mart Bar & Grill Inc,A Pizza Mart Bar & Grill Inc,5240 UNIVERSITY WAY NE STE D,98105,Seattle,(206) 697-5011,Seating 51-150,III, , , , ," 
",-1,-1
-122.310499280636591,47.733345059231972,906,350111,0000000,350,Afc Sushi @ Qfc 858,Afc Sushi @ Qfc #858,1531 NE 145TH ST,98125,Seattle,(310) 604-3200,Seating 0-12,III, , , , ," 
",-1,-1
-122.382404119917709,47.560002149198681,907,350223,0000000,350,Alki Masonic Temple,Alki Masonic Temple,4736 40TH AVE SW,98116,Seattle,(206) 938-3554,Seating 51-150,III, , , , ," 
",-1,-1
-122.317042739416351,47.549047718853465,908,350228,0000000,350,All City Coffee,All City Coffee,1205 S VALE ST,98108,Seattle,(206) 767-7146,Seating 0-12,I, , , , ," 
",-1,-1
-122.321183130499961,47.624444848631626,909,350323,0000000,350,Aoki Japanese Grill & Sushi,Aoki Japanese Grill & Sushi,621 BROADWAY AVE E,98102,Seattle,(206) 324-3633,Seating 51-150,III, , , , ," 
",135,554.158974093
-122.354212390239852,47.614325849503089,910,350332,0000000,350,Aqua By El Gaucho,Aqua By El Gaucho,2801 Alaskan WAY,98121,Seattle, ,Seating 51-150,III, , , , ," 
",-1,-1
-122.348492150303585,47.615468229352615,911,350342,0000000,350,Arbor Deli,Arbor Deli,2505 2ND AVE,98121,Seattle,(206) 441-8060,Seating 13-50,III, , , , ," 
",-1,-1
-122.334206319429072,47.605515959394275,912,350428,0000000,350,Atlantic Street Pizza,Atlantic Street Pizza,999 3RD AVE,98104,Seattle,(206) 524-4432,Seating 0-12,III, , , , ," 
",223,2456.98414227
-122.30461092030005,47.675906339169103,913,350503,0000000,350,Bagel Oasis,Bagel Oasis,2112 NE 65TH ST,98115,Seattle,(206) 526-3605,Seating 13-50,III, , , , ," 
",-1,-1
-122.393739949832806,47.668470418775698,914,350536,0000000,350,Ballard Kiss Cafe,Ballard Kiss Cafe,2817 NW MARKET ST,98107,Seattle,(206) 297-1668,Seating 13-50,III, , , , ," 
",-1,-1
-122.319884219666406,47.614236199353904,915,350548,0000000,350,Ballet Restaurant,Ballet Restaurant,914 E PIKE ST,98122,Seattle,(206) 328-7983,Seating 51-150,III, , , , ," 
",258,991.883074228
-122.385129339499656,47.669743459338257,916,350619,0000000,350,Bartell Drugs #04,Bartell Drugs #04,5605 22ND AVE NW,98107,Seattle,(206) 763-2626,Grocery,I, , , , ," 
",-1,-1
-122.385513880142625,47.58204171906997,917,350638,0000000,350,Bartell Drugs #56,Bartell Drugs #56,2345 42ND AVE SW,98116,Seattle,(206) 763-2626,Grocery,I, , , , ," 
",-1,-1
-122.381157689904029,47.655540788960522,918,350680,0000000,350,Bay Cafe  #108,Bay Cafe  #108,1900 W NICKERSON ST #108,98119,Seattle,(206) 282-3435,Seating 51-150,III, , , , ," 
",-1,-1
-122.303661089971328,47.558517019342666,919,350696,0000000,350,Beacon Bbq Deli,Beacon Bbq Deli,4886 BEACON AVE S,98108,Seattle, ,Seating 0-12,III, , , , ," 
",-1,-1
-122.313740689526497,47.56397158937866,920,350699,0000000,350,Beacon Hill Foods,Beacon Hill Foods,4347 15TH AVE S,98108,Seattle,(206) 763-9217,Grocery,I, , , , ," 
",-1,-1
-122.345027069817533,47.613366458674676,921,350707,0000000,350,Bear And The Bee,Bear And The Bee,2211 2ND AVE,98121,Seattle,(206) 498-9967,Seating 13-50,III, , , , ," 
",-1,-1
-122.348397280432138,47.614722888839196,922,350764,0000000,350,"Belltown Market; Inc.","Belltown Market; Inc",2424 1ST AVE,98121,Seattle,(206) 443-9433,Seating 0-12,II, , , , ," 
",-1,-1
-122.290150929674255,47.557307579280476,923,350857,0000000,350,Billiard Hoang/Pool Hall,Billiard Hoang/Pool Hall,3220 S HUDSON ST,98118,Seattle, ,Seating 13-50,III, , , , ," 
",-1,-1
-122.301908950494379,47.57647429884436,924,350901,0000000,350,Blaine Memorial United Methodist Church,Blaine Memorial United Methodist,3001 24TH AVE S,98144,Seattle, ,Non-Profit Institution,III, , , , ," 
",-1,-1
-122.339273329884733,47.608370138892219,925,350904,0000000,350,Blarney Stone Pub,Blarney Stone Pub,1416 1ST AVE,98101,Seattle,(206) 448-8439,Seating 51-150,III, , , , ," 
",-1,-1
-122.317881640212804,47.695729078663575,926,350938,0000000,350,Blue Saucer,Blue Saucer,9127 ROOSEVELT WAY NE,98115,Seattle,(425) 338-9158,Seating 13-50,II, , , , ," 
",-1,-1
-122.357429920469073,47.618250658877429,927,350953,0000000,350,Boat Street Cafe,Boat Street Cafe,3131 WESTERN AVE,98121,Seattle, ,Seating 51-150,III, , , , ," 
",-1,-1
-122.322313849771646,47.568250708928645,928,350980,0000000,350,Bogart'S Airport Way,Bogart'S Airport Way,3924 AIRPORT WAY S,98108,Seattle,(206) 622-1119,Seating 51-150,III, , , , ," 
",-1,-1
-122.337066640242497,47.622519369204753,929,351000,0000000,350,Bon Appetit @ Amazon.Com / Kitchen/ Downstairs,Bon Appetit,440 TERRY AVE N,98109,Seattle,(206) 266-0576,Seating 0-12,III,PR0080924,BON APPETIT,BON APPETIT,Y,"1301 2ND AVE
",-1,-1
-122.340888859869779,47.610291699174198,930,351025,0000000,350,Botticelli Cafe,Botticelli Cafe,101 STEWART ST,98101,Seattle, ,Seating 0-12,III, , , , ," 
",-1,-1
-122.330053070475245,47.566659099297553,931,351149,0000000,350,Burger Madness,Burger Madness,4117 4TH AVE S,98134,Seattle,(425) 345-6662,Seating 13-50,III, , , , ," 
",-1,-1
-122.331875369528674,47.606044189505546,932,351194,0000000,350,Cafe 5Ive,Cafe 5Ive,901 5TH AVE,98104,Seattle, ,Seating 13-50,III, , , , ," 
",223,1850.64291693
-122.387888220503257,47.671830729352784,933,351201,0000000,350,"Cafe Besalu; Inc","Cafe Besalu; Inc",5909 24TH AVE NW,98107,Seattle,(206) 789-1463,Seating 0-12,III, , , , ," 
",-1,-1
-122.383208700053302,47.666783038757082,934,351207,0000000,350,Cafe Cugini,Cafe Cugini,5306 BALLARD AVE NW,98107,Seattle,(206) 954-9215,Seating 0-12,II, , , , ," 
",-1,-1
-122.302179480197111,47.611825959104593,935,351210,0000000,350,Cafe Fava Llc,Cafe Fava Llc,1106 23RD AVE,98122,Seattle,(206) 325-0350,Seating 0-12,III, , , , ," 
",503,1221.2866021
-122.322748190524862,47.689769828903124,936,351218,0000000,350,Cafe Javasti,Cafe Javasti,8410 5TH AVE,98115,Seattle,(206) 235-2498,Seating 13-50,III, , , , ," 
",-1,-1
-122.387898990132086,47.686969239284522,937,351229,0000000,350,Cafe Munir,Cafe Munir,2408 NW 80TH ST,98117,Seattle,(206) 330-6020,Seating 0-12,III, , , , ," 
",-1,-1
-122.313532750525965,47.658510669134039,938,351230,0000000,350,Cafe On The Ave,Cafe On The Ave,4201 UNIVERSITY WAY NE,98105,Seattle,(206) 618-9600,Seating 13-50,III, , , , ," 
",-1,-1
-122.334704589531142,47.601583479137737,939,351235,0000000,350,Cafe Paloma,Cafe Paloma,93 YESLER WAY,98104,Seattle,(206) 405-1920,Seating 13-50,III, , , , ," 
",223,3320.24075666
-122.309611139554988,47.594662769391768,940,351258,0000000,350,Cafe Weekend,Cafe Weekend,851 HIAWATHA PL S,98144,Seattle,(206) 271-0380,Seating 0-12,II, , , , ," 
",-1,-1
-122.328130679632565,47.614831969231716,941,351289,0000000,350,Calf & Kid,Calf & Kid,1531 MELROSE AVE,98122,Seattle,(206) 851-2142,Seating 0-12,II, , , , ," 
",686,753.392381085
-122.335016620242342,47.608676339425088,942,351296,0000000,350,Calozzi'S Cheesesteaks,Calozzi'S Cheesesteaks,1306 4th AVE,98101,Seattle,(425) 221-5116,Seating 13-50,III, , , , ," 
",223,2539.18331337
-122.346816309597202,47.643123909296719,943,351319,0000000,350,Canlis Restaurant,Canlis Restaurant,2576 AURORA AVE N,98109,Seattle,(206) 283-3313,Seating 151-250,III, , , , ," 
",-1,-1
-122.316053919756044,47.599692218675862,944,351360,0000000,350,Casablanca Cafe & Deli,Casablanca Cafe & Deli,1221 S MAIN ST #202,98144,Seattle,(206) 370-0578,Seating 13-50,III, , , , ," 
",176,540.97400196
-122.314423250415913,47.615053389191395,945,351371,0000000,350,Cascina Spinasse,Cascina Spinasse,1531 14TH AVE,98122,Seattle,(206) 324-8815,Seating 51-150,III, , , , ," 
",568,827.70955669
-122.386227280021131,47.581498339329379,946,351382,0000000,350,"Cask; The","Cask; The",2350 CALIFORNIA AVE SW,98116,Seattle,(206) 227-5723,Seating 13-50,III, , , , ," 
",-1,-1
-122.303927390077575,47.536798839245279,947,351397,0000000,350,Cavu Cafe,Cavu Cafe,7277 PERIMETER RD S,98108,Seattle, ,Seating 13-50,III, , , , ," 
",-1,-1
-122.354182439496995,47.672995909162175,948,351494,0000000,350,Chef Liao,Chef Liao,6012 PHINNEY AVE N,98103,Seattle,(206) 789-6441,Seating 13-50,III, , , , ," 
",-1,-1
-122.337770269477076,47.607623828876889,949,351582,0000000,350,Chip & Drew'S Filling Station,Chip & Drew'S Filling Station,1301 2ND AVE #150,98101,Seattle, ,Seating 13-50,III, , , , ," 
",-1,-1
-122.326436839368711,47.617041278627298,950,351661,0000000,350,City Market,City Market,1722 BELLEVUE AVE,98122,Seattle,(206) 323-1715,Seating 0-12,III, , , , ," 
",258,1257.84946403
-122.312562109906864,47.62092373948618,951,351712,0000000,350,Coffee Pronto,Coffee Pronto,312 15TH AVE E,98112,Seattle, ,Seating 0-12,III, , , , ," 
",632,1171.01220847
-122.280466200441893,47.553537998824929,952,351777,0000000,350,Corazon Taqueria,Corazon Taqueria,5303 RAINIER AVE S #B,98118,Seattle,(206) 557-7921,Seating 13-50,III, , , , ," 
",-1,-1
-122.33459224028654,47.598521958782122,953,351863,0000000,350,Cowgirls Inc.,Cowgirls Inc.,421 1ST AVE S,98104,Seattle, ,Seating 51-150,III, , , , ," 
",223,4143.17812588
-122.336780680171586,47.621505688910773,954,351915,0000000,350,Cuoco,Cuoco,310 TERRY AVE N,98109,Seattle,(206) 448-2001,Seating 151-250,III, , , , ," 
",-1,-1
-122.317545089897138,47.61388473933517,955,351917,0000000,350,Cupcake Royale @ 2052 Nw Market St,Cupcake Royale,1111 E PIKE ST,98122,Seattle,(206) 992-9794,Mobile Food Service,II, , , , ," 
",631,519.629694494
-122.316591509369601,47.615074168791566,956,351940,0000000,350,"D'Ambrosio Gelato; Llc","D'Ambrosio Gelato; Llc",1542 12TH AVE,98122,Seattle,(206) 856-3874,Seating 13-50,II, , , , ," 
",631,864.023676412
-122.340257849357585,47.615288368803746,957,351950,0000000,350,Dahlia Workshop,Dahlia Workshop,2131 6TH AVE,98121,Seattle,(206) 448-2001,Bakery,II, , , , ," 
",-1,-1
-122.31605570014807,47.599690379170589,958,351969,0000000,350,Dang Dang Cha Lua Restaurant,Dang Dang Cha Lua Restaurant,1221 S MAIN ST #101,98144,Seattle, ,Seating 0-12,III, , , , ," 
",176,541.720424132
-122.335550139716077,47.606985138966124,959,351983,0000000,350,Davis Wright  Tremaine Llp,Davis Wright  Tremaine Llp,1201 3RD AVE,98101,Seattle,(206) 689-7202,Seating 51-150,III, , , , ," 
",223,2663.45603899
-122.359707490629347,47.623500929250731,960,351997,0000000,350,Decadence Custom Cakes Llc,Decadence Custom Cakes Llc,501 2ND AVE W STE 100,98119,Seattle, ,Seating 0-12,III, , , , ," 
",-1,-1
-122.297459569519262,47.663556998910757,961,352004,0000000,350,Delfino'S Pizzeria,Delfino'S Pizzeria,2631 NE UNIVERSITY VILLAGE MALL,98105,Seattle,(206) 972-5411,Seating 13-50,III, , , , ," 
",-1,-1
-122.343502610284318,47.614179039033381,962,352008,0000000,350,Deli Shez Cafe,Deli Shez Cafe,318 BLANCHARD ST,98121,Seattle,(206) 938-9983,Seating 0-12,III, , , , ," 
",-1,-1
-122.303974609984493,47.559087358636887,963,352075,0000000,350,Dim Sum House,Dim Sum House,4860 BEACON AVE S,98108,Seattle,(206) 725-1867,Seating 13-50,III, , , , ," 
",-1,-1
-122.346829660479997,47.725076548953488,964,352120,0000000,350,Dollar Tree #2320,Dollar Tree #2320,13233 AURORA AVE N,98133,Seattle,(757) 321-5000,Grocery,I, , , , ," 
",-1,-1
-122.34973391986415,47.658995128726126,965,352164,0000000,350,Dot'S Delicatessen,Dot'S Delicatessen,4262 FREMONT AVE N,98103,Seattle,(206) 412-7333,Seating 13-50,III, , , , ," 
",-1,-1
-122.334575310257307,47.600424259381612,966,352174,0000000,350,Down Home Catering,Down Home Catering,211 1ST AVE S,98032,Kent, ,Catering Operation,III, , , , ," 
",223,3598.95547879
-122.38389542968531,47.56103919950899,967,352182,0000000,350,Dream Dinners - West Seattle,Dream Dinners - West Seattle,4700 41ST AVE SW,98116,Seattle, ,Seating 0-12,III, , , , ," 
",-1,-1
-122.321196000075162,47.623307999016994,968,352261,0000000,350,"Eat Local; Llc","Eat Local; Llc",503 BROADWAY AVE E,98102,Seattle,(206) 432-9849,Grocery,I, , , , ," 
",174,805.088717021
-122.344772340579965,47.685985649389877,969,352268,0000000,350,Eddie'S Pan Asian Restaurant,Eddie'S Pan Asian Restaurant,7821 AURORA AVE N,98103,Seattle,(425) 999-9018,Seating 13-50,III, , , , ," 
",-1,-1
-122.375713899654642,47.675780328999821,970,352294,0000000,350,El Camion,El Camion,6416 15TH AVE NW,98107,Seattle,(206) 271-4480,Seating 13-50,III, , , , ," 
",-1,-1
-122.351369130471838,47.619438018640544,971,352327,0000000,350,Pacific Science Center / Imax Concession Stand,Boeing Imax Concession Stand,200 2ND AVE N,98109,Seattle, ,Non-Profit Institution,I, , , , ," 
",-1,-1
-122.336159560298654,47.62167917902034,972,352351,0000000,350,Zoka Coffee Roaster @ Amazon Bon Appetit,Bon Appetit,345 BOREN AVE,98109,Seattle,(206) 342-2000,Seating 13-50,II,PR0080924,BON APPETIT,BON APPETIT,Y,"1301 2ND AVE
",409,1285.47959957
-122.329572730478105,47.581005509197674,973,350352,0000000,350,Arbys  #6282,Arbys  #6282,2425 4TH AVE S,98134,Seattle,(404) 256-4900,Seating 51-150,III,PR0002669,ARBYS  #6282,ARBYS,Y,"2425 4TH AV S
",-1,-1
-122.283114980454172,47.539313138894116,974,350493,0000000,350,Ba Mien Seafood Market,Ba Mien Seafood Market,6951 M L KING JR WAY S,98118,Seattle,(206) 725-7974,Meat/Sea Food,III, , , , ," 
",-1,-1
-122.291304920021815,47.661390319456707,975,351571,0000000,350,China Village Restaurant,China Village Restaurant,3224 NE 45TH ST,98105,Seattle,(206) 523-0772,Seating 51-150,III, , , , ," 
",-1,-1
-122.330595669772663,47.617697218846459,976,351935,0000000,350,Cycle Cafe,Cycle Cafe,1220 HOWELL ST,98101,Seattle,(206) 200-2251,Seating 51-150,III, , , , ," 
",569,1206.28686285
-122.338814989404881,47.622229639114266,977,351947,0000000,350,Dahlia Bakery Workshop,Dahlia Bakery Workshop,401 WESTLAKE AVE N,98109,Seattle,(206) 448-2001,Seating 13-50,III, , , , ," 
",-1,-1
-122.323642490328552,47.701602379145925,978,352317,0000000,350,Lilly'S @ Aljoya Thornton Place,Aljoya Thorton Place,450 NE 100TH ST,98125,Seattle,(206) 306-7920,Seating 51-150,III, , , , ," 
",-1,-1
-122.398668249341441,47.668371509230077,979,352324,0000000,350,Northwest Senior Center,Ballard Nutrition,5429 32ND AVE NW,98107,Seattle, ,Non-Profit Institution,III, , , , ," 
",-1,-1
-122.33758090937917,47.609070809382608,980,351099,0000000,350,Brunos Restaurant,Brunos Restaurant,1417 3RD AVE,98101,Seattle,(206) 622-3180,Seating 51-150,III, , , , ," 
",-1,-1
-122.313438510596413,47.662326259053707,981,352125,0000000,350,Dollar Tree #4761,Dollar Tree #4761,4535 UNIVERSITY WAY NE,98105,Seattle,(757) 321-5000,Grocery,I, , , , ," 
",-1,-1
-122.334439710414898,47.607449609272308,982,351271,0000000,350,Caffe Migliore,Caffe Migliore,1201 4TH AVE,98101,Seattle,(206) 628-5133,Seating 13-50,II, , , , ," 
",223,2377.26134105
-122.377221159868185,47.564864899457199,983,351112,0000000,350,Buddha Ruksa,Buddha Ruksa,3520 SW GENESEE ST,98126,Seattle,(206) 937-5740,Seating 51-150,III, , , , ," 
",-1,-1
-122.386646969561497,47.543661548860733,984,351181,0000000,350,C & F Food Store,C & F Food Store,6540 CALIFORNIA AVE SW,98136,Seattle,(206) 938-2882,Grocery,I, , , , ," 
",-1,-1
-122.344763479590554,47.613150729453672,985,350676,0000000,350,Bathtub Gin & Co.,Bathtub Gin & Co.,2205 2ND AVE 603,98121,Seattle, ,Seating 0-12,I, , , , ," 
",-1,-1
-122.382319480445148,47.667097968843642,986,350214,0000000,350,Alison Coastal Cafe & Bakery,Alison'S Coastal Cafe & Bakery,5404 LEARY AVE NW,98107,Seattle,(206) 322-5028,Seating 0-12,III, , , , ," 
",-1,-1
-122.333838120176551,47.627742108657316,987,351466,0000000,350,Chandlers Crab House,Chandlers Crab House,901 FAIRVIEW AVE N,98109,Seattle, ,Seating 151-250,III, , , , ," 
",135,2808.72208393
-122.342039729401051,47.633861338999083,988,352052,0000000,350,Dexter & Hayes Public House,Dexter & Hayes Public House,1628 DEXTER AVE N,98109,Seattle,(206) 283-7786,Seating 51-150,III, , , , ," 
",-1,-1
-122.317142009510363,47.67293293909902,989,352064,0000000,350,Die Bierstube,Die Bierstube,6106 ROOSEVELT WAY NE,98115,Seattle,(206) 383-4183,Seating 13-50,III, , , , ," 
",-1,-1
-122.274841000025532,47.524958999296317,990,352206,0000000,350,Dunlap Ele School -New Kitchen,Dunlap Ele School -New Kitchen,4525 S CLOVERDALE ST,98118,Seattle, ,School Kitchen, , , , , ," 
",-1,-1
-122.3356947905921,47.609464269325414,991,352301,0000000,350,"El Carrico Espresso I @ 1400 4Th Ave; Seattle 98101",El Carrico Espresso I,1411 4TH AVE,98101,Seattle,(206) 621-9225,Mobile Food Service,I, , , , ," 
",569,2703.99139725
-122.303164310508336,47.599426768908643,992,351492,0000000,350,Chef  Bar And Restaurant,Chef  Bar And Restaurant,2200 S JACKSON ST,98144,Seattle,(206) 324-5234,Seating 0-12,III, , , , ," 
",280,589.112449754
-122.387002420659798,47.668390329493675,993,351191,0000000,350,Caddy Shack Coffee @ 6310 Ne 74Th Street,Caddy Shack Coffee (Kc195),10325 37TH ST NE,98133,Seattle,(206) 423-9771,Mobile Food Service,III, , , , ," 
",-1,-1
-122.34036061015783,47.608888528999536,994,350686,0000000,350,Bb Ranch,Bb Ranch,94-A PIKE ST,98101,Seattle,(425) 260-7072,Meat/Sea Food,III, , , , ," 
",-1,-1
-122.315104830358564,47.585469189448325,995,350698,0000000,350,Beacon Hill Elementary School,Beacon Hill Elementary School,2025 14TH AVE S,98144,Seattle, ,School Kitchen, , , , , ," 
",-1,-1
-122.379337209603477,47.668527679197304,996,350535,0000000,350,Ballard Jam House,Ballard Jam House,1707 NW MARKET ST,98107,Seattle,(206) 941-5181,Seating 13-50,III, , , , ," 
",-1,-1
-122.319871000488433,47.615126998788732,997,351443,0000000,350,Century Ballroom,Century Ballroom,915 E PINE ST,98122,Seattle,(206) 324-7263,Seating 51-150,III, , , , ," 
",258,701.224623548
-122.355862340221634,47.71938141876204,998,351493,0000000,350,Chef At Wok,Chef At Wok,12427 GREENWOOD AVE N,98133,Seattle,(206) 362-0139,Seating 13-50,III, , , , ," 
",-1,-1
-122.340118629734661,47.608642099235979,999,352003,0000000,350,Delaurenti Italian Market,Delaurenti  Italian Market,1435 1ST AVE,98101,Seattle,(206) 622-0141,Seating 13-50,III, , , , ," 
",-1,-1
-122.326131820138173,47.639900478819463,1000,352245,0000000,350,Eastlake Zoo Tavern,Eastlake Zoo Tavern,2301 EASTLAKE AVE E,98102,Seattle,(206) 329-3277,Seating 51-150,I, , , , ," 
",-1,-1
-122.356664749449635,47.635379698640612,1001,350816,0000000,350,Bethany Presbyterian,Bethany Presbyterian,1818 QUEEN ANNE AVE N,98109,Seattle,(206) 774-4701,Non-Profit Institution,III, , , , ," 
",-1,-1
-122.335112830312255,47.605660049126058,1002,350942,0000000,350,Blue Water Burrito Co,Blue Water Burrito Co,1000 2ND AVE,98104,Seattle,(206) 285-7229,Seating 0-12,III, , , , ," 
",223,2653.28604859
-122.41289207000132,47.578214219407023,1003,350225,0000000,350,Alki Urban Market,Alki Urban Market,2820 ALKI AVE SW,98116,Seattle,(425) 246-2830,Grocery,I, , , , ," 
",-1,-1
-122.325579190581905,47.546042799459769,1004,350347,0000000,350,Arby'S #6281,Arby'S #6281,601 S MICHIGAN ST,98108,Seattle,(206) 764-7095,Seating 13-50,III,PR0002670,ARBY'S #6281,ARBYS,Y,"601 S MICHIGAN ST
",-1,-1
-122.376698139340576,47.670655478917162,1005,350526,0000000,350,Ballard 76,Ballard 76,5715 15TH AVE NW,98107,Seattle,(206) 784-2699,Seating 0-12,I, , , , ," 
",-1,-1
-122.364521050602576,47.659110589204253,1006,350533,0000000,350,Ballard Grill & Ale House,Ballard Grill & Ale House,4300 LEARY WAY NW,98107,Seattle,(206) 384-0850,Seating 13-50,III, , , , ," 
",-1,-1
-122.381355870284395,47.664477109383697,1007,350538,0000000,350,Ballard Loft,Ballard Loft,5105 BALLARD AVE NW,98107,Seattle, ,Seating 51-150,III, , , , ," 
",-1,-1
-122.353012560064229,47.652165579214959,1008,350552,0000000,350,"Ballroom; The","Ballroom; The",456 N 36TH ST,98103,Seattle,(206) 633-3738,Seating 51-150,III, , , , ," 
",-1,-1
-122.335495240151161,47.661613449051472,1009,350621,0000000,350,Bartell Drugs #14,Bartell Drugs #14,1820 N 45TH ST,98103,Seattle,(206) 763-2626,Grocery,I, , , , ," 
",-1,-1
-122.270059350348944,47.55611458921917,1010,351278,0000000,350,Caffe Vita,Caffe Vita,5028 WILSON AVE S,98118,Seattle,(206) 722-5595,Seating 13-50,II, , , , ," 
",-1,-1
-122.312381859995881,47.728663909486059,1011,351350,0000000,350,"Caroline; The","Caroline; The",13702 15TH AVE NE,98125,Seattle,(206) 362-9876,Seating 13-50,III, , , , ," 
",-1,-1
-122.320410360594792,47.606362769435577,1012,351420,0000000,350,Cedars On Broadway,Cedars On Broadway,500 BROADWAY AVE,98122,Seattle,(206) 527-4000,Seating 13-50,III, , , , ," 
",223,1199.2041213
-122.310978550196168,47.615538068626236,1013,351439,0000000,350,Central Coop - Meat,Central Co-Op,1600 E MADISON ST,98122,Seattle, ,Meat/Sea Food,III, , , , ," 
",568,776.838189616
-122.304827149733981,47.665112349037102,1014,351458,0000000,350,Chambered Nautilus B &  B,Chambered Nautilus B &  B,5005 22ND AVE NE,98105,Seattle, ,Bed and Breakfast,I, , , , ," 
",-1,-1
-122.349680940559608,47.651127579367454,1015,351592,0000000,350,Chiso Restaurant,Chiso Restaurant,3520 FREMONT AVE N,98103,Seattle,(206) 632-3430,Seating 13-50,III, , , , ," 
",-1,-1
-122.325849749505593,47.617934698710663,1016,351682,0000000,350,Clever Dunnes,Clever Dunne'S,1501 E OLIVE WAY,98122,Seattle, ,Seating 51-150,III, , , , ," 
",258,1187.97252945
-122.326295620036362,47.617434508639512,1017,351885,0000000,350,Crescent Tavern,Crescent Tavern,1413 E OLIVE WAY,98122,Seattle,(206) 324-9477,Seating 13-50,I, , , , ," 
",258,1243.08207958
-122.320963000316766,47.613718999487297,1018,352146,0000000,350,Domino'S Pizza #7144,Domino'S Pizza #7144,1427 BROADWAY,98122,Seattle, ,Seating 0-12,III,PR0051690,DOMINO'S PIZZA #7144,DOMINOS PIZZA,Y,"1427 BROADWAY AV
",258,1116.17917654
-122.306892190473448,47.66170318874947,1019,352025,0000000,350,Delta Upsilon,Delta Upsilon,4508 19TH AVE NE,98105,Seattle,(206) 526-7333,Seating 13-50,III, , , , ," 
",-1,-1
-122.333267019628721,47.601349398652957,1020,351056,0000000,350,Brgr Bar,Brgr Bar,111 OCCIDENTAL AVE S,98104,Seattle, ,Seating 13-50,III, , , , ," 
",223,3132.23143778
-122.317255829839496,47.696929379423558,1021,351240,0000000,350,Cafe Piccolo,Cafe Piccolo,9400 ROOSEVELT WAY NE STE B,98115,Seattle,(206) 782-1069,Seating 13-50,III, , , , ," 
",-1,-1
-122.317649260588766,47.676148219253044,1022,350774,0000000,350,Bengal Tiger East Indian Cuisine,Bengal Tiger East Indian Cuisine,6509 ROOSEVELT WAY NE,98115,Seattle,(206) 985-0041,Seating 51-150,III, , , , ," 
",-1,-1
-122.33674232020735,47.685777538963009,1023,350921,0000000,350,Blu Water Bistro,Blu Water Bistro,7900 E GREENLAKE DR N,98103,Seattle,(206) 524-3985,Seating 51-150,III, , , , ," 
",-1,-1
-122.336686679346684,47.610826308713889,1024,350959,0000000,350,Bobachine Cafe,Bobachine Cafe,1514 4TH AVE,98101,Seattle,(206) 351-8622,Seating 0-12,III, , , , ," 
",-1,-1
-122.303146449808892,47.585354159152764,1025,352051,0000000,350,Detour Espresso,Detour Espresso,2006 RAINIER AVE S,98144,Seattle,(206) 227-5233,Seating 0-12,I, , , , ," 
",-1,-1
-122.333760380075049,47.612964849161813,1026,352181,0000000,350,Dragonfish Asian Cafe,Dragonfish Asian Cafe,722 PINE ST,98101,Seattle,(206) 861-9930,Seating 51-150,III, , , , ," 
",569,1477.40952943
-122.350235239472497,47.651149779024202,1027,352193,0000000,350,Dubliner,Dubliner,3517 FREMONT AVE N,98103,Seattle,(206) 548-1508,Seating 51-150,III, , , , ," 
",-1,-1
-122.329331859467189,47.618796158945536,1028,352307,0000000,350,El Corazon,El Corazon,109 EASTLAKE AVE E,98109,Seattle, ,Seating 51-150,I, , , , ," 
",569,1637.73503196
-122.314570350295966,47.661542309181456,1029,352345,0000000,350,The District,"District; The",4507 BROOKLYN AVE NE,98105,Seattle, ,Seating 13-50,III, , , , ," 
",-1,-1
-122.349123719764478,47.654635458675287,1030,350490,0000000,350,B F Day Elementary School Kitc,B F Day Elementary School Kitc,3921 LINDEN AVE N,98103,Seattle, ,School Kitchen, , , , , ," 
",-1,-1
-122.345825089743698,47.617888498996251,1031,351658,0000000,350,City Foods,City Foods,2522 5TH AVE,98121,Seattle,(206) 441-3663,Seating 0-12,III, , , , ," 
",-1,-1
-122.336792290591418,47.609151629388528,1032,350616,0000000,350,Bartell Drugs  #37,Bartell Drugs  #37,1404 3RD AVE,98101,Seattle, ,Grocery,I, , , , ," 
",-1,-1
-122.363752089675486,47.658237149440467,1033,351299,0000000,350,Cameron Catering,Cameron Catering,4216 6TH AVE NW,98107,Seattle,(206) 781-8149,Seating 0-12,III, , , , ," 
",-1,-1
-122.357018999957873,47.632027999463254,1034,351422,0000000,350,Cederberg Tea House,Cederberg Tea House,1417 QUEEN ANNE AVE N STE 101B,98109,Seattle,(425) 463-5888,Seating 13-50,III, , , , ," 
",-1,-1
-122.263845909867214,47.67865869925739,1035,351556,0000000,350,Children'S Hospital Deli / Pantry,Children'S Hospital Deli / Pantry,6901 SANDPOINT WAY NE,98115,Seattle,(206) 987-1759,Seating 13-50,III, , , , ," 
",-1,-1
-122.381744530386896,47.665540549067451,1036,351766,0000000,350,Conor Byrne'S,Conor Byrne'S,5140 BALLARD AVE NW,98107,Seattle, ,Seating 13-50,II, , , , ," 
",-1,-1
-122.336605999802615,47.554000999260978,1037,351951,0000000,350,Daily Coffee & Tea Co,Daily Coffee & Tea Co,5400 E MARGINAL WAY S,98134,Seattle,(206) 234-1787,Seating 0-12,I, , , , ," 
",-1,-1
-122.307542289931064,47.662808929208552,1038,352020,0000000,350,Delta Chi Fraternity,Delta Chi Fraternity,1819 NE 47TH ST,98105,Seattle,(206) 524-3228,Seating 13-50,III, , , , ," 
",-1,-1
-122.31230207983451,47.733257828985053,1039,351140,0000000,350,Burger King #4662,Burger King #4662,14340 15TH AVE NE,98125,Seattle,(206) 233-9727,Seating 13-50,III,PR0011253,BURGER KING #4662,BURGER KING,Y,"14340 15TH AV NE
",-1,-1
-122.342142789595115,47.728028068982766,1040,350062,0000000,350,Advantage Sales & Marketing,Advantage Sales & Marketing,13550 AURORA AVE N,98133,Seattle, ,Seating 0-12,I, , , , ," 
",-1,-1
-122.296416480584554,47.662818408906965,1041,350074,0000000,350,Afc Sushi @  (Qfc #807),Afc Sushi @  (Qfc #807),2746 NE 45TH ST,98105,Seattle, ,Seating 0-12,III, , , , ," 
",-1,-1
-122.342197369361969,47.652324178867858,1042,350673,0000000,350,Bastyr Center For Natural Health,Bastyr Center For Natural Health,3670 STONE WAY N,98103,Seattle,(206) 834-4000,Grocery,I, , , , ," 
",-1,-1
-122.291987120146231,47.626028708753182,1043,350738,0000000,350,Belle Epicurean,Belle Epicurean,3109 E MADISON ST,98112,Seattle,(206) 895-2696,Seating 13-50,III, , , , ," 
",436,1129.04483205
-122.344708770238299,47.682098818779593,1044,350814,0000000,350,Beth'S Cafe,Beth'S Cafe,7311 AURORA AVE N,98103,Seattle,(206) 940-2446,Seating 51-150,III, , , , ," 
",-1,-1
-122.387550559462596,47.545447818833203,1045,350821,0000000,350,Beveridge Place Pub,Beveridge Place Pub,6413 CALIFORNIA AVE SW,98136,Seattle, ,Seating 51-150,I, , , , ," 
",-1,-1
-122.354929999667945,47.69179099871824,1046,350859,0000000,350,Bills On Greenwood,Bills On Greenwood,8560 GREENWOOD AVE N,98103,Seattle,(206) 396-0252,Seating 51-150,III, , , , ," 
",-1,-1
-122.341228559819854,47.724620138619201,1047,351373,0000000,350,Cash & Carry #549,Cash & Carry #549,13102 STONE AVE N,98133,Seattle, ,Grocery,II, , , , ," 
",-1,-1
-122.405787149992435,47.580791749318173,1048,351621,0000000,350,Christo'S On Alki,Christo'S On Alki,2508 ALKI AVE SW,98116,Seattle, ,Seating 13-50,III, , , , ," 
",-1,-1
-122.305792500049321,47.6621638190976,1049,352021,0000000,350,Delta Delta Delta,Delta Delta Delta,4527 21ST AVE NE,98105,Seattle,(206) 523-1918,Seating 51-150,III, , , , ," 
",-1,-1
-122.296416480584554,47.662818408906965,1050,352284,0000000,350,Einstein Bros Bagels #2171,Einstein Bros Bagels #2171,2746 NE 45TH ST,98105,Seattle, ,Seating 0-12,III, , , , ," 
",-1,-1
-122.342337829728024,47.68744595938044,1051,350815,0000000,350,Bethany Community Church,Bethany Community Church,1147 N 81ST ST,98103,Seattle,(206) 524-9000,Non-Profit Institution,III, , , , ," 
",-1,-1
-122.284092860448254,47.555984929394683,1052,350848,0000000,350,Bilaall Mini Market Llc,Bilaal Mini Market Llc,5041 RAINIER AVE S STE 104,98118,Seattle,(206) 722-2184,Meat/Sea Food,III, , , , ," 
",-1,-1
-122.321922890223604,47.619792139507709,1053,350910,0000000,350,Bleu Bistor'S Grotto,Bleu Bistro'S Grotto,1801 E OLIVE WAY,98102,Seattle,(206) 930-7527,Seating 13-50,III, , , , ," 
",258,1112.16181993
-122.34568107023432,47.732772018633689,1054,350898,0000000,350,Black Rock Coffee Bar,Black Rock Coffee Bar,14313 AURORA AVE N,98133,Seattle,(206) 270-9940,Seating 0-12,I, , , , ," 
",-1,-1
-122.33625769012572,47.618272018853126,1055,350993,0000000,350,Bon - Appetit @ Cornish College,Bon - Appetit @ Cornish College,1000 LENORA ST,98121,Seattle,(206) 726-5006,Non-Profit Institution,III, , , , ," 
",409,42.9002448459
-122.377183490589942,47.522771548754704,1056,350867,0000000,350,Bird On A Wire Espresso,Bird On A Wire Espresso,3509 SW HENDERSON ST,98126,Seattle,(206) 713-7013,Seating 13-50,III, , , , ," 
",-1,-1
